{
"type": "FeatureCollection",
"name": "0315",
"crs": { "type": "name", "properties": { "name": "urn:ogc:def:crs:OGC:1.3:CRS84" } },
"features": [
{ "type": "Feature", "properties": { "fid": 14.0, "cat": 16, "CLAVE_ACUI": "0315", "NOM_ACUIF": "PLUTARCO ELIAS CALLES", "VULNERABIL": 2 }, "geometry": { "type": "MultiPolygon", "coordinates": [ [ [ [ -110.130523680458538, 23.144725800921723 ], [ -110.130813598773727, 23.147066117706789 ], [ -110.131401061712509, 23.150377273088221 ], [ -110.131813048784551, 23.152265548904992 ], [ -110.132560729735332, 23.1554603583917 ], [ -110.132888793909416, 23.157068254028015 ], [ -110.1332778917524, 23.158823014280717 ], [ -110.133590697347728, 23.161281586502646 ], [ -110.134132385594583, 23.162494659585342 ], [ -110.134574889067736, 23.164592743701355 ], [ -110.135299681074287, 23.166006088991061 ], [ -110.136199950418231, 23.16812705986619 ], [ -110.136642455260912, 23.170955659546852 ], [ -110.137123106915865, 23.172086716789281 ], [ -110.13760375862509, 23.174068450668809 ], [ -110.137771606639646, 23.174972533643199 ], [ -110.137794493737047, 23.175045013085953 ], [ -110.137863158983976, 23.175649643559584 ], [ -110.138191222778687, 23.17629432670693 ], [ -110.138565063187613, 23.176891326522519 ], [ -110.138801573393735, 23.177490235108905 ], [ -110.139335632181073, 23.179208756020586 ], [ -110.140121460062488, 23.17991829016384 ], [ -110.140457152900225, 23.180912017878406 ], [ -110.140945433662509, 23.181701661154488 ], [ -110.141092883091019, 23.182944658998835 ], [ -110.140873179862055, 23.182982798884375 ], [ -110.14037434828326, 23.183078981538014 ], [ -110.140009690168185, 23.183177337760984 ], [ -110.139627736626466, 23.183319771128428 ], [ -110.13883428590286, 23.183640603508398 ], [ -110.138481350766185, 23.183828355407606 ], [ -110.138215997889873, 23.184070781153807 ], [ -110.137954103604415, 23.183504811917711 ], [ -110.137764041557574, 23.182939240366466 ], [ -110.137387468266269, 23.181484687734976 ], [ -110.13708867679567, 23.180062519252171 ], [ -110.13687570235345, 23.178843308019388 ], [ -110.136493679094869, 23.176450077876602 ], [ -110.136021982340864, 23.174267493322038 ], [ -110.135392523081507, 23.171879449248571 ], [ -110.134837812002743, 23.170024732842002 ], [ -110.133803155017844, 23.166848625007624 ], [ -110.133259635823805, 23.165184509330697 ], [ -110.132579340203179, 23.162714019470673 ], [ -110.132433692059678, 23.161060262184765 ], [ -110.131927680353087, 23.157724465929125 ], [ -110.131606627077005, 23.156006512867464 ], [ -110.131149471836025, 23.154188450534701 ], [ -110.1307086003047, 23.152876299378086 ], [ -110.129843150742829, 23.150757906158479 ], [ -110.129459798562308, 23.149617687594258 ], [ -110.129175177497146, 23.148315427741455 ], [ -110.129084157183968, 23.147285213821817 ], [ -110.129095713161178, 23.14549683201464 ], [ -110.129140325932255, 23.144638985752508 ], [ -110.129262607979243, 23.143853828903691 ], [ -110.129672459526361, 23.143046017945061 ], [ -110.1303336485405, 23.142246391333018 ], [ -110.130523680458538, 23.144725800921723 ] ] ] ] } },
{ "type": "Feature", "properties": { "fid": 13.0, "cat": 15, "CLAVE_ACUI": "0315", "NOM_ACUIF": "PLUTARCO ELIAS CALLES", "VULNERABIL": 3 }, "geometry": { "type": "MultiPolygon", "coordinates": [ [ [ [ -110.128817751589139, 23.182429326290777 ], [ -110.128865778394328, 23.18104761744074 ], [ -110.128884723134135, 23.178121186975552 ], [ -110.128855233346158, 23.17663969073315 ], [ -110.128747822510135, 23.175121633013156 ], [ -110.128598295817767, 23.174073033097166 ], [ -110.128257130417794, 23.172445290714382 ], [ -110.128223435168962, 23.171614112000167 ], [ -110.128463507587753, 23.170748318418358 ], [ -110.128897320147473, 23.170136506805029 ], [ -110.129958677400239, 23.16916686075886 ], [ -110.130509646413202, 23.168564723979912 ], [ -110.131101201415774, 23.167727963157521 ], [ -110.13153615717718, 23.166935499115702 ], [ -110.132249463208311, 23.16539486681928 ], [ -110.132510256552678, 23.164339496306329 ], [ -110.132579340203179, 23.162714019470673 ], [ -110.133259635823805, 23.165184509330697 ], [ -110.133803155017844, 23.166848625007624 ], [ -110.134837812002743, 23.170024732842002 ], [ -110.135392523081507, 23.171879449248571 ], [ -110.136021982340864, 23.174267493322038 ], [ -110.136493679094869, 23.176450077876602 ], [ -110.13687570235345, 23.178843308019388 ], [ -110.13708867679567, 23.180062519252171 ], [ -110.137387468266269, 23.181484687734976 ], [ -110.137764041557574, 23.182939240366466 ], [ -110.137954103604415, 23.183504811917711 ], [ -110.138215997889873, 23.184070781153807 ], [ -110.138126678767833, 23.184287072773103 ], [ -110.138080877523748, 23.184480419905604 ], [ -110.137582156124935, 23.184364279267545 ], [ -110.136703270779861, 23.184273701222939 ], [ -110.135562288936285, 23.184297552054527 ], [ -110.134494147256987, 23.184401665141152 ], [ -110.133643440414048, 23.184542743853349 ], [ -110.132734325273688, 23.184744991563349 ], [ -110.131238555620399, 23.185076127018789 ], [ -110.129941063708287, 23.185258545621885 ], [ -110.128904838824852, 23.185295684618936 ], [ -110.128507556958965, 23.185226513784713 ], [ -110.128175621462006, 23.185027134419144 ], [ -110.128532083887606, 23.184297475012134 ], [ -110.128692616198848, 23.183648022873911 ], [ -110.128817751589139, 23.182429326290777 ] ] ] ] } },
{ "type": "Feature", "properties": { "fid": 16.0, "cat": 14, "CLAVE_ACUI": "0315", "NOM_ACUIF": "PLUTARCO ELIAS CALLES", "VULNERABIL": 1 }, "geometry": { "type": "MultiPolygon", "coordinates": [ [ [ [ -110.122642515507849, 23.117158889935325 ], [ -110.122825622405685, 23.117782593216205 ], [ -110.122817992246809, 23.118686675990116 ], [ -110.123390197548261, 23.119590759140216 ], [ -110.123404899827591, 23.120480268851907 ], [ -110.123404899823612, 23.12048026885806 ], [ -110.123081651161357, 23.121039448326162 ], [ -110.122765810389737, 23.121552548770659 ], [ -110.122055820832344, 23.12260540935123 ], [ -110.121739560823357, 23.123181733089918 ], [ -110.121500776193187, 23.123857845847258 ], [ -110.121419063435781, 23.124408377230516 ], [ -110.121412711231685, 23.12538385886965 ], [ -110.121448480493811, 23.125889881718081 ], [ -110.1215621412736, 23.126432468645255 ], [ -110.121715807180536, 23.126830757254265 ], [ -110.122063145744562, 23.127483035737804 ], [ -110.122353596013298, 23.127873052579297 ], [ -110.122691677840919, 23.128204784509517 ], [ -110.122955266706498, 23.128463516404565 ], [ -110.123615832171453, 23.129009142505691 ], [ -110.125015283746094, 23.130073723586317 ], [ -110.125763863240707, 23.130718667589274 ], [ -110.126229023854293, 23.131104953278381 ], [ -110.126571654774224, 23.132194519752485 ], [ -110.126846313304938, 23.133359910274852 ], [ -110.127075195472997, 23.135276794753882 ], [ -110.127769469315751, 23.135875702844412 ], [ -110.128288268567118, 23.137006759878016 ], [ -110.128944396965906, 23.137491226058078 ], [ -110.129592895577971, 23.137746811515136 ], [ -110.130043028458743, 23.138454437265171 ], [ -110.1303336485405, 23.142246391333018 ], [ -110.129672459526361, 23.143046017945061 ], [ -110.129262607979243, 23.143853828903691 ], [ -110.129140325932255, 23.144638985752508 ], [ -110.129095713161178, 23.14549683201464 ], [ -110.129084157183968, 23.147285213821817 ], [ -110.129175177497146, 23.148315427741455 ], [ -110.129459798562308, 23.149617687594258 ], [ -110.129843150742829, 23.150757906158479 ], [ -110.1307086003047, 23.152876299378086 ], [ -110.131149471836025, 23.154188450534701 ], [ -110.131606627077005, 23.156006512867464 ], [ -110.131927680353087, 23.157724465929125 ], [ -110.132433692059678, 23.161060262184765 ], [ -110.132579340203179, 23.162714019470673 ], [ -110.132510256552678, 23.164339496306329 ], [ -110.132249463208311, 23.16539486681928 ], [ -110.13153615717718, 23.166935499115702 ], [ -110.131101201415774, 23.167727963157521 ], [ -110.130509646413202, 23.168564723979912 ], [ -110.129958677400239, 23.16916686075886 ], [ -110.128897320147473, 23.170136506805029 ], [ -110.128463507587753, 23.170748318418358 ], [ -110.128223435168962, 23.171614112000167 ], [ -110.128257130417794, 23.172445290714382 ], [ -110.128598295817767, 23.174073033097166 ], [ -110.128747822510135, 23.175121633013156 ], [ -110.128855233346158, 23.17663969073315 ], [ -110.128884723134135, 23.178121186975552 ], [ -110.128865778394328, 23.18104761744074 ], [ -110.128817751589139, 23.182429326290777 ], [ -110.128692616198848, 23.183648022873911 ], [ -110.128532083887606, 23.184297475012134 ], [ -110.128175621462006, 23.185027134419144 ], [ -110.128014624956052, 23.185271838520251 ], [ -110.127868045250395, 23.185570655915491 ], [ -110.127238740729794, 23.185638448101603 ], [ -110.126709870796788, 23.185669349178987 ], [ -110.12603174795774, 23.185665586076901 ], [ -110.125582087207263, 23.185699218769969 ], [ -110.125200347315783, 23.185805487694171 ], [ -110.125013774740808, 23.185948970719423 ], [ -110.124835796703792, 23.186273151341052 ], [ -110.12471761435043, 23.186417014222776 ], [ -110.124541045727781, 23.186524422267951 ], [ -110.124364947179259, 23.186559572714089 ], [ -110.124013220367118, 23.186557615622256 ], [ -110.12356426249886, 23.186482856374244 ], [ -110.122569118014979, 23.186260532113735 ], [ -110.122142195418235, 23.18615613757348 ], [ -110.121110854683309, 23.185991309866175 ], [ -110.11872582968951, 23.185299681661558 ], [ -110.117351270510298, 23.184831322854293 ], [ -110.115861261926838, 23.184091329166879 ], [ -110.114752475698978, 23.183326368555292 ], [ -110.11291614281221, 23.181771475908906 ], [ -110.111945361505988, 23.180826624050642 ], [ -110.110869335621814, 23.179546970114231 ], [ -110.110046741005547, 23.178359066733105 ], [ -110.108655000370774, 23.176075007482066 ], [ -110.10797904517672, 23.174878891352794 ], [ -110.107342897349753, 23.173574608276205 ], [ -110.106958601065003, 23.172596920736989 ], [ -110.106441859962345, 23.170968141703195 ], [ -110.106173245160548, 23.170225953312528 ], [ -110.105884135618311, 23.169628167936576 ], [ -110.105670899557765, 23.169374047497911 ], [ -110.105320299843754, 23.169209471383418 ], [ -110.105049412978289, 23.168810502810729 ], [ -110.104587356075115, 23.167778172866509 ], [ -110.104088154346499, 23.166456590684483 ], [ -110.103052630181423, 23.163524170609723 ], [ -110.102574198388055, 23.16202205215367 ], [ -110.102174404300939, 23.160448120488983 ], [ -110.101986506760767, 23.15932702039855 ], [ -110.101822604748619, 23.157537652190104 ], [ -110.101711050034908, 23.156687961615372 ], [ -110.101540286763196, 23.155928258258434 ], [ -110.101367235876808, 23.155511776529277 ], [ -110.101018846969609, 23.155022034349386 ], [ -110.100846281017027, 23.154533294864283 ], [ -110.10067697187003, 23.153556818919942 ], [ -110.100567356157839, 23.15241809849709 ], [ -110.100407819475492, 23.149978412838593 ], [ -110.10033932749549, 23.148532821535962 ], [ -110.100293385672359, 23.146635733488012 ], [ -110.100285306748603, 23.144919511283415 ], [ -110.10030700897272, 23.141667932093263 ], [ -110.10037742342621, 23.139897961721029 ], [ -110.100566962558602, 23.137839630074218 ], [ -110.100812443392812, 23.136179047353238 ], [ -110.101129545365495, 23.134483987859937 ], [ -110.101241536997108, 23.133345282809607 ], [ -110.101643618709645, 23.13163139479612 ], [ -110.10212307023852, 23.130585376123179 ], [ -110.10225873854435, 23.130189693871095 ], [ -110.102793554529669, 23.129072704142878 ], [ -110.10386015920578, 23.127290327535594 ], [ -110.104501233995805, 23.126345552865232 ], [ -110.105357863887278, 23.125293607651539 ], [ -110.106144505314489, 23.124485139257789 ], [ -110.107647788300142, 23.123111672415373 ], [ -110.108785960860033, 23.122305178254873 ], [ -110.10978242070874, 23.121759819671695 ], [ -110.110168315384612, 23.121491020547783 ], [ -110.111805028961797, 23.120606022180805 ], [ -110.114978608059033, 23.119160584617152 ], [ -110.116555311918319, 23.118482947482605 ], [ -110.118111879831716, 23.117895507240771 ], [ -110.119129464672469, 23.117594084978474 ], [ -110.120625655647345, 23.117277259367473 ], [ -110.12111232157703, 23.117164458095473 ], [ -110.121756537475861, 23.117071988618356 ], [ -110.122415518610651, 23.117019854945372 ], [ -110.122642515507849, 23.117158889935325 ] ] ] ] } },
{ "type": "Feature", "properties": { "fid": 11.0, "cat": 13, "CLAVE_ACUI": "0315", "NOM_ACUIF": "PLUTARCO ELIAS CALLES", "VULNERABIL": 2 }, "geometry": { "type": "MultiPolygon", "coordinates": [ [ [ [ -110.107688903252281, 23.066434860411036 ], [ -110.1084442134771, 23.067424775743749 ], [ -110.108924864522905, 23.067544937145698 ], [ -110.109101707317407, 23.067422231142366 ], [ -110.109298705654524, 23.067285538413472 ], [ -110.109794615649037, 23.066837312383306 ], [ -110.110366820188702, 23.066875457786232 ], [ -110.110679626030546, 23.067329407256942 ], [ -110.110519408366244, 23.067941666663877 ], [ -110.11005401635164, 23.068283081632487 ], [ -110.109725952007096, 23.068027496085946 ], [ -110.10874176065083, 23.068782806768436 ], [ -110.108497618290727, 23.069286347146722 ], [ -110.108741760616155, 23.069576264129481 ], [ -110.108955382498905, 23.069541932025079 ], [ -110.109301701869015, 23.069543085322866 ], [ -110.109527586789113, 23.069543840124812 ], [ -110.10974121117016, 23.069772720209929 ], [ -110.109497069448281, 23.070194244826016 ], [ -110.109092711148378, 23.070671082031392 ], [ -110.109115599299116, 23.07123947117633 ], [ -110.109603880722929, 23.07180213878712 ], [ -110.109725951539431, 23.076463700410315 ], [ -110.110260009189716, 23.078926086343351 ], [ -110.110710142767985, 23.080202103638374 ], [ -110.111747740682418, 23.084100722646863 ], [ -110.112365721692811, 23.084184647444769 ], [ -110.112792967533125, 23.08461189422308 ], [ -110.112442015521083, 23.085205077654713 ], [ -110.111534117385986, 23.085651398230063 ], [ -110.110610961256825, 23.08572960010618 ], [ -110.109939575447257, 23.085525512358078 ], [ -110.109603881662082, 23.086093902792385 ], [ -110.10968780577295, 23.087196351295688 ], [ -110.109870910195298, 23.087701796931832 ], [ -110.110145567611809, 23.087732314533028 ], [ -110.110206602520364, 23.087224960806207 ], [ -110.110725401765066, 23.086803437161041 ], [ -110.111862181437616, 23.087263107694998 ], [ -110.112037657618743, 23.087345124812828 ], [ -110.112693786992892, 23.088567734180046 ], [ -110.113296508363817, 23.090764999549233 ], [ -110.113462783951888, 23.093128666551369 ], [ -110.113016123266448, 23.093646350638696 ], [ -110.11265222764267, 23.094226653938392 ], [ -110.112493757715768, 23.094569001411301 ], [ -110.112372501608178, 23.095191567990767 ], [ -110.112328878222669, 23.095886831573409 ], [ -110.112319264463409, 23.097350055676223 ], [ -110.112353571628915, 23.098072854984132 ], [ -110.11246610810349, 23.098778028917675 ], [ -110.112619362329099, 23.099230519434098 ], [ -110.112966590013258, 23.099882816645206 ], [ -110.113218138429673, 23.100236500551187 ], [ -110.113720975924352, 23.100747557019414 ], [ -110.114013506250942, 23.101044866337656 ], [ -110.11482894434242, 23.101772047611977 ], [ -110.115333979203001, 23.102197665938416 ], [ -110.115887576718421, 23.102620512821115 ], [ -110.116399933466326, 23.102905913733082 ], [ -110.117110501415056, 23.103196417577145 ], [ -110.118034362248338, 23.103981018213286 ], [ -110.118644714183915, 23.107227326509129 ], [ -110.118500181669376, 23.107562043327526 ], [ -110.118283954926326, 23.107996768937298 ], [ -110.117928716476044, 23.108563836168614 ], [ -110.117770123563773, 23.108924252712352 ], [ -110.117649584647694, 23.109438435631329 ], [ -110.117607279765707, 23.109934990739195 ], [ -110.117600904461909, 23.110910473164715 ], [ -110.117665892666622, 23.111425693286424 ], [ -110.117867233897726, 23.111995871144082 ], [ -110.118137815438899, 23.112430947140414 ], [ -110.118748222141633, 23.11316599595235 ], [ -110.11904881076471, 23.113492847163009 ], [ -110.119405819430909, 23.113738169641223 ], [ -110.119676805431624, 23.113858878055687 ], [ -110.12001420447308, 23.113968355871922 ], [ -110.120301720414659, 23.114032669106447 ], [ -110.120306110738312, 23.114035139064455 ], [ -110.120399475253265, 23.114770890090245 ], [ -110.12042999117196, 23.115566254447945 ], [ -110.120758056833168, 23.116218566321113 ], [ -110.121543884098045, 23.116556168058981 ], [ -110.122032163926463, 23.116785049856649 ], [ -110.122415518610651, 23.117019854945372 ], [ -110.121756537475861, 23.117071988618356 ], [ -110.12111232157703, 23.117164458095473 ], [ -110.120625655647345, 23.117277259367473 ], [ -110.119129464672469, 23.117594084978474 ], [ -110.118111879831716, 23.117895507240771 ], [ -110.116555311918319, 23.118482947482605 ], [ -110.114978608059033, 23.119160584617152 ], [ -110.111805028961797, 23.120606022180805 ], [ -110.110168315384612, 23.121491020547783 ], [ -110.10978242070874, 23.121759819671695 ], [ -110.108785960860033, 23.122305178254873 ], [ -110.107647788300142, 23.123111672415373 ], [ -110.106144505314489, 23.124485139257789 ], [ -110.105357863887278, 23.125293607651539 ], [ -110.104501233995805, 23.126345552865232 ], [ -110.10386015920578, 23.127290327535594 ], [ -110.102793554529669, 23.129072704142878 ], [ -110.10225873854435, 23.130189693871095 ], [ -110.10212307023852, 23.130585376123179 ], [ -110.101643618709645, 23.13163139479612 ], [ -110.101241536997108, 23.133345282809607 ], [ -110.101129545365495, 23.134483987859937 ], [ -110.100812443392812, 23.136179047353238 ], [ -110.100566962558602, 23.137839630074218 ], [ -110.10037742342621, 23.139897961721029 ], [ -110.10030700897272, 23.141667932093263 ], [ -110.100285306748603, 23.144919511283415 ], [ -110.100293385672359, 23.146635733488012 ], [ -110.10033932749549, 23.148532821535962 ], [ -110.100407819475492, 23.149978412838593 ], [ -110.100567356157839, 23.15241809849709 ], [ -110.10067697187003, 23.153556818919942 ], [ -110.100846281017027, 23.154533294864283 ], [ -110.101018846969609, 23.155022034349386 ], [ -110.101367235876808, 23.155511776529277 ], [ -110.101540286763196, 23.155928258258434 ], [ -110.101711050034908, 23.156687961615372 ], [ -110.101822604748619, 23.157537652190104 ], [ -110.101986506760767, 23.15932702039855 ], [ -110.102174404300939, 23.160448120488983 ], [ -110.102574198388055, 23.16202205215367 ], [ -110.103052630181423, 23.163524170609723 ], [ -110.104088154346499, 23.166456590684483 ], [ -110.104587356075115, 23.167778172866509 ], [ -110.105049412978289, 23.168810502810729 ], [ -110.105320299843754, 23.169209471383418 ], [ -110.105670899557765, 23.169374047497911 ], [ -110.105884135618311, 23.169628167936576 ], [ -110.106173245160548, 23.170225953312528 ], [ -110.106441859962345, 23.170968141703195 ], [ -110.106958601065003, 23.172596920736989 ], [ -110.107342897349753, 23.173574608276205 ], [ -110.10797904517672, 23.174878891352794 ], [ -110.108655000370774, 23.176075007482066 ], [ -110.110046741005547, 23.178359066733105 ], [ -110.110869335621814, 23.179546970114231 ], [ -110.111945361505988, 23.180826624050642 ], [ -110.11291614281221, 23.181771475908906 ], [ -110.114752475698978, 23.183326368555292 ], [ -110.115861261926838, 23.184091329166879 ], [ -110.117351270510298, 23.184831322854293 ], [ -110.11872582968951, 23.185299681661558 ], [ -110.121110854683309, 23.185991309866175 ], [ -110.122142195418235, 23.18615613757348 ], [ -110.122569118014979, 23.186260532113735 ], [ -110.12356426249886, 23.186482856374244 ], [ -110.124013220367118, 23.186557615622256 ], [ -110.124364947179259, 23.186559572714089 ], [ -110.124541045727781, 23.186524422267951 ], [ -110.12471761435043, 23.186417014222776 ], [ -110.124835796703792, 23.186273151341052 ], [ -110.125013774740808, 23.185948970719423 ], [ -110.125200347315783, 23.185805487694171 ], [ -110.125582087207263, 23.185699218769969 ], [ -110.12603174795774, 23.185665586076901 ], [ -110.126709870796788, 23.185669349178987 ], [ -110.127238740729794, 23.185638448101603 ], [ -110.127868045250395, 23.185570655915491 ], [ -110.127769130367156, 23.185951483300336 ], [ -110.127647049675815, 23.186532189076519 ], [ -110.127517615118805, 23.187055802630272 ], [ -110.127309803297734, 23.187461113285245 ], [ -110.126866975527875, 23.187946412580359 ], [ -110.126336739565758, 23.188349932827421 ], [ -110.125188853444115, 23.189075189311676 ], [ -110.124463846781765, 23.18937826273865 ], [ -110.123436719344127, 23.189562227883329 ], [ -110.122449849617425, 23.189565760839496 ], [ -110.120516373479305, 23.189392383354587 ], [ -110.119501317866806, 23.189224123032453 ], [ -110.118389627102829, 23.188892730156095 ], [ -110.117551866486039, 23.188508670730869 ], [ -110.116150283162952, 23.1876878824364 ], [ -110.11538080949326, 23.187322260161022 ], [ -110.114473962816973, 23.187046186243002 ], [ -110.114046404058755, 23.186991728592762 ], [ -110.11396638845352, 23.186971069916051 ], [ -110.113163396155528, 23.186862063473917 ], [ -110.112716876474664, 23.186801446454282 ], [ -110.110255868267444, 23.186624969479155 ], [ -110.109064148590264, 23.1865820985307 ], [ -110.10874120476069, 23.186595978875459 ], [ -110.108477939585939, 23.186578779290496 ], [ -110.107803439929214, 23.186629152266285 ], [ -110.10728478279313, 23.186752666078462 ], [ -110.106403308612329, 23.187072833090106 ], [ -110.105875598889071, 23.187087901150381 ], [ -110.105173948571363, 23.186812939674351 ], [ -110.104532244782575, 23.186339601902795 ], [ -110.103308795640501, 23.185194546079291 ], [ -110.102374608906302, 23.184629208698688 ], [ -110.100795492920099, 23.184078248078791 ], [ -110.099097820939065, 23.183725307592649 ], [ -110.095583931590085, 23.183217405306088 ], [ -110.093866381467265, 23.182918489486237 ], [ -110.092422699187608, 23.182575972030147 ], [ -110.092149814765477, 23.182475041568701 ], [ -110.091800296566845, 23.182147857286349 ], [ -110.091391307606116, 23.181946783319702 ], [ -110.090513860296952, 23.181670743001334 ], [ -110.089664327072128, 23.181461874226603 ], [ -110.089051456473115, 23.181210665166827 ], [ -110.0881740191939, 23.180934612084105 ], [ -110.08747158204919, 23.180786022886743 ], [ -110.086241707688188, 23.180616305225378 ], [ -110.085656264872327, 23.180504516798688 ], [ -110.085246799377657, 23.180375683950732 ], [ -110.084837826133608, 23.180174593393922 ], [ -110.084488332089464, 23.179847393536107 ], [ -110.084166796070051, 23.179719069250904 ], [ -110.083551681334583, 23.179661295151774 ], [ -110.082848025447305, 23.179693327258168 ], [ -110.081352170178576, 23.179847189716632 ], [ -110.080688023455863, 23.179816215627444 ], [ -110.080279968983959, 23.179757380136696 ], [ -110.079917523416654, 23.179622033442644 ], [ -110.08002795262469, 23.17918912199691 ], [ -110.080034065592855, 23.178294946787702 ], [ -110.079998322070196, 23.177806986472191 ], [ -110.079884979318322, 23.17723728074256 ], [ -110.079731818897528, 23.176775731418758 ], [ -110.079385682496024, 23.175960788764801 ], [ -110.079163893053789, 23.175534967367145 ], [ -110.078844659877376, 23.175072445898866 ], [ -110.078534394198414, 23.174727397954573 ], [ -110.077922832366681, 23.174154774492767 ], [ -110.077534046639727, 23.173863459450114 ], [ -110.076979249510885, 23.173562138025879 ], [ -110.076443373388514, 23.173351250007734 ], [ -110.075673247709787, 23.173108877247486 ], [ -110.075109040653587, 23.172756310380979 ], [ -110.074137105210212, 23.172028004373718 ], [ -110.07332247826929, 23.171156099451977 ], [ -110.072936696902133, 23.170431234469568 ], [ -110.072593976865107, 23.169128546594013 ], [ -110.072481729372683, 23.168405291049751 ], [ -110.072487702617153, 23.167538212723976 ], [ -110.072609903504571, 23.166816337648527 ], [ -110.072970528181699, 23.165517789971275 ], [ -110.073053774710601, 23.164777620111902 ], [ -110.072942895407877, 23.16385565896196 ], [ -110.072674853303056, 23.163059226672015 ], [ -110.071981615182338, 23.161591889154245 ], [ -110.071638425687937, 23.160361455364914 ], [ -110.071302092076422, 23.158137492750818 ], [ -110.071084725875792, 23.155661322123816 ], [ -110.070768965590673, 23.150456771353408 ], [ -110.070570777010559, 23.14803490603633 ], [ -110.070291965259187, 23.145973862511497 ], [ -110.070025466189364, 23.144960655529697 ], [ -110.069504780735329, 23.143982077544784 ], [ -110.069294522579909, 23.143312434594122 ], [ -110.069184429587835, 23.142282084686677 ], [ -110.069211197263982, 23.141234477882264 ], [ -110.069401587548796, 23.139122006825001 ], [ -110.069379581693241, 23.138065079150945 ], [ -110.069123181136334, 23.137006767556635 ], [ -110.068717856025586, 23.136299841905579 ], [ -110.067758288784532, 23.135237373170838 ], [ -110.067234281432135, 23.134746521163038 ], [ -110.066621819110779, 23.134336436014756 ], [ -110.066125054051639, 23.134143812874523 ], [ -110.065247220258627, 23.133976026907941 ], [ -110.064769740497084, 23.133819643731268 ], [ -110.064215135115163, 23.133518282126957 ], [ -110.063768273494418, 23.133172396128241 ], [ -110.062982298048482, 23.132436098520365 ], [ -110.062615455009635, 23.131819711223343 ], [ -110.062300898862262, 23.130706849001992 ], [ -110.062143481001982, 23.129468466359715 ], [ -110.061985783104404, 23.12686618052577 ], [ -110.061857856505227, 23.125600875222386 ], [ -110.061631774233064, 23.124407245435432 ], [ -110.061382897516282, 23.123683167644227 ], [ -110.060862352129575, 23.122704563244838 ], [ -110.06063251003583, 23.122052857339447 ], [ -110.060463525698992, 23.121076344936025 ], [ -110.060411725924538, 23.120100530332003 ], [ -110.060425308499589, 23.118149598743415 ], [ -110.060354105100572, 23.11715560330898 ], [ -110.060126915433457, 23.116124548690102 ], [ -110.059819471311499, 23.115400119411639 ], [ -110.05912433416681, 23.11425788453295 ], [ -110.058836428806288, 23.113533569942845 ], [ -110.058667843713991, 23.112502862791793 ], [ -110.05867477124545, 23.111509332419931 ], [ -110.058864133049056, 23.109559448019144 ], [ -110.058880633651995, 23.108593071749308 ], [ -110.058740779163784, 23.107643827814371 ], [ -110.058491189895875, 23.107028130666514 ], [ -110.0578822807433, 23.106130281816672 ], [ -110.057514267638268, 23.105694525720402 ], [ -110.057019134179839, 23.105285106753378 ], [ -110.056561924333792, 23.105038497525779 ], [ -110.055685429208467, 23.104708086633387 ], [ -110.055208569382302, 23.104479420958963 ], [ -110.05465448403649, 23.104123836745053 ], [ -110.054207868896498, 23.10375986221754 ], [ -110.053422112561066, 23.103023521627826 ], [ -110.053034721159406, 23.10256957437878 ], [ -110.052658299852808, 23.101944075131389 ], [ -110.052418321949617, 23.101355524076016 ], [ -110.052074810910852, 23.10021537023291 ], [ -110.051923535691941, 23.0995099289627 ], [ -110.05181321831958, 23.098533759378075 ], [ -110.051780630257696, 23.097612251385922 ], [ -110.05179318172793, 23.095823896815276 ], [ -110.051653260261205, 23.094892711362917 ], [ -110.051220949350636, 23.093887509119792 ], [ -110.050640356341134, 23.093143356041313 ], [ -110.049495793149347, 23.092070637747717 ], [ -110.048581364727099, 23.091595441679068 ], [ -110.047487369367076, 23.091055894605912 ], [ -110.054636584768318, 23.07967401698912 ], [ -110.105592080906021, 23.063182208257025 ], [ -110.105727676243689, 23.063402081128189 ], [ -110.105871088400406, 23.063719065235745 ], [ -110.106035367164566, 23.064237258831852 ], [ -110.106170056336722, 23.064536096661222 ], [ -110.106402180457394, 23.064862583153715 ], [ -110.106654365090051, 23.065107889259298 ], [ -110.106916580275808, 23.065312604931584 ], [ -110.107275968190052, 23.065640441593967 ], [ -110.107499541522245, 23.065923719520047 ], [ -110.107650691011045, 23.066163902672461 ], [ -110.107688903252281, 23.066434860411036 ] ] ] ] } },
{ "type": "Feature", "properties": { "fid": 15.0, "cat": 9, "CLAVE_ACUI": "0315", "NOM_ACUIF": "PLUTARCO ELIAS CALLES", "VULNERABIL": 2 }, "geometry": { "type": "MultiPolygon", "coordinates": [ [ [ [ -110.047356251771518, 23.202804122497746 ], [ -110.048619991977972, 23.202351120393271 ], [ -110.050038657324563, 23.202097755256943 ], [ -110.053030910946418, 23.201790630669187 ], [ -110.054371267778365, 23.201554819381464 ], [ -110.055400088380665, 23.201154543728602 ], [ -110.055774434039037, 23.20072323740019 ], [ -110.055868653369188, 23.199829598569728 ], [ -110.056008744920405, 23.199360756086104 ], [ -110.05633479953832, 23.198847867070466 ], [ -110.056738131323243, 23.198461893772492 ], [ -110.057622068144113, 23.19781685988967 ], [ -110.058005598424714, 23.197466894004126 ], [ -110.058272256962752, 23.197062033411566 ], [ -110.058333158916895, 23.196737232418347 ], [ -110.058249207745433, 23.196167690339919 ], [ -110.058661600999812, 23.195881121993864 ], [ -110.059982727986167, 23.19559095154807 ], [ -110.06177221085207, 23.195393886979325 ], [ -110.065819526546278, 23.195092801433013 ], [ -110.067746161438038, 23.194842288303391 ], [ -110.069478752585198, 23.194391891284713 ], [ -110.070439769048591, 23.193891756877122 ], [ -110.071590222612699, 23.192841757572687 ], [ -110.072101903463789, 23.192320896062558 ], [ -110.072486502446068, 23.191808316211958 ], [ -110.072615822545927, 23.191474879319134 ], [ -110.072619185782756, 23.190987149182583 ], [ -110.072484892175254, 23.190625061487324 ], [ -110.072078650546871, 23.190026527907278 ], [ -110.071535878290788, 23.189391058316289 ], [ -110.070313816545905, 23.188083177817081 ], [ -110.06977180989584, 23.187339318067824 ], [ -110.069367839491264, 23.186415624633351 ], [ -110.069236558508535, 23.185619996607873 ], [ -110.069246681850757, 23.184156806424593 ], [ -110.069475824229016, 23.183516860093665 ], [ -110.070153125539619, 23.183060209408374 ], [ -110.071052819361668, 23.182939067470585 ], [ -110.073074605069749, 23.183032277148406 ], [ -110.07407149731894, 23.182983949529987 ], [ -110.075040383690236, 23.182745770196259 ], [ -110.075658299926502, 23.182397135292987 ], [ -110.076543157331344, 23.181589410372631 ], [ -110.077044138129239, 23.181194921625437 ], [ -110.077662227931455, 23.180819182198974 ], [ -110.078191397724211, 23.180587438460073 ], [ -110.079160816628402, 23.180267944286381 ], [ -110.079592347646084, 23.180026592136063 ], [ -110.079765593669507, 23.180563814838692 ], [ -110.079800396696001, 23.180886058216878 ], [ -110.079784004789417, 23.181168753440723 ], [ -110.079676699720864, 23.181978090249032 ], [ -110.079653082575334, 23.182574092491816 ], [ -110.079765315978264, 23.183306375326147 ], [ -110.079975990528197, 23.183930844303173 ], [ -110.080495785738435, 23.185071967407101 ], [ -110.080761815106598, 23.186175477338441 ], [ -110.081040107443798, 23.188344884563723 ], [ -110.081237899916857, 23.190857053068608 ], [ -110.081552991315178, 23.196224149595807 ], [ -110.081780174048546, 23.198727454671687 ], [ -110.082146626364803, 23.200870274960465 ], [ -110.082530196758327, 23.201938337000438 ], [ -110.083314456809475, 23.202999701098332 ], [ -110.083780030195186, 23.203508228490513 ], [ -110.084392484994524, 23.203972447488862 ], [ -110.084947668600847, 23.204237617946895 ], [ -110.086000765396577, 23.204568907241033 ], [ -110.08655607758071, 23.204816008062718 ], [ -110.087168916242561, 23.205226024306647 ], [ -110.087635002569584, 23.205662284367023 ], [ -110.088420427320131, 23.206561047370855 ], [ -110.088748250303183, 23.207213280937577 ], [ -110.088946289428208, 23.208271220900357 ], [ -110.088948528938232, 23.209382220990634 ], [ -110.088757201197524, 23.211657280767703 ], [ -110.088730183427444, 23.212759078413651 ], [ -110.088840464059217, 23.213789412194796 ], [ -110.089051284974943, 23.214404837439023 ], [ -110.089573470305766, 23.215220778417262 ], [ -110.089803718669828, 23.215854379986766 ], [ -110.089972275884591, 23.21693924463354 ], [ -110.090022954957917, 23.218113750934606 ], [ -110.090006431866684, 23.220552404841101 ], [ -110.09003756612374, 23.221726797524202 ], [ -110.090147494448644, 23.222811322066196 ], [ -110.090299574998113, 23.223444470294385 ], [ -110.090645890051476, 23.224259390073531 ], [ -110.090799014077945, 23.224738993028392 ], [ -110.090912069035483, 23.225362882524898 ], [ -110.090947369276023, 23.225923095481932 ], [ -110.090940214128992, 23.226979844825134 ], [ -110.091005445444296, 23.227449906787434 ], [ -110.090751641423125, 23.227630914071288 ], [ -110.090348262828996, 23.227798368456106 ], [ -110.089761080940448, 23.227912390378069 ], [ -110.088441712176234, 23.22790474446181 ], [ -110.08783541183152, 23.227955421511012 ], [ -110.087335878430025, 23.228115104869943 ], [ -110.087109622821316, 23.228330568351687 ], [ -110.086930389249247, 23.228817276340163 ], [ -110.086576834658104, 23.229068128991788 ], [ -110.085695403143532, 23.229333975766249 ], [ -110.084579903929196, 23.229526195329033 ], [ -110.082114833350346, 23.229836984590772 ], [ -110.080979902952166, 23.230011000105453 ], [ -110.080040187162709, 23.230222279603293 ], [ -110.079953934980324, 23.230257904228765 ], [ -110.079805133952377, 23.230293162610305 ], [ -110.079138818111744, 23.230542166567137 ], [ -110.078255875108439, 23.231024738998055 ], [ -110.0777519790268, 23.231213632105788 ], [ -110.076747929707039, 23.23143137702634 ], [ -110.074281689181845, 23.231904617609633 ], [ -110.073146234211279, 23.23215083157319 ], [ -110.072206118140272, 23.232416255240647 ], [ -110.071774715109939, 23.232612419749298 ], [ -110.071442365833178, 23.232915655067874 ], [ -110.071420623304803, 23.232935492865874 ], [ -110.071067529994153, 23.233114053317578 ], [ -110.070362341584968, 23.233326659971773 ], [ -110.069540120015148, 23.23350244110528 ], [ -110.067778640104365, 23.233817166662678 ], [ -110.066897646139054, 23.234010649834531 ], [ -110.06601614696639, 23.234276383765533 ], [ -110.065895620268677, 23.234327492334518 ], [ -110.065095424558834, 23.234559943996935 ], [ -110.064428936369183, 23.234826947819322 ], [ -110.064197992057018, 23.235037636424941 ], [ -110.064046193678081, 23.235050477261112 ], [ -110.06343291814035, 23.234694562097459 ], [ -110.062909562387617, 23.234059178253663 ], [ -110.061952782892064, 23.232508939816288 ], [ -110.061362481973831, 23.231665407623765 ], [ -110.060548352139591, 23.230685050454724 ], [ -110.059781771353755, 23.229894652865436 ], [ -110.05829617149287, 23.228503811046217 ], [ -110.057353575520068, 23.227730412134971 ], [ -110.056011379465573, 23.226801058765183 ], [ -110.054716985442653, 23.226025531495306 ], [ -110.052176022852962, 23.22462828397186 ], [ -110.051048766039415, 23.223718250089796 ], [ -110.050207933150517, 23.222385419575104 ], [ -110.049933793434221, 23.221074074999969 ], [ -110.049952194496484, 23.218472873986457 ], [ -110.049814874750908, 23.217162355471903 ], [ -110.049384521599961, 23.215832000778843 ], [ -110.048804590482831, 23.21492526008225 ], [ -110.047495162884658, 23.213535386596842 ], [ -110.046844992703072, 23.212890151336762 ], [ -110.046203895264384, 23.212344324222833 ], [ -110.045785566066812, 23.212079848799636 ], [ -110.045171673988136, 23.211832249743416 ], [ -110.044899475882119, 23.211631885531023 ], [ -110.044696772777655, 23.211278393341889 ], [ -110.044631131991125, 23.210889604238144 ], [ -110.044636911868039, 23.210076729220191 ], [ -110.044678824097218, 23.209679561046887 ], [ -110.044798780605859, 23.209300931513877 ], [ -110.044956795677678, 23.209067050349709 ], [ -110.045310883725946, 23.208744035900231 ], [ -110.045451910513862, 23.208455857031772 ], [ -110.04546953881848, 23.208419834662177 ], [ -110.04559141631772, 23.207770245851119 ], [ -110.045635890488143, 23.207011799148599 ], [ -110.045647435669125, 23.205386047748846 ], [ -110.045719280474017, 23.204623337501243 ], [ -110.045869714969726, 23.204357709051511 ], [ -110.046668683266986, 23.203305768687407 ], [ -110.047356251771518, 23.202804122497746 ] ] ] ] } },
{ "type": "Feature", "properties": { "fid": 7.0, "cat": 7, "CLAVE_ACUI": "0315", "NOM_ACUIF": "PLUTARCO ELIAS CALLES", "VULNERABIL": 3 }, "geometry": { "type": "MultiPolygon", "coordinates": [ [ [ [ -110.108477939585939, 23.186578779290496 ], [ -110.10874120476069, 23.186595978875459 ], [ -110.109064148590264, 23.1865820985307 ], [ -110.110255868267444, 23.186624969479155 ], [ -110.111206311860528, 23.186693129651132 ], [ -110.11118869964875, 23.187123148862042 ], [ -110.11119227648507, 23.187762359553442 ], [ -110.111229644416326, 23.188599551142712 ], [ -110.111217289672425, 23.190469203799442 ], [ -110.111269705017349, 23.191408877096453 ], [ -110.111439308091605, 23.192358244483014 ], [ -110.111669565822226, 23.19300084999152 ], [ -110.112190739427177, 23.193979298203732 ], [ -110.112401282936048, 23.194648888859639 ], [ -110.112511735871053, 23.195679213584164 ], [ -110.112485278432032, 23.196726830897152 ], [ -110.112295447467943, 23.198839357568271 ], [ -110.112337205796933, 23.199914456664494 ], [ -110.112652319791749, 23.201027227514011 ], [ -110.113135755566276, 23.20180674549761 ], [ -110.114270959355977, 23.203032523854265 ], [ -110.114901993898954, 23.203659315696918 ], [ -110.115659884938239, 23.204313915711534 ], [ -110.116292000950324, 23.204778123866536 ], [ -110.11743046145078, 23.20551614535292 ], [ -110.117974822917475, 23.205952757166568 ], [ -110.118469441165558, 23.20652457542619 ], [ -110.118749442281398, 23.20704099511207 ], [ -110.119094827793518, 23.208018436405421 ], [ -110.119208299693767, 23.208597149823778 ], [ -110.119203326544337, 23.209355849219083 ], [ -110.119081564256788, 23.210041634714973 ], [ -110.118721245759104, 23.21134029102295 ], [ -110.118638329960021, 23.212062423431096 ], [ -110.118749906813832, 23.212930165095038 ], [ -110.11901878707944, 23.213654268553224 ], [ -110.119713858964985, 23.214958835434935 ], [ -110.120058264026227, 23.216089820680175 ], [ -110.120396404805319, 23.218178210814038 ], [ -110.120615568287434, 23.220527875770333 ], [ -110.120954520775527, 23.2254884791253 ], [ -110.121013188853922, 23.227230145083329 ], [ -110.121122243821659, 23.228711908895885 ], [ -110.121344915741687, 23.230043125988836 ], [ -110.120327253422104, 23.230171676803568 ], [ -110.120112409015348, 23.230198815009814 ], [ -110.119535129645087, 23.230294939088655 ], [ -110.119035799317217, 23.23042762772927 ], [ -110.118780861705659, 23.23055265275833 ], [ -110.118515379183293, 23.230795039960739 ], [ -110.118396437502682, 23.231047281185393 ], [ -110.118305095109605, 23.231561617908575 ], [ -110.118271799518979, 23.232166604595459 ], [ -110.118263255241175, 23.233467227859379 ], [ -110.118298314747179, 23.23408163033605 ], [ -110.118412038517206, 23.234624214586809 ], [ -110.118566518971917, 23.23491411911747 ], [ -110.118916237139658, 23.235241248026366 ], [ -110.119042168931941, 23.23541357035797 ], [ -110.119070245051418, 23.23560340893226 ], [ -110.118991106397047, 23.235747484262149 ], [ -110.118725613628584, 23.235989871358729 ], [ -110.118022970773083, 23.235823345443961 ], [ -110.117318953705279, 23.23553982766979 ], [ -110.116307905046114, 23.235036920944232 ], [ -110.113853522842845, 23.233722430068937 ], [ -110.112684513666807, 23.233137758565604 ], [ -110.111631840406844, 23.232698255071988 ], [ -110.111046386913387, 23.232550425778051 ], [ -110.110694540969789, 23.232548435215538 ], [ -110.108550970736673, 23.231542724418837 ], [ -110.106124608024928, 23.230445052780432 ], [ -110.104858626074417, 23.229927781654965 ], [ -110.104721103756319, 23.229858989567592 ], [ -110.103756081288097, 23.229474128182204 ], [ -110.10317053078785, 23.229344334338428 ], [ -110.102378898081312, 23.229339815383288 ], [ -110.102017529819889, 23.229301621562833 ], [ -110.101791493264912, 23.229195403671305 ], [ -110.101709376508651, 23.22906071354976 ], [ -110.101678307214073, 23.228875159646748 ], [ -110.10164000014133, 23.228757519309365 ], [ -110.101523447171317, 23.228648464125843 ], [ -110.101394214139589, 23.228585045169851 ], [ -110.101180988973809, 23.228469643510749 ], [ -110.101016934901835, 23.228392660365955 ], [ -110.100577868457748, 23.228281759587922 ], [ -110.099647210619395, 23.228119869628564 ], [ -110.098548205505082, 23.22780044703595 ], [ -110.098367190172752, 23.227764921422416 ], [ -110.098490051998098, 23.227727854227524 ], [ -110.098520705616835, 23.227529316989557 ], [ -110.098260107867517, 23.227040072016433 ], [ -110.098027374750174, 23.226767764394243 ], [ -110.097589773348574, 23.226440085992618 ], [ -110.097093171697693, 23.226166261992937 ], [ -110.096040972000665, 23.225672464617549 ], [ -110.095465401953561, 23.225515602781655 ], [ -110.094790886136209, 23.225538817269019 ], [ -110.094242260791049, 23.225734369995962 ], [ -110.093270895311008, 23.22629781142442 ], [ -110.092848642622172, 23.226593444467063 ], [ -110.092553254427798, 23.226916905957694 ], [ -110.092483194717474, 23.227160376325298 ], [ -110.092568405050628, 23.227567326312435 ], [ -110.092537864763628, 23.227747798015194 ], [ -110.092361033019628, 23.227882263028548 ], [ -110.092096853681255, 23.227925899331691 ], [ -110.091481147725901, 23.227922341761978 ], [ -110.091208295513027, 23.227803343264704 ], [ -110.091005445444296, 23.227449906787434 ], [ -110.090940214128992, 23.226979844825134 ], [ -110.090947369276023, 23.225923095481932 ], [ -110.090912069035483, 23.225362882524898 ], [ -110.090799014077945, 23.224738993028392 ], [ -110.090645890051476, 23.224259390073531 ], [ -110.090299574998113, 23.223444470294385 ], [ -110.090147494448644, 23.222811322066196 ], [ -110.09003756612374, 23.221726797524202 ], [ -110.090006431866684, 23.220552404841101 ], [ -110.090022954957917, 23.218113750934606 ], [ -110.089972275884591, 23.21693924463354 ], [ -110.089803718669828, 23.215854379986766 ], [ -110.089573470305766, 23.215220778417262 ], [ -110.089051284974943, 23.214404837439023 ], [ -110.088840464059217, 23.213789412194796 ], [ -110.088730183427444, 23.212759078413651 ], [ -110.088757201197524, 23.211657280767703 ], [ -110.088948528938232, 23.209382220990634 ], [ -110.088946289428208, 23.208271220900357 ], [ -110.088748250303183, 23.207213280937577 ], [ -110.088420427320131, 23.206561047370855 ], [ -110.087635002569584, 23.205662284367023 ], [ -110.087168916242561, 23.205226024306647 ], [ -110.08655607758071, 23.204816008062718 ], [ -110.086000765396577, 23.204568907241033 ], [ -110.084947668600847, 23.204237617946895 ], [ -110.084392484994524, 23.203972447488862 ], [ -110.083780030195186, 23.203508228490513 ], [ -110.083314456809475, 23.202999701098332 ], [ -110.082530196758327, 23.201938337000438 ], [ -110.082146626364803, 23.200870274960465 ], [ -110.081780174048546, 23.198727454671687 ], [ -110.081552991315178, 23.196224149595807 ], [ -110.081237899916857, 23.190857053068608 ], [ -110.081040107443798, 23.188344884563723 ], [ -110.080761815106598, 23.186175477338441 ], [ -110.080495785738435, 23.185071967407101 ], [ -110.079975990528197, 23.183930844303173 ], [ -110.079765315978264, 23.183306375326147 ], [ -110.079653082575334, 23.182574092491816 ], [ -110.079676699720864, 23.181978090249032 ], [ -110.079784004789417, 23.181168753440723 ], [ -110.079800396696001, 23.180886058216878 ], [ -110.079765593669507, 23.180563814838692 ], [ -110.079592347646084, 23.180026592136063 ], [ -110.079917523416654, 23.179622033442644 ], [ -110.080279968983959, 23.179757380136696 ], [ -110.080688023455863, 23.179816215627444 ], [ -110.081352170178576, 23.179847189716632 ], [ -110.082848025447305, 23.179693327258168 ], [ -110.083551681334583, 23.179661295151774 ], [ -110.084166796070051, 23.179719069250904 ], [ -110.084488332089464, 23.179847393536107 ], [ -110.084837826133608, 23.180174593393922 ], [ -110.085246799377657, 23.180375683950732 ], [ -110.085656264872327, 23.180504516798688 ], [ -110.086241707688188, 23.180616305225378 ], [ -110.08747158204919, 23.180786022886743 ], [ -110.0881740191939, 23.180934612084105 ], [ -110.089051456473115, 23.181210665166827 ], [ -110.089664327072128, 23.181461874226603 ], [ -110.090513860296952, 23.181670743001334 ], [ -110.091391307606116, 23.181946783319702 ], [ -110.091800296566845, 23.182147857286349 ], [ -110.092149814765477, 23.182475041568701 ], [ -110.092422699187608, 23.182575972030147 ], [ -110.093866381467265, 23.182918489486237 ], [ -110.095583931590085, 23.183217405306088 ], [ -110.099097820939065, 23.183725307592649 ], [ -110.100795492920099, 23.184078248078791 ], [ -110.102374608906302, 23.184629208698688 ], [ -110.103308795640501, 23.185194546079291 ], [ -110.104532244782575, 23.186339601902795 ], [ -110.105173948571363, 23.186812939674351 ], [ -110.105875598889071, 23.187087901150381 ], [ -110.106403308612329, 23.187072833090106 ], [ -110.10728478279313, 23.186752666078462 ], [ -110.107803439929214, 23.186629152266285 ], [ -110.108477939585939, 23.186578779290496 ] ] ] ] } },
{ "type": "Feature", "properties": { "fid": 3.0, "cat": 1, "CLAVE_ACUI": "0315", "NOM_ACUIF": "PLUTARCO ELIAS CALLES", "VULNERABIL": 1 }, "geometry": { "type": "MultiPolygon", "coordinates": [ [ [ [ -110.021779450460045, 23.334761550442209 ], [ -109.939093863798306, 23.3033195344162 ], [ -109.928657023426368, 23.287627407834815 ], [ -109.956775049641806, 23.242999258867329 ], [ -109.954961124782017, 23.212397443828834 ], [ -109.96910751427535, 23.196761959284473 ], [ -109.996283473126354, 23.191177859635616 ], [ -110.001867575109856, 23.163629625435139 ], [ -110.047487369367076, 23.091055894605912 ], [ -110.048581364727099, 23.091595441679068 ], [ -110.049495793149347, 23.092070637747717 ], [ -110.050640356341134, 23.093143356041313 ], [ -110.051220949350636, 23.093887509119792 ], [ -110.051653260261205, 23.094892711362917 ], [ -110.05179318172793, 23.095823896815276 ], [ -110.051780630257696, 23.097612251385922 ], [ -110.05181321831958, 23.098533759378075 ], [ -110.051923535691941, 23.0995099289627 ], [ -110.052074810910852, 23.10021537023291 ], [ -110.052418321949617, 23.101355524076016 ], [ -110.052658299852808, 23.101944075131389 ], [ -110.053034721159406, 23.10256957437878 ], [ -110.053422112561066, 23.103023521627826 ], [ -110.054207868896498, 23.10375986221754 ], [ -110.05465448403649, 23.104123836745053 ], [ -110.055208569382302, 23.104479420958963 ], [ -110.055685429208467, 23.104708086633387 ], [ -110.056561924333792, 23.105038497525779 ], [ -110.057019134179839, 23.105285106753378 ], [ -110.057514267638268, 23.105694525720402 ], [ -110.0578822807433, 23.106130281816672 ], [ -110.058491189895875, 23.107028130666514 ], [ -110.058740779163784, 23.107643827814371 ], [ -110.058880633651995, 23.108593071749308 ], [ -110.058864133049056, 23.109559448019144 ], [ -110.05867477124545, 23.111509332419931 ], [ -110.058667843713991, 23.112502862791793 ], [ -110.058836428806288, 23.113533569942845 ], [ -110.05912433416681, 23.11425788453295 ], [ -110.059819471311499, 23.115400119411639 ], [ -110.060126915433457, 23.116124548690102 ], [ -110.060354105100572, 23.11715560330898 ], [ -110.060425308499589, 23.118149598743415 ], [ -110.060411725924538, 23.120100530332003 ], [ -110.060463525698992, 23.121076344936025 ], [ -110.06063251003583, 23.122052857339447 ], [ -110.060862352129575, 23.122704563244838 ], [ -110.061382897516282, 23.123683167644227 ], [ -110.061631774233064, 23.124407245435432 ], [ -110.061857856505227, 23.125600875222386 ], [ -110.061985783104404, 23.12686618052577 ], [ -110.062143481001982, 23.129468466359715 ], [ -110.062300898862262, 23.130706849001992 ], [ -110.062615455009635, 23.131819711223343 ], [ -110.062982298048482, 23.132436098520365 ], [ -110.063768273494418, 23.133172396128241 ], [ -110.064215135115163, 23.133518282126957 ], [ -110.064769740497084, 23.133819643731268 ], [ -110.065247220258627, 23.133976026907941 ], [ -110.066125054051639, 23.134143812874523 ], [ -110.066621819110779, 23.134336436014756 ], [ -110.067234281432135, 23.134746521163038 ], [ -110.067758288784532, 23.135237373170838 ], [ -110.068717856025586, 23.136299841905579 ], [ -110.069123181136334, 23.137006767556635 ], [ -110.069379581693241, 23.138065079150945 ], [ -110.069401587548796, 23.139122006825001 ], [ -110.069211197263982, 23.141234477882264 ], [ -110.069184429587835, 23.142282084686677 ], [ -110.069294522579909, 23.143312434594122 ], [ -110.069504780735329, 23.143982077544784 ], [ -110.070025466189364, 23.144960655529697 ], [ -110.070291965259187, 23.145973862511497 ], [ -110.070570777010559, 23.14803490603633 ], [ -110.070768965590673, 23.150456771353408 ], [ -110.071084725875792, 23.155661322123816 ], [ -110.071302092076422, 23.158137492750818 ], [ -110.071638425687937, 23.160361455364914 ], [ -110.071981615182338, 23.161591889154245 ], [ -110.072674853303056, 23.163059226672015 ], [ -110.072942895407877, 23.16385565896196 ], [ -110.073053774710601, 23.164777620111902 ], [ -110.072970528181699, 23.165517789971275 ], [ -110.072609903504571, 23.166816337648527 ], [ -110.072487702617153, 23.167538212723976 ], [ -110.072481729372683, 23.168405291049751 ], [ -110.072593976865107, 23.169128546594013 ], [ -110.072936696902133, 23.170431234469568 ], [ -110.07332247826929, 23.171156099451977 ], [ -110.074137105210212, 23.172028004373718 ], [ -110.075109040653587, 23.172756310380979 ], [ -110.075673247709787, 23.173108877247486 ], [ -110.076443373388514, 23.173351250007734 ], [ -110.076979249510885, 23.173562138025879 ], [ -110.077534046639727, 23.173863459450114 ], [ -110.077922832366681, 23.174154774492767 ], [ -110.078534394198414, 23.174727397954573 ], [ -110.078844659877376, 23.175072445898866 ], [ -110.079163893053789, 23.175534967367145 ], [ -110.079385682496024, 23.175960788764801 ], [ -110.079731818897528, 23.176775731418758 ], [ -110.079884979318322, 23.17723728074256 ], [ -110.079998322070196, 23.177806986472191 ], [ -110.080034065592855, 23.178294946787702 ], [ -110.08002795262469, 23.17918912199691 ], [ -110.079917523416654, 23.179622033442644 ], [ -110.079592347646084, 23.180026592136063 ], [ -110.079160816628402, 23.180267944286381 ], [ -110.078191397724211, 23.180587438460073 ], [ -110.077662227931455, 23.180819182198974 ], [ -110.077044138129239, 23.181194921625437 ], [ -110.076543157331344, 23.181589410372631 ], [ -110.075658299926502, 23.182397135292987 ], [ -110.075040383690236, 23.182745770196259 ], [ -110.07407149731894, 23.182983949529987 ], [ -110.073074605069749, 23.183032277148406 ], [ -110.071052819361668, 23.182939067470585 ], [ -110.070153125539619, 23.183060209408374 ], [ -110.069475824229016, 23.183516860093665 ], [ -110.069246681850757, 23.184156806424593 ], [ -110.069236558508535, 23.185619996607873 ], [ -110.069367839491264, 23.186415624633351 ], [ -110.06977180989584, 23.187339318067824 ], [ -110.070313816545905, 23.188083177817081 ], [ -110.071535878290788, 23.189391058316289 ], [ -110.072078650546871, 23.190026527907278 ], [ -110.072484892175254, 23.190625061487324 ], [ -110.072619185782756, 23.190987149182583 ], [ -110.072615822545927, 23.191474879319134 ], [ -110.072486502446068, 23.191808316211958 ], [ -110.072101903463789, 23.192320896062558 ], [ -110.071590222612699, 23.192841757572687 ], [ -110.070439769048591, 23.193891756877122 ], [ -110.069478752585198, 23.194391891284713 ], [ -110.067746161438038, 23.194842288303391 ], [ -110.065819526546278, 23.195092801433013 ], [ -110.06177221085207, 23.195393886979325 ], [ -110.059982727986167, 23.19559095154807 ], [ -110.058661600999812, 23.195881121993864 ], [ -110.058249207745433, 23.196167690339919 ], [ -110.058333158916895, 23.196737232418347 ], [ -110.058272256962752, 23.197062033411566 ], [ -110.058005598424714, 23.197466894004126 ], [ -110.057622068144113, 23.19781685988967 ], [ -110.056738131323243, 23.198461893772492 ], [ -110.05633479953832, 23.198847867070466 ], [ -110.056008744920405, 23.199360756086104 ], [ -110.055868653369188, 23.199829598569728 ], [ -110.055774434039037, 23.20072323740019 ], [ -110.055400088380665, 23.201154543728602 ], [ -110.054371267778365, 23.201554819381464 ], [ -110.053030910946418, 23.201790630669187 ], [ -110.050038657324563, 23.202097755256943 ], [ -110.048619991977972, 23.202351120393271 ], [ -110.047356251771518, 23.202804122497746 ], [ -110.046668683266986, 23.203305768687407 ], [ -110.045869714969726, 23.204357709051511 ], [ -110.045719280474017, 23.204623337501243 ], [ -110.045647435669125, 23.205386047748846 ], [ -110.045635890488143, 23.207011799148599 ], [ -110.04559141631772, 23.207770245851119 ], [ -110.04546953881848, 23.208419834662177 ], [ -110.045310883725946, 23.208744035900231 ], [ -110.044956795677678, 23.209067050349709 ], [ -110.044798780605859, 23.209300931513877 ], [ -110.044678824097218, 23.209679561046887 ], [ -110.044636911868039, 23.210076729220191 ], [ -110.044631131991125, 23.210889604238144 ], [ -110.044696772777655, 23.211278393341889 ], [ -110.044899475882119, 23.211631885531023 ], [ -110.045171673988136, 23.211832249743416 ], [ -110.045785566066812, 23.212079848799636 ], [ -110.046203895264384, 23.212344324222833 ], [ -110.046844992703072, 23.212890151336762 ], [ -110.047495162884658, 23.213535386596842 ], [ -110.048804590482831, 23.21492526008225 ], [ -110.049384521599961, 23.215832000778843 ], [ -110.049814874750908, 23.217162355471903 ], [ -110.049952194496484, 23.218472873986457 ], [ -110.049933793434221, 23.221074074999969 ], [ -110.050207933150517, 23.222385419575104 ], [ -110.051048766039415, 23.223718250089796 ], [ -110.052176022852962, 23.22462828397186 ], [ -110.054716985442653, 23.226025531495306 ], [ -110.056011379465573, 23.226801058765183 ], [ -110.057353575520068, 23.227730412134971 ], [ -110.05829617149287, 23.228503811046217 ], [ -110.059781771353755, 23.229894652865436 ], [ -110.060548352139591, 23.230685050454724 ], [ -110.061362481973831, 23.231665407623765 ], [ -110.061952782892064, 23.232508939816288 ], [ -110.062909562387617, 23.234059178253663 ], [ -110.06343291814035, 23.234694562097459 ], [ -110.064046193678081, 23.235050477261112 ], [ -110.064197992057018, 23.235037636424941 ], [ -110.064428936369183, 23.234826947819322 ], [ -110.065095424558834, 23.234559943996935 ], [ -110.065895620268677, 23.234327492334518 ], [ -110.06601614696639, 23.234276383765533 ], [ -110.066897646139054, 23.234010649834531 ], [ -110.067778640104365, 23.233817166662678 ], [ -110.069540120015148, 23.23350244110528 ], [ -110.070362341584968, 23.233326659971773 ], [ -110.071067529994153, 23.233114053317578 ], [ -110.071420623304803, 23.232935492865874 ], [ -110.071442365833178, 23.232915655067874 ], [ -110.071774715109939, 23.232612419749298 ], [ -110.072206118140272, 23.232416255240647 ], [ -110.073146234211279, 23.23215083157319 ], [ -110.074281689181845, 23.231904617609633 ], [ -110.076747929707039, 23.23143137702634 ], [ -110.077751979026814, 23.231213632105788 ], [ -110.078255875108439, 23.231024738998055 ], [ -110.079138818111744, 23.230542166567137 ], [ -110.079805133952377, 23.230293162610305 ], [ -110.079953934980324, 23.230257904228765 ], [ -110.080040187162709, 23.230222279603293 ], [ -110.080979902952166, 23.230011000105453 ], [ -110.082114833350346, 23.229836984590772 ], [ -110.084579903929196, 23.229526195329033 ], [ -110.085695403143532, 23.229333975766249 ], [ -110.086576834658104, 23.229068128991788 ], [ -110.086930389249247, 23.228817276340163 ], [ -110.087109622821316, 23.228330568351687 ], [ -110.087335878430025, 23.228115104869943 ], [ -110.08783541183152, 23.227955421511012 ], [ -110.088441712176234, 23.22790474446181 ], [ -110.089761080940448, 23.227912390378069 ], [ -110.090348262828996, 23.227798368456106 ], [ -110.090751641423125, 23.227630914071288 ], [ -110.091005445444296, 23.227449906787434 ], [ -110.091208295513027, 23.227803343264704 ], [ -110.091024614778021, 23.228317743653111 ], [ -110.090927492830161, 23.228858509968369 ], [ -110.090920336516021, 23.229915258911308 ], [ -110.090984406688989, 23.230556929533414 ], [ -110.091183775389709, 23.231425192375372 ], [ -110.091451988430535, 23.232230626186546 ], [ -110.092057266191645, 23.233778663494242 ], [ -110.092404471534991, 23.2344671309597 ], [ -110.092840803099989, 23.234984496750371 ], [ -110.09322081507112, 23.2351583054608 ], [ -110.093924517301517, 23.235162364460805 ], [ -110.094373739220728, 23.235219148326941 ], [ -110.095017703765919, 23.235385441297165 ], [ -110.095641757449528, 23.235605811463401 ], [ -110.096869959060811, 23.236100624488873 ], [ -110.097630122852266, 23.236430157903701 ], [ -110.098682411677302, 23.236923946797233 ], [ -110.099676065500901, 23.23741739286228 ], [ -110.101604752164477, 23.238403931446282 ], [ -110.102559090779195, 23.238933264562526 ], [ -110.103493406305248, 23.239534737042774 ], [ -110.104096257521704, 23.240007860771151 ], [ -110.104970497094143, 23.240825759958405 ], [ -110.105652395254523, 23.241172874489664 ], [ -110.106823845863573, 23.241396316227746 ], [ -110.108094363183199, 23.24142159867716 ], [ -110.110734458923034, 23.241273980333574 ], [ -110.112064697781392, 23.241136985125408 ], [ -110.112177249666587, 23.24111504012247 ], [ -110.11341531815664, 23.240873639689202 ], [ -110.114336111929788, 23.24057173048833 ], [ -110.115532183354986, 23.240027490119161 ], [ -110.117119324967433, 23.239467373414811 ], [ -110.117693498889494, 23.239275016419498 ], [ -110.118568490751414, 23.239078082581113 ], [ -110.120329941903833, 23.238762786249563 ], [ -110.121122817249571, 23.238586574366817 ], [ -110.121739995941908, 23.238373246732845 ], [ -110.121900054646204, 23.238314627910697 ], [ -110.12226465279808, 23.238120333510341 ], [ -110.122487175084274, 23.237945942406178 ], [ -110.122740546496289, 23.238005966246291 ], [ -110.123117574219265, 23.238014535058177 ], [ -110.123495775202102, 23.238352995889901 ], [ -110.124132138705264, 23.23876596170949 ], [ -110.125270395918534, 23.239585222411439 ], [ -110.125834936973135, 23.239949662026142 ], [ -110.126390295124864, 23.24022372417188 ], [ -110.126751348925879, 23.240316055709304 ], [ -110.127279150688608, 23.240318988263365 ], [ -110.127786464861387, 23.240466324455063 ], [ -110.128780610012754, 23.240905397578871 ], [ -110.129930211671848, 23.241489844690538 ], [ -110.132384899710516, 23.242804092232991 ], [ -110.133495553275068, 23.243370233895092 ], [ -110.134372796703644, 23.243754432911796 ], [ -110.134724208197824, 23.243828628413013 ], [ -110.134901195528201, 23.243667018934051 ], [ -110.135233291270637, 23.243704977113705 ], [ -110.136052593782239, 23.243980458487421 ], [ -110.137086007401635, 23.244401631186786 ], [ -110.139366966424618, 23.245389649206434 ], [ -110.140654192818801, 23.245866383957676 ], [ -110.142234897257339, 23.246308581271961 ], [ -110.143582175183795, 23.246568841160894 ], [ -110.145560042178644, 23.246923257906886 ], [ -110.146283379740893, 23.247034034822427 ], [ -110.147247183082456, 23.247128783693356 ], [ -110.148161131232783, 23.24720111192973 ], [ -110.14814440229371, 23.247217935650461 ], [ -110.021779450460045, 23.334761550442209 ] ] ] ] } },
{ "type": "Feature", "properties": { "fid": 12.0, "cat": 12, "CLAVE_ACUI": "0315", "NOM_ACUIF": "PLUTARCO ELIAS CALLES", "VULNERABIL": 3 }, "geometry": { "type": "MultiPolygon", "coordinates": [ [ [ [ -110.141136169104001, 23.18330955606918 ], [ -110.141319274648922, 23.185398102647802 ], [ -110.141365050025257, 23.18602180576411 ], [ -110.141639708931933, 23.187150955209518 ], [ -110.142234801878843, 23.189159394331803 ], [ -110.143157959457497, 23.191162110548639 ], [ -110.144348143813346, 23.193489074698366 ], [ -110.144729614014608, 23.194484710198406 ], [ -110.14495086589811, 23.198633194502957 ], [ -110.145008414913633, 23.199288375733246 ], [ -110.143791729538947, 23.196846105683903 ], [ -110.142710682021203, 23.194753707058503 ], [ -110.140281172866963, 23.189619012814539 ], [ -110.139201737790216, 23.187291754119702 ], [ -110.138436729385731, 23.18554492139285 ], [ -110.138220232476698, 23.185030367887048 ], [ -110.138080877523748, 23.184480419905604 ], [ -110.138126678767833, 23.184287072773103 ], [ -110.138215997889873, 23.184070781153807 ], [ -110.138481350766185, 23.183828355407606 ], [ -110.13883428590286, 23.183640603508398 ], [ -110.139627736626466, 23.183319771128428 ], [ -110.140009690168185, 23.183177337760984 ], [ -110.14037434828326, 23.183078981538014 ], [ -110.140873179862055, 23.182982798884375 ], [ -110.141092883091019, 23.182944658998835 ], [ -110.141136169104001, 23.18330955606918 ] ] ] ] } },
{ "type": "Feature", "properties": { "fid": 4.0, "cat": 4, "CLAVE_ACUI": "0315", "NOM_ACUIF": "PLUTARCO ELIAS CALLES", "VULNERABIL": 4 }, "geometry": { "type": "MultiPolygon", "coordinates": [ [ [ [ -110.14514922973035, 23.200891495526079 ], [ -110.145774840248421, 23.204454422027986 ], [ -110.146301268247711, 23.20770072970441 ], [ -110.147247314699953, 23.211715698194563 ], [ -110.147765564801276, 23.213181255151753 ], [ -110.147726961737817, 23.214370493052062 ], [ -110.147698769104608, 23.215571756116301 ], [ -110.14769159341148, 23.216702685525288 ], [ -110.147782670328453, 23.217750949772054 ], [ -110.148065705449653, 23.219351236791063 ], [ -110.148446359649327, 23.220970116911428 ], [ -110.148980812502018, 23.222996291161202 ], [ -110.149305309118049, 23.224226467478559 ], [ -110.149784979561275, 23.225647164907627 ], [ -110.150365021028804, 23.226652908483945 ], [ -110.15085208013015, 23.22690845031277 ], [ -110.151181391010383, 23.226819082781113 ], [ -110.151733208308002, 23.226669330204125 ], [ -110.152102052345725, 23.226526800168706 ], [ -110.152505601749525, 23.226395009876242 ], [ -110.152794478327294, 23.226283538334528 ], [ -110.153052931050269, 23.226190147877428 ], [ -110.153503418260925, 23.226879120919701 ], [ -110.153945922665486, 23.229671477567333 ], [ -110.153837540117763, 23.232798842446485 ], [ -110.153837537412613, 23.232798844853601 ], [ -110.153552524675206, 23.232640587825461 ], [ -110.15311373780618, 23.23247563902186 ], [ -110.152869340740111, 23.232483354360962 ], [ -110.152574935124846, 23.232671449592953 ], [ -110.152328655271106, 23.232977226267316 ], [ -110.151884218586588, 23.233706460467925 ], [ -110.151644797175578, 23.234472930072641 ], [ -110.151443119181636, 23.235629384964355 ], [ -110.151370968225876, 23.236043105012907 ], [ -110.151154004869412, 23.237893593332057 ], [ -110.150932520566698, 23.240232141346592 ], [ -110.150776930818139, 23.241874881627702 ], [ -110.150767708478782, 23.242389944154247 ], [ -110.150112935845939, 23.242019378920283 ], [ -110.148529421715494, 23.24098361000275 ], [ -110.147242834674145, 23.240210223620448 ], [ -110.145486642878041, 23.239154519899916 ], [ -110.144122882371875, 23.238424499333856 ], [ -110.142924140445359, 23.237876016874047 ], [ -110.142289987105769, 23.237691907168593 ], [ -110.141586262419423, 23.237688064339778 ], [ -110.141136198134561, 23.237757864792734 ], [ -110.140489728550151, 23.237971109262975 ], [ -110.139862341783527, 23.238256715227291 ], [ -110.138626644635409, 23.238900283718067 ], [ -110.138018913902428, 23.239167924908763 ], [ -110.137431425716571, 23.239327285245789 ], [ -110.137060011395633, 23.239325245860538 ], [ -110.136533258405024, 23.239159767708561 ], [ -110.136221651805798, 23.238977405770989 ], [ -110.13581358564295, 23.238595798591593 ], [ -110.135445083257451, 23.23814214838859 ], [ -110.134747647409625, 23.23716280369068 ], [ -110.134339823970549, 23.236745064326179 ], [ -110.133813784268426, 23.236471191733703 ], [ -110.133344873101521, 23.236432476467598 ], [ -110.132464176574373, 23.236590201064541 ], [ -110.131975367292824, 23.236605566601181 ], [ -110.131389637942874, 23.236493940511625 ], [ -110.130902232892595, 23.236292531533312 ], [ -110.130025750755692, 23.23579992897465 ], [ -110.129479239059123, 23.235670448078707 ], [ -110.128716181039238, 23.235774608604601 ], [ -110.127990925929737, 23.236077689107322 ], [ -110.126578208209679, 23.236882763720352 ], [ -110.125823150201526, 23.237257927819996 ], [ -110.124970702389817, 23.237578351196611 ], [ -110.124305016163447, 23.237737226780286 ], [ -110.123117574219265, 23.238014535058177 ], [ -110.122740546496289, 23.238005966246291 ], [ -110.122487175084274, 23.237945942406178 ], [ -110.122302186146257, 23.237840530724878 ], [ -110.122185058610626, 23.237680291232319 ], [ -110.122147149768239, 23.237586985177117 ], [ -110.122148374406933, 23.237241706854615 ], [ -110.122150654744345, 23.236858091601583 ], [ -110.12215502698696, 23.236189715373374 ], [ -110.122155972315383, 23.236045201586734 ], [ -110.122154827353626, 23.235644413957633 ], [ -110.122164626303913, 23.235340646498759 ], [ -110.123945473116137, 23.234420315428594 ], [ -110.128707089610174, 23.232658361294639 ], [ -110.130843456718353, 23.231785009640078 ], [ -110.13249100827484, 23.230926995783669 ], [ -110.132933438393223, 23.230522976238753 ], [ -110.133100577967227, 23.230370346282523 ], [ -110.133281747682361, 23.229558423397105 ], [ -110.133314041669806, 23.229097945609261 ], [ -110.133309719307775, 23.229068739955313 ], [ -110.13333650379802, 23.228646446041143 ], [ -110.133290144858506, 23.228257794259502 ], [ -110.133118425667902, 23.22760650952273 ], [ -110.132993415637188, 23.227289683610806 ], [ -110.132790104289299, 23.226990490574345 ], [ -110.132576262084456, 23.226808661278803 ], [ -110.132138047313234, 23.226562365805961 ], [ -110.131522107204177, 23.226595093839141 ], [ -110.130271034530608, 23.226900823710938 ], [ -110.130200629826547, 23.226912955926782 ], [ -110.127909491836377, 23.227550598580564 ], [ -110.126753906882001, 23.227905481350252 ], [ -110.125578298991755, 23.228332503716221 ], [ -110.124774538807159, 23.228689328442908 ], [ -110.124728773251462, 23.228713160145425 ], [ -110.123538863213298, 23.229332779534413 ], [ -110.122852725861932, 23.229636055262006 ], [ -110.122029995055058, 23.229902435161737 ], [ -110.121344915741687, 23.230043125988836 ], [ -110.121122243821659, 23.228711908895885 ], [ -110.121013188853922, 23.227230145083329 ], [ -110.120954520775527, 23.2254884791253 ], [ -110.120615568287434, 23.220527875770333 ], [ -110.120396404805319, 23.218178210814038 ], [ -110.120058264026227, 23.216089820680175 ], [ -110.119713858964985, 23.214958835434935 ], [ -110.11901878707944, 23.213654268553224 ], [ -110.118749906813832, 23.212930165095038 ], [ -110.118638329960021, 23.212062423431096 ], [ -110.118721245759104, 23.21134029102295 ], [ -110.119081564256788, 23.210041634714973 ], [ -110.119203326544337, 23.209355849219083 ], [ -110.119208299693767, 23.208597149823778 ], [ -110.119094827793518, 23.208018436405421 ], [ -110.118749442281398, 23.20704099511207 ], [ -110.118469441165558, 23.20652457542619 ], [ -110.117974822917475, 23.205952757166568 ], [ -110.11743046145078, 23.20551614535292 ], [ -110.116292000950324, 23.204778123866536 ], [ -110.115659884938239, 23.204313915711534 ], [ -110.114901993898954, 23.203659315696918 ], [ -110.114270959355977, 23.203032523854265 ], [ -110.113135755566276, 23.20180674549761 ], [ -110.112652319791749, 23.201027227514011 ], [ -110.112337205796933, 23.199914456664494 ], [ -110.112295447467943, 23.198839357568271 ], [ -110.112485278432032, 23.196726830897152 ], [ -110.112511735871053, 23.195679213584164 ], [ -110.112401282936048, 23.194648888859639 ], [ -110.112190739427177, 23.193979298203732 ], [ -110.111669565822226, 23.19300084999152 ], [ -110.111439308091605, 23.192358244483014 ], [ -110.111269705017349, 23.191408877096453 ], [ -110.111217289672425, 23.190469203799442 ], [ -110.111229644416326, 23.188599551142712 ], [ -110.11119227648507, 23.187762359553442 ], [ -110.11118869964875, 23.187123148862042 ], [ -110.111206311860528, 23.186693129651132 ], [ -110.112716876474664, 23.186801446454282 ], [ -110.113163396155528, 23.186862063473917 ], [ -110.11396638845352, 23.186971069916051 ], [ -110.114046404058755, 23.186991728592762 ], [ -110.114473962816973, 23.187046186243002 ], [ -110.11538080949326, 23.187322260161022 ], [ -110.116150283162952, 23.1876878824364 ], [ -110.117551866486039, 23.188508670730869 ], [ -110.118389627102829, 23.188892730156095 ], [ -110.119501317866806, 23.189224123032453 ], [ -110.120516373479305, 23.189392383354587 ], [ -110.122449849617425, 23.189565760839496 ], [ -110.123436719344127, 23.189562227883329 ], [ -110.124463846781765, 23.18937826273865 ], [ -110.125188853444115, 23.189075189311676 ], [ -110.126336739565758, 23.188349932827421 ], [ -110.126866975527875, 23.187946412580359 ], [ -110.127309803297734, 23.187461113285245 ], [ -110.127517615118805, 23.187055802630272 ], [ -110.127647049675815, 23.186532189076519 ], [ -110.127769130367156, 23.185951483300336 ], [ -110.127868045250395, 23.185570655915491 ], [ -110.128014624956052, 23.185271838520251 ], [ -110.128175621462006, 23.185027134419144 ], [ -110.128507556958965, 23.185226513784713 ], [ -110.128904838824852, 23.185295684618936 ], [ -110.129941063708287, 23.185258545621885 ], [ -110.131238555620399, 23.185076127018789 ], [ -110.132734325273688, 23.184744991563349 ], [ -110.133643440414048, 23.184542743853349 ], [ -110.134494147256987, 23.184401665141152 ], [ -110.135562288936285, 23.184297552054527 ], [ -110.136703270779861, 23.184273701222939 ], [ -110.137582156124935, 23.184364279267545 ], [ -110.138080877523748, 23.184480419905604 ], [ -110.138220232476698, 23.185030367887048 ], [ -110.138436729385731, 23.185544921392854 ], [ -110.139201737790216, 23.187291754119702 ], [ -110.140281172866963, 23.189619012814539 ], [ -110.142710682021203, 23.194753707058503 ], [ -110.143791729538947, 23.196846105683903 ], [ -110.145008414913633, 23.199288375733246 ], [ -110.14514922973035, 23.200891495526079 ] ] ] ] } },
{ "type": "Feature", "properties": { "fid": 10.0, "cat": 11, "CLAVE_ACUI": "0315", "NOM_ACUIF": "PLUTARCO ELIAS CALLES", "VULNERABIL": 3 }, "geometry": { "type": "MultiPolygon", "coordinates": [ [ [ [ -110.148178100442422, 23.214347839665805 ], [ -110.148574829184724, 23.216094970495995 ], [ -110.148956299215328, 23.217395782532481 ], [ -110.149765013909416, 23.220058442317324 ], [ -110.150848389406235, 23.22192382897239 ], [ -110.152206421412245, 23.224895477882868 ], [ -110.153052931050269, 23.226190147877428 ], [ -110.152794478327294, 23.226283538334528 ], [ -110.152505601749525, 23.226395009876242 ], [ -110.152102052345725, 23.226526800168706 ], [ -110.151733208308002, 23.226669330204125 ], [ -110.15085208013015, 23.22690845031277 ], [ -110.150365021028804, 23.226652908483945 ], [ -110.149784979561275, 23.225647164907627 ], [ -110.149305309118049, 23.224226467478559 ], [ -110.148980812502018, 23.222996291161202 ], [ -110.148446359649327, 23.220970116911428 ], [ -110.148065705449653, 23.219351236791063 ], [ -110.147782670328453, 23.217750949772054 ], [ -110.14769159341148, 23.216702685525288 ], [ -110.147698769104608, 23.215571756116301 ], [ -110.147726961737817, 23.214370493052062 ], [ -110.147765564801276, 23.213181255151753 ], [ -110.148178100442422, 23.214347839665805 ] ] ] ] } },
{ "type": "Feature", "properties": { "fid": 22.0, "cat": 22, "CLAVE_ACUI": "0315", "NOM_ACUIF": "PLUTARCO ELIAS CALLES", "VULNERABIL": 3 }, "geometry": { "type": "MultiPolygon", "coordinates": [ [ [ [ -110.107650691011045, 23.066163902672461 ], [ -110.107499541522245, 23.065923719520047 ], [ -110.107275968190052, 23.065640441593967 ], [ -110.106916580275808, 23.065312604931584 ], [ -110.106654365090051, 23.065107889259298 ], [ -110.106402180457394, 23.064862583153715 ], [ -110.106170056336722, 23.064536096661222 ], [ -110.106035367164566, 23.064237258831852 ], [ -110.105871088400406, 23.063719065235745 ], [ -110.105727676243689, 23.063402081128189 ], [ -110.105592080906021, 23.063182208257025 ], [ -110.107119935841496, 23.062687396289213 ], [ -110.107284544417553, 23.063272476464967 ], [ -110.107460022590885, 23.064113616880828 ], [ -110.107604980002534, 23.065279008760669 ], [ -110.107604979630963, 23.065839768311552 ], [ -110.107650691011045, 23.066163902672461 ] ] ] ] } },
{ "type": "Feature", "properties": { "fid": 21.0, "cat": 21, "CLAVE_ACUI": "0315", "NOM_ACUIF": "PLUTARCO ELIAS CALLES", "VULNERABIL": 3 }, "geometry": { "type": "MultiPolygon", "coordinates": [ [ [ [ -110.113571167403009, 23.094669342642909 ], [ -110.114257812491203, 23.097717284713948 ], [ -110.114646911836189, 23.09922027696296 ], [ -110.115592955035069, 23.101184844882901 ], [ -110.115829467334777, 23.101972580134024 ], [ -110.116996763553885, 23.103099823254546 ], [ -110.117110501415056, 23.103196417577145 ], [ -110.116399933466326, 23.102905913733082 ], [ -110.115887576718421, 23.102620512821115 ], [ -110.115333979203001, 23.102197665938416 ], [ -110.11482894434242, 23.101772047611977 ], [ -110.114013506250942, 23.101044866337656 ], [ -110.113720975924352, 23.100747557019414 ], [ -110.113218138429673, 23.100236500551187 ], [ -110.112966590013258, 23.099882816645206 ], [ -110.112619362329099, 23.099230519434098 ], [ -110.11246610810349, 23.098778028917675 ], [ -110.112353571628915, 23.098072854984132 ], [ -110.112319264463409, 23.097350055676223 ], [ -110.112328878222669, 23.095886831573409 ], [ -110.112372501608178, 23.095191567990767 ], [ -110.112493757715768, 23.094569001411301 ], [ -110.11265222764267, 23.094226653938392 ], [ -110.113016123266448, 23.093646350638696 ], [ -110.113462783951888, 23.093128666551369 ], [ -110.113571167403009, 23.094669342642909 ] ] ] ] } },
{ "type": "Feature", "properties": { "fid": 19.0, "cat": 19, "CLAVE_ACUI": "0315", "NOM_ACUIF": "PLUTARCO ELIAS CALLES", "VULNERABIL": 3 }, "geometry": { "type": "MultiPolygon", "coordinates": [ [ [ [ -110.119438171306214, 23.108587265528776 ], [ -110.119735716439251, 23.109849930849951 ], [ -110.120147704470185, 23.111642838967121 ], [ -110.120262145151045, 23.112377167252316 ], [ -110.120223999442857, 23.113388062287932 ], [ -110.120305072090673, 23.114026954051784 ], [ -110.120301720414659, 23.114032669106447 ], [ -110.12001420447308, 23.113968355871922 ], [ -110.119676805431624, 23.113858878055687 ], [ -110.119405819430909, 23.113738169641223 ], [ -110.11904881076471, 23.113492847163009 ], [ -110.118748222141633, 23.11316599595235 ], [ -110.118137815438899, 23.112430947140414 ], [ -110.117867233897726, 23.111995871144082 ], [ -110.117665892666622, 23.111425693286424 ], [ -110.117600904461909, 23.110910473164715 ], [ -110.117607279765707, 23.109934990739195 ], [ -110.117649584647694, 23.109438435631329 ], [ -110.117770123563773, 23.108924252712352 ], [ -110.117928716476044, 23.108563836168614 ], [ -110.118283954926326, 23.107996768937298 ], [ -110.118500181669376, 23.107562043327526 ], [ -110.118644714183915, 23.107227326509129 ], [ -110.119438171306214, 23.108587265528776 ] ] ] ] } },
{ "type": "Feature", "properties": { "fid": 18.0, "cat": 18, "CLAVE_ACUI": "0315", "NOM_ACUIF": "PLUTARCO ELIAS CALLES", "VULNERABIL": 2 }, "geometry": { "type": "MultiPolygon", "coordinates": [ [ [ [ -110.123413085182904, 23.120975495376765 ], [ -110.123695373647678, 23.123289108683299 ], [ -110.123870848853912, 23.12580108794905 ], [ -110.124351501701668, 23.126453399641726 ], [ -110.124862669615325, 23.126827241425996 ], [ -110.12512969909875, 23.128011704559313 ], [ -110.125411986249858, 23.128717423368823 ], [ -110.125465392977347, 23.129594804281137 ], [ -110.126190185441885, 23.130981446011127 ], [ -110.126229023854293, 23.131104953278381 ], [ -110.125763863240707, 23.130718667589274 ], [ -110.125015283746094, 23.130073723586317 ], [ -110.123615832171453, 23.129009142505691 ], [ -110.122955266706498, 23.128463516404565 ], [ -110.122691677840919, 23.128204784509517 ], [ -110.122353596013298, 23.127873052579297 ], [ -110.122063145744562, 23.127483035737804 ], [ -110.121715807180536, 23.126830757254265 ], [ -110.1215621412736, 23.126432468645255 ], [ -110.121448480493811, 23.125889881718081 ], [ -110.121412711231685, 23.12538385886965 ], [ -110.121419063435781, 23.124408377230516 ], [ -110.121500776193187, 23.123857845847258 ], [ -110.121739560823357, 23.123181733089918 ], [ -110.122055820832344, 23.12260540935123 ], [ -110.122765810389737, 23.121552548770659 ], [ -110.123081651161357, 23.121039448326162 ], [ -110.123404899823612, 23.12048026885806 ], [ -110.12340489982796, 23.12048026887442 ], [ -110.123413085182904, 23.120975495376765 ] ] ] ] } },
{ "type": "Feature", "properties": { "fid": 5.0, "cat": 5, "CLAVE_ACUI": "0315", "NOM_ACUIF": "PLUTARCO ELIAS CALLES", "VULNERABIL": 2 }, "geometry": { "type": "MultiPolygon", "coordinates": [ [ [ [ -110.108094363183199, 23.24142159867716 ], [ -110.106823845863573, 23.241396316227746 ], [ -110.105652395254523, 23.241172874489664 ], [ -110.104970497094143, 23.240825759958405 ], [ -110.104096257521704, 23.240007860771151 ], [ -110.103493406305248, 23.239534737042774 ], [ -110.102559090779195, 23.238933264562526 ], [ -110.101604752164477, 23.238403931446282 ], [ -110.099676065500901, 23.23741739286228 ], [ -110.098682411677302, 23.236923946797233 ], [ -110.097630122852266, 23.236430157903701 ], [ -110.096869959060811, 23.236100624488873 ], [ -110.095641757449528, 23.235605811463401 ], [ -110.095017703765919, 23.235385441297165 ], [ -110.094373739220728, 23.235219148326941 ], [ -110.093924517301517, 23.235162364460805 ], [ -110.09322081507112, 23.2351583054608 ], [ -110.092840803099989, 23.234984496750371 ], [ -110.092404471534991, 23.2344671309597 ], [ -110.092057266191645, 23.233778663494242 ], [ -110.091451988430535, 23.232230626186546 ], [ -110.091183775389709, 23.231425192375372 ], [ -110.090984406688989, 23.230556929533414 ], [ -110.090920336516021, 23.229915258911308 ], [ -110.090927492830161, 23.228858509968369 ], [ -110.091024614778021, 23.228317743653111 ], [ -110.091208295513027, 23.227803343264704 ], [ -110.091481147725901, 23.227922341761978 ], [ -110.092096853681255, 23.227925899331691 ], [ -110.092361033019628, 23.227882263028548 ], [ -110.092537864763628, 23.227747798015194 ], [ -110.092568405050628, 23.227567326312435 ], [ -110.092483194717474, 23.227160376325298 ], [ -110.092553254427798, 23.226916905957694 ], [ -110.092848642622172, 23.226593444467063 ], [ -110.093270895311008, 23.22629781142442 ], [ -110.094242260791049, 23.225734369995962 ], [ -110.094790886136209, 23.225538817269019 ], [ -110.095465401953561, 23.225515602781655 ], [ -110.096040972000665, 23.225672464617549 ], [ -110.097093171697693, 23.226166261992937 ], [ -110.097589773348574, 23.226440085992618 ], [ -110.098027374750174, 23.226767764394243 ], [ -110.098260107867517, 23.227040072016433 ], [ -110.098520705616835, 23.227529316989557 ], [ -110.098490051998098, 23.227727854227524 ], [ -110.098367190172752, 23.227764921422416 ], [ -110.097884483123963, 23.227670185447618 ], [ -110.097034587299589, 23.227611110977065 ], [ -110.096281815351318, 23.22764291443276 ], [ -110.096271719142678, 23.227644021857273 ], [ -110.09487339286413, 23.227797393834852 ], [ -110.094276319213279, 23.227929440574854 ], [ -110.093893521697098, 23.228171109221705 ], [ -110.09385260021655, 23.228441845385703 ], [ -110.09396844420273, 23.228696017766914 ], [ -110.094112635622551, 23.22901238561851 ], [ -110.094207929843748, 23.229374230890411 ], [ -110.094233775760387, 23.229889226720157 ], [ -110.094181557320269, 23.230385707829249 ], [ -110.09404082240259, 23.230913562417257 ], [ -110.093999054064255, 23.231360155071307 ], [ -110.094063686619918, 23.231681146856367 ], [ -110.094298067043155, 23.231948984440582 ], [ -110.095377619733327, 23.232741020852959 ], [ -110.096877872581572, 23.233472241493221 ], [ -110.100299118981553, 23.234873823399827 ], [ -110.101936980848862, 23.235497395728697 ], [ -110.103429278207187, 23.23596656989573 ], [ -110.104278567744075, 23.236124964204659 ], [ -110.105334131969784, 23.236130977489555 ], [ -110.105833134609782, 23.236052525986906 ], [ -110.106274577029879, 23.23581116205516 ], [ -110.106511311252305, 23.235487341296928 ], [ -110.10678007050393, 23.234757243406928 ], [ -110.106646906880997, 23.234205508999537 ], [ -110.105978664852003, 23.233280402303155 ], [ -110.104998102487386, 23.232290287675927 ], [ -110.103135621579909, 23.2306147238648 ], [ -110.102618157296234, 23.230099904517974 ], [ -110.101922095606071, 23.22955455350176 ], [ -110.101013729252017, 23.228871359987828 ], [ -110.100858144423299, 23.228753048661584 ], [ -110.100741592113451, 23.228643992918109 ], [ -110.100673417315235, 23.228548617741197 ], [ -110.100635107655791, 23.228464233135231 ], [ -110.100577868457748, 23.228281759587922 ], [ -110.101016934901835, 23.228392660365955 ], [ -110.101180988973809, 23.228469643510749 ], [ -110.101394214139589, 23.228585045169851 ], [ -110.101523447171317, 23.228648464125843 ], [ -110.10164000014133, 23.228757519309365 ], [ -110.101678307214073, 23.228875159646748 ], [ -110.101709376508651, 23.22906071354976 ], [ -110.101791493264912, 23.229195403671305 ], [ -110.102017529819889, 23.229301621562833 ], [ -110.102378898081312, 23.229339815383288 ], [ -110.10317053078785, 23.229344334338428 ], [ -110.103756081288097, 23.229474128182204 ], [ -110.104721103756319, 23.229858989567592 ], [ -110.104858626074403, 23.229927781654961 ], [ -110.106124608024928, 23.230445052780432 ], [ -110.108550970736673, 23.231542724418837 ], [ -110.110694540969789, 23.232548435215538 ], [ -110.111046386913387, 23.232550425778051 ], [ -110.111631840406844, 23.232698255071988 ], [ -110.112684513666807, 23.233137758565604 ], [ -110.113853522842845, 23.233722430068937 ], [ -110.116307905046114, 23.235036920944232 ], [ -110.117318953705279, 23.23553982766979 ], [ -110.118022970773083, 23.235823345443961 ], [ -110.118725613628584, 23.235989871358729 ], [ -110.118991106397047, 23.235747484262149 ], [ -110.119070245051418, 23.23560340893226 ], [ -110.119042168931941, 23.23541357035797 ], [ -110.118916237139658, 23.235241248026366 ], [ -110.118566518971917, 23.23491411911747 ], [ -110.118412038517206, 23.234624214586809 ], [ -110.118298314747179, 23.23408163033605 ], [ -110.118263255241175, 23.233467227859379 ], [ -110.118271799518979, 23.232166604595459 ], [ -110.118305095109605, 23.231561617908575 ], [ -110.118396437502682, 23.231047281185393 ], [ -110.118515379183293, 23.230795039960739 ], [ -110.118780861705659, 23.23055265275833 ], [ -110.119035799317217, 23.23042762772927 ], [ -110.119535129645087, 23.230294939088655 ], [ -110.120112409015348, 23.230198815009814 ], [ -110.120327253422104, 23.230171676803568 ], [ -110.121344915741687, 23.230043125988836 ], [ -110.122029995055058, 23.229902435161737 ], [ -110.122852725861932, 23.229636055262006 ], [ -110.123538863213298, 23.229332779534413 ], [ -110.124728773251462, 23.228713160145425 ], [ -110.124774538807159, 23.228689328442908 ], [ -110.125578298991755, 23.228332503716221 ], [ -110.126753906882001, 23.227905481350252 ], [ -110.127909491836377, 23.227550598580564 ], [ -110.130200629826547, 23.226912955926782 ], [ -110.130271034530608, 23.226900823710938 ], [ -110.131522107204177, 23.226595093839141 ], [ -110.132138047313234, 23.226562365805961 ], [ -110.132576262084456, 23.226808661278803 ], [ -110.132790104289299, 23.226990490574345 ], [ -110.132993415637188, 23.227289683610806 ], [ -110.133118425667902, 23.22760650952273 ], [ -110.133290144858506, 23.228257794259502 ], [ -110.13333650379802, 23.228646446041143 ], [ -110.133309719307775, 23.229068739955313 ], [ -110.133314041669806, 23.229097945609261 ], [ -110.133281747682361, 23.229558423397105 ], [ -110.133100577967227, 23.230370346282523 ], [ -110.132933438393223, 23.230522976238753 ], [ -110.13249100827484, 23.230926995783669 ], [ -110.130843456718353, 23.231785009640078 ], [ -110.128707089610174, 23.232658361294639 ], [ -110.123945473116137, 23.234420315428594 ], [ -110.122164626303913, 23.235340646498759 ], [ -110.121981131387926, 23.235362319126633 ], [ -110.121633676752054, 23.235417885231325 ], [ -110.121456044297233, 23.23546321379267 ], [ -110.120663306296336, 23.235621363785523 ], [ -110.120301026367713, 23.235718692977375 ], [ -110.120006925356464, 23.235852532886142 ], [ -110.119879037139441, 23.23597827080021 ], [ -110.119789473654876, 23.236221644968477 ], [ -110.119847109331445, 23.236375519238575 ], [ -110.12010958064279, 23.236593767647303 ], [ -110.120489398017938, 23.236803640031223 ], [ -110.121366381932319, 23.237215005885062 ], [ -110.121648892030251, 23.237331929235914 ], [ -110.121910536895101, 23.237461109061705 ], [ -110.122147149768239, 23.237586985177117 ], [ -110.122185058610626, 23.237680291232319 ], [ -110.122302186146257, 23.237840530724878 ], [ -110.122487175084274, 23.237945942406178 ], [ -110.12226465279808, 23.238120333510341 ], [ -110.121900054646204, 23.238314627910697 ], [ -110.121739995941908, 23.238373246732845 ], [ -110.121122817249571, 23.238586574366817 ], [ -110.120329941903833, 23.238762786249563 ], [ -110.118568490751414, 23.239078082581113 ], [ -110.117693498889494, 23.239275016419498 ], [ -110.117119324967433, 23.239467373414811 ], [ -110.115532183354986, 23.240027490119161 ], [ -110.114336111929788, 23.24057173048833 ], [ -110.11341531815664, 23.240873639689202 ], [ -110.112177249666587, 23.24111504012247 ], [ -110.112064697781392, 23.241136985125408 ], [ -110.110734458923034, 23.241273980333574 ], [ -110.108094363183199, 23.24142159867716 ] ] ] ] } },
{ "type": "Feature", "properties": { "fid": 2.0, "cat": 3, "CLAVE_ACUI": "0315", "NOM_ACUIF": "PLUTARCO ELIAS CALLES", "VULNERABIL": 3 }, "geometry": { "type": "MultiPolygon", "coordinates": [ [ [ [ -110.153762817225484, 23.23495483436924 ], [ -110.153808593295167, 23.238090516316596 ], [ -110.154122082457917, 23.243071213513822 ], [ -110.150474365497047, 23.245601696885668 ], [ -110.150465725563137, 23.245604430441361 ], [ -110.150536922877947, 23.244893204226688 ], [ -110.15060452990835, 23.244403044273387 ], [ -110.150722981934337, 23.243667603676695 ], [ -110.150753763411728, 23.243168768397695 ], [ -110.150767708478782, 23.242389944154247 ], [ -110.150776930818139, 23.241874881627702 ], [ -110.150932520566698, 23.240232141346592 ], [ -110.151154004869412, 23.237893593332057 ], [ -110.151370968225876, 23.236043105012907 ], [ -110.151443119181636, 23.235629384964355 ], [ -110.151644797175578, 23.234472930072641 ], [ -110.151884218586588, 23.233706460467925 ], [ -110.152328655271106, 23.232977226267316 ], [ -110.152574935124846, 23.232671449592953 ], [ -110.152869340740111, 23.232483354360962 ], [ -110.15311373780618, 23.23247563902186 ], [ -110.153552524675206, 23.232640587825461 ], [ -110.153837537412613, 23.232798844853601 ], [ -110.15383027389295, 23.233008427736777 ], [ -110.153830276266447, 23.233008432122347 ], [ -110.153762817225484, 23.23495483436924 ] ] ] ] } },
{ "type": "Feature", "properties": { "fid": 1.0, "cat": 2, "CLAVE_ACUI": "0315", "NOM_ACUIF": "PLUTARCO ELIAS CALLES", "VULNERABIL": 2 }, "geometry": { "type": "MultiPolygon", "coordinates": [ [ [ [ -110.14818256012363, 23.247191467097796 ], [ -110.148161131232783, 23.24720111192973 ], [ -110.147247183082456, 23.247128783693356 ], [ -110.146283379740893, 23.247034034822427 ], [ -110.145560042178644, 23.246923257906886 ], [ -110.143582175183795, 23.246568841160894 ], [ -110.142234897257339, 23.246308581271961 ], [ -110.140654192818801, 23.245866383957676 ], [ -110.139366966424618, 23.245389649206434 ], [ -110.137086007401635, 23.244401631186786 ], [ -110.136052593782239, 23.243980458487421 ], [ -110.135233291270637, 23.243704977113705 ], [ -110.134901195528201, 23.243667018934051 ], [ -110.134724208197824, 23.243828628413013 ], [ -110.134372796703644, 23.243754432911796 ], [ -110.133495553275068, 23.243370233895092 ], [ -110.132384899710516, 23.242804092232991 ], [ -110.129930211671848, 23.241489844690538 ], [ -110.128780610012754, 23.240905397578871 ], [ -110.127786464861387, 23.240466324455063 ], [ -110.127279150688608, 23.240318988263365 ], [ -110.126751348925879, 23.240316055709304 ], [ -110.126390295124864, 23.24022372417188 ], [ -110.125834936973135, 23.239949662026142 ], [ -110.125270395918534, 23.239585222411439 ], [ -110.124132138705264, 23.23876596170949 ], [ -110.123495775202102, 23.238352995889901 ], [ -110.123117574219265, 23.238014535058177 ], [ -110.124305016163447, 23.237737226780286 ], [ -110.124970702389817, 23.237578351196611 ], [ -110.125823150201526, 23.237257927819996 ], [ -110.126578208209679, 23.236882763720352 ], [ -110.127990925929737, 23.236077689107322 ], [ -110.128716181039238, 23.235774608604601 ], [ -110.129479239059123, 23.235670448078707 ], [ -110.130025750755692, 23.23579992897465 ], [ -110.130902232892595, 23.236292531533312 ], [ -110.131389637942874, 23.236493940511625 ], [ -110.131975367292824, 23.236605566601181 ], [ -110.132464176574373, 23.236590201064541 ], [ -110.133344873101521, 23.236432476467598 ], [ -110.133813784268426, 23.236471191733703 ], [ -110.134339823970549, 23.236745064326179 ], [ -110.134747647409625, 23.23716280369068 ], [ -110.135445083257451, 23.23814214838859 ], [ -110.13581358564295, 23.238595798591593 ], [ -110.136221651805798, 23.238977405770989 ], [ -110.136533258405024, 23.239159767708561 ], [ -110.137060011395633, 23.239325245860538 ], [ -110.137431425716571, 23.239327285245789 ], [ -110.138018913902428, 23.239167924908763 ], [ -110.138626644635409, 23.238900283718067 ], [ -110.139862341783527, 23.238256715227291 ], [ -110.140489728550151, 23.237971109262975 ], [ -110.141136198134561, 23.237757864792734 ], [ -110.141586262419423, 23.237688064339778 ], [ -110.142289987105769, 23.237691907168593 ], [ -110.142924140445359, 23.237876016874047 ], [ -110.144122882371875, 23.238424499333856 ], [ -110.145486642878041, 23.239154519899916 ], [ -110.147242834674145, 23.240210223620448 ], [ -110.148529421715494, 23.24098361000275 ], [ -110.150112935845939, 23.242019378920283 ], [ -110.150767708478782, 23.242389944154247 ], [ -110.150753763411728, 23.243168768397695 ], [ -110.150722981934337, 23.243667603676695 ], [ -110.15060452990835, 23.244403044273387 ], [ -110.150536922877947, 23.244893204226688 ], [ -110.150465725563137, 23.245604430441361 ], [ -110.150464194354925, 23.245608752522692 ], [ -110.14818256012363, 23.247191467097796 ] ] ] ] } },
{ "type": "Feature", "properties": { "fid": 6.0, "cat": 6, "CLAVE_ACUI": "0315", "NOM_ACUIF": "PLUTARCO ELIAS CALLES", "VULNERABIL": 3 }, "geometry": { "type": "MultiPolygon", "coordinates": [ [ [ [ -110.12215502698696, 23.236189715373374 ], [ -110.122150654744345, 23.236858091601583 ], [ -110.122148374406933, 23.237241706854615 ], [ -110.122147149768239, 23.237586985177117 ], [ -110.121910536895101, 23.237461109061705 ], [ -110.121648892030251, 23.237331929235914 ], [ -110.121366381932319, 23.237215005885062 ], [ -110.120489398017938, 23.236803640031223 ], [ -110.12010958064279, 23.236593767647303 ], [ -110.119847109331445, 23.236375519238575 ], [ -110.119789473654876, 23.236221644968477 ], [ -110.119879037139441, 23.23597827080021 ], [ -110.120006925356464, 23.235852532886142 ], [ -110.120301026367713, 23.235718692977375 ], [ -110.120663306296336, 23.235621363785523 ], [ -110.121456044297233, 23.23546321379267 ], [ -110.121633676752054, 23.235417885231325 ], [ -110.121981131387926, 23.235362319126633 ], [ -110.122164626303913, 23.235340646498759 ], [ -110.122154827353626, 23.235644413957633 ], [ -110.122155972315383, 23.236045201586734 ], [ -110.12215502698696, 23.236189715373374 ] ] ] ] } },
{ "type": "Feature", "properties": { "fid": 9.0, "cat": 8, "CLAVE_ACUI": "0315", "NOM_ACUIF": "PLUTARCO ELIAS CALLES", "VULNERABIL": 1 }, "geometry": { "type": "MultiPolygon", "coordinates": [ [ [ [ -110.10678007050393, 23.234757243406928 ], [ -110.106511311252305, 23.235487341296928 ], [ -110.106274577029879, 23.23581116205516 ], [ -110.105833134609782, 23.236052525986906 ], [ -110.105334131969784, 23.236130977489555 ], [ -110.104278567744075, 23.236124964204659 ], [ -110.103429278207187, 23.23596656989573 ], [ -110.101936980848862, 23.235497395728697 ], [ -110.100299118981553, 23.234873823399827 ], [ -110.096877872581572, 23.233472241493221 ], [ -110.095377619733327, 23.232741020852959 ], [ -110.094298067043155, 23.231948984440582 ], [ -110.094063686619918, 23.231681146856367 ], [ -110.093999054064255, 23.231360155071307 ], [ -110.09404082240259, 23.230913562417257 ], [ -110.094181557320269, 23.230385707829249 ], [ -110.094233775760387, 23.229889226720157 ], [ -110.094207929843748, 23.229374230890411 ], [ -110.094112635622551, 23.22901238561851 ], [ -110.09396844420273, 23.228696017766914 ], [ -110.09385260021655, 23.228441845385703 ], [ -110.093893521697098, 23.228171109221705 ], [ -110.094276319213279, 23.227929440574854 ], [ -110.09487339286413, 23.227797393834852 ], [ -110.096281815351318, 23.22764291443276 ], [ -110.097034587299589, 23.227611110977065 ], [ -110.097884483123963, 23.227670185447618 ], [ -110.098548205505082, 23.22780044703595 ], [ -110.099647210619395, 23.228119869628564 ], [ -110.100577868457748, 23.228281759587922 ], [ -110.100635107655791, 23.228464233135231 ], [ -110.100673417315235, 23.228548617741197 ], [ -110.100741592113451, 23.228643992918109 ], [ -110.100858144423299, 23.228753048661584 ], [ -110.101013729252017, 23.228871359987828 ], [ -110.101922095606071, 23.22955455350176 ], [ -110.102618157296234, 23.230099904517974 ], [ -110.103135621579909, 23.2306147238648 ], [ -110.104998102487386, 23.232290287675927 ], [ -110.105978664852003, 23.233280402303155 ], [ -110.106646906880997, 23.234205508999537 ], [ -110.10678007050393, 23.234757243406928 ] ] ] ] } }
]
}
