{
"type": "FeatureCollection",
"name": "0316",
"crs": { "type": "name", "properties": { "name": "urn:ogc:def:crs:OGC:1.3:CRS84" } },
"features": [
{ "type": "Feature", "properties": { "fid": 1.0, "cat": 1, "CLAVE_ACUI": "0316", "NOM_ACUIF": "MIGRIÑO", "VULNERABIL": 1 }, "geometry": { "type": "MultiPolygon", "coordinates": [ [ [ [ -110.036329795047564, 23.066612254965921 ], [ -110.03717233516268, 23.065842855319413 ], [ -110.037457454062022, 23.065643054912211 ], [ -110.037945473943708, 23.065480054686262 ], [ -110.038357526876979, 23.065446997174284 ], [ -110.039792421790523, 23.065455722044817 ], [ -110.040192700188669, 23.065534365228864 ], [ -110.040625772107703, 23.065892649107877 ], [ -110.040844168604281, 23.06632584064949 ], [ -110.041430287252126, 23.067989116746393 ], [ -110.04149838730639, 23.068196271907269 ], [ -110.041608599703281, 23.069172325068724 ], [ -110.041645122647822, 23.069700947033073 ], [ -110.041590515286188, 23.070174821321775 ], [ -110.041475981434857, 23.070323162575569 ], [ -110.040996096847195, 23.070541546587233 ], [ -110.040848832866757, 23.070659204065706 ], [ -110.040641485831898, 23.070989889012992 ], [ -110.040492539288593, 23.071344638572491 ], [ -110.040004797007825, 23.072669450521339 ], [ -110.039800432078394, 23.073094993288944 ], [ -110.039334474620603, 23.073756047870731 ], [ -110.038873184137984, 23.074274867797239 ], [ -110.037186428710825, 23.076034961764279 ], [ -110.036714139882932, 23.07655370776402 ], [ -110.036196904451572, 23.077214439367648 ], [ -110.035930287165044, 23.077639596541854 ], [ -110.035203302828165, 23.078962930460037 ], [ -110.034990358299282, 23.079561159442004 ], [ -110.034723606482103, 23.08102956267361 ], [ -110.034555474944426, 23.082529052432289 ], [ -110.034037585696893, 23.088058264413267 ], [ -110.033869434750031, 23.089557751573164 ], [ -110.033602646804539, 23.091026149999948 ], [ -110.033389674157988, 23.091624375039927 ], [ -110.032662584767749, 23.092947691564039 ], [ -110.032478700644248, 23.093317459545336 ], [ -110.032347672503462, 23.093719729298378 ], [ -110.0323443744321, 23.093924632613625 ], [ -110.032460012596346, 23.0944785783709 ], [ -110.032539856247865, 23.094577295459558 ], [ -110.032796821060543, 23.094484029242576 ], [ -110.033084069066248, 23.094252074254701 ], [ -110.034167585524898, 23.093262879207852 ], [ -110.034461227940639, 23.092903941872404 ], [ -110.034748050544962, 23.092218100524004 ], [ -110.034864155046847, 23.091597264883251 ], [ -110.035119149364604, 23.089385872861413 ], [ -110.035230229074998, 23.088698956104629 ], [ -110.035493610146503, 23.087704736965428 ], [ -110.035758787619073, 23.086971340296859 ], [ -110.036732881783365, 23.08454303725749 ], [ -110.03698691814472, 23.083829892971281 ], [ -110.037198347306528, 23.082930193863273 ], [ -110.037246354569746, 23.082358054128886 ], [ -110.037258960393018, 23.080587767855882 ], [ -110.037311987190321, 23.080081708411935 ], [ -110.037546839208943, 23.079490383910684 ], [ -110.037829314481172, 23.079151693638611 ], [ -110.038912672079746, 23.078162458907013 ], [ -110.039249475301276, 23.077905388644822 ], [ -110.039737874795591, 23.077694966111647 ], [ -110.040098786047892, 23.077651432701316 ], [ -110.041294640253071, 23.07765869477646 ], [ -110.041688930097649, 23.077554391061383 ], [ -110.042333092035051, 23.077060382100882 ], [ -110.042859030008799, 23.076458957924242 ], [ -110.044669210079363, 23.074146308175255 ], [ -110.045140646457185, 23.073483576726495 ], [ -110.045530538039813, 23.072703493252089 ], [ -110.045616093091553, 23.072251821034129 ], [ -110.045625460810868, 23.070924101408888 ], [ -110.045595096268812, 23.070558102069235 ], [ -110.045444028268122, 23.070177824832321 ], [ -110.045258581686312, 23.07000057081634 ], [ -110.044544234719154, 23.069553660846559 ], [ -110.04435886196039, 23.0693662447101 ], [ -110.044208133695662, 23.068938547841416 ], [ -110.044178180042195, 23.06851496860666 ], [ -110.044189123466893, 23.066965962274285 ], [ -110.04426902039333, 23.066537966565935 ], [ -110.044630928393985, 23.066089659212611 ], [ -110.045068042232742, 23.065877214841191 ], [ -110.046745992476588, 23.065334104580472 ], [ -110.047111410525943, 23.065156206399735 ], [ -110.04726339973233, 23.06508263789668 ], [ -110.04739253246828, 23.065020132786579 ], [ -110.047566903962377, 23.064942165304444 ], [ -110.04765180406207, 23.064904203554789 ], [ -110.047705887911135, 23.064962058765442 ], [ -110.047805150564244, 23.065015215133037 ], [ -110.047928570929315, 23.065045748756578 ], [ -110.048018471964653, 23.065031792133365 ], [ -110.048151253646026, 23.065268950918732 ], [ -110.048331716262396, 23.065538632917427 ], [ -110.048336261708357, 23.065545226681618 ], [ -110.048598203565476, 23.066036252614001 ], [ -110.049494997654847, 23.067829761511074 ], [ -110.049497497718733, 23.067834761346845 ], [ -110.049541593744578, 23.067922948182897 ], [ -110.049764323608585, 23.068525513639912 ], [ -110.049779017572064, 23.068667138083509 ], [ -110.049860324622742, 23.069450793286702 ], [ -110.049774736557694, 23.070170056025646 ], [ -110.049279312113867, 23.072601334149507 ], [ -110.049172075744437, 23.073274738864097 ], [ -110.049167075488455, 23.073986017787078 ], [ -110.049267170055998, 23.074328725907861 ], [ -110.049739282074384, 23.075216750797093 ], [ -110.049872254090985, 23.075569817858941 ], [ -110.050020675404667, 23.076329439954652 ], [ -110.050099733870681, 23.07706154733771 ], [ -110.050188448324548, 23.078130394270548 ], [ -110.050283477048254, 23.079275316607891 ], [ -110.050229188007719, 23.080386292228972 ], [ -110.050065708582096, 23.08158521377203 ], [ -110.049667085277818, 23.083744464471174 ], [ -110.049323180935644, 23.085228424925358 ], [ -110.048969313975917, 23.086755374457201 ], [ -110.048651008784631, 23.087815585123501 ], [ -110.048449226711526, 23.088391814426782 ], [ -110.048127964743813, 23.089068802720835 ], [ -110.047840757184659, 23.089538921527897 ], [ -110.047613055470862, 23.089897167601777 ], [ -110.047379642449016, 23.090373964612834 ], [ -110.047307692561702, 23.090528151442765 ], [ -110.04727858774109, 23.090624089555156 ], [ -110.047267840443297, 23.090739221577753 ], [ -110.047291512201141, 23.09087475182994 ], [ -110.047347336788562, 23.090953137554777 ], [ -110.047487369367076, 23.091055894605912 ], [ -110.04668913867674, 23.092318420902124 ], [ -110.044809843848967, 23.095308383035892 ], [ -110.038074679072338, 23.106024044756012 ], [ -110.01840705508377, 23.137315277040546 ], [ -110.008534487549269, 23.15302255333107 ], [ -110.001867575109856, 23.163629625435142 ], [ -109.999550577666483, 23.175060145221586 ], [ -109.998458597439765, 23.180447247233104 ], [ -109.997339606821342, 23.185967600499506 ], [ -109.996283473126354, 23.191177859635616 ], [ -109.988038987931745, 23.192871931485396 ], [ -109.983460082608801, 23.193812802191967 ], [ -109.979440284909131, 23.194638787801026 ], [ -109.96910751427535, 23.196761959284473 ], [ -109.965613747382591, 23.200623491464043 ], [ -109.959097890305586, 23.207825228887497 ], [ -109.956686538209667, 23.210490407761903 ], [ -109.954961124782017, 23.212397443828831 ], [ -109.950465481838108, 23.20193792094339 ], [ -109.943350548705936, 23.185384380804035 ], [ -109.940768803709574, 23.179377715859594 ], [ -109.939282234362835, 23.175919076840227 ], [ -109.940043867864773, 23.169451207681067 ], [ -109.941214814748761, 23.159507407653102 ], [ -109.942009571636419, 23.152758251333694 ], [ -109.943283343947016, 23.141941247325303 ], [ -109.929995470228206, 23.127397826720863 ], [ -109.920425408613454, 23.116923507486732 ], [ -109.914198206075653, 23.110107907970008 ], [ -109.910538569012559, 23.106102478493899 ], [ -109.929750424853637, 23.079879475654682 ], [ -109.962237011784282, 23.035537280482831 ], [ -109.967669713766497, 23.028121976064416 ], [ -109.970604339112299, 23.024116392771926 ], [ -109.974277304458795, 23.019103020742371 ], [ -109.982634738837504, 23.007695636299431 ], [ -109.986484488200517, 23.006236953593433 ], [ -109.993176573920906, 23.003701300285407 ], [ -109.997466164505411, 23.002075960292739 ], [ -110.007885033423548, 22.998128216563504 ], [ -110.015532377192699, 22.995230612836348 ], [ -110.016741900146755, 22.994771933414889 ], [ -110.016751307907626, 22.994775461325219 ], [ -110.016763655593763, 22.99477887163853 ], [ -110.016786299509391, 22.994783347823176 ], [ -110.016805870952055, 22.994786459870451 ], [ -110.016822638398651, 22.99478912605543 ], [ -110.017112931207066, 22.994823310952821 ], [ -110.017508151742632, 22.994862814405646 ], [ -110.018104522445014, 22.994860460732834 ], [ -110.018291388661993, 22.994845599032931 ], [ -110.019022937167819, 22.994787418081167 ], [ -110.019305767359612, 22.994752849858067 ], [ -110.01942683958319, 22.994755562850091 ], [ -110.019525833711427, 22.994762117491618 ], [ -110.019635791616025, 22.994785272043654 ], [ -110.019761687960198, 22.99482421735474 ], [ -110.019836802466827, 22.99485774578946 ], [ -110.019916957112699, 22.994899648113108 ], [ -110.019974088353052, 22.994938784505219 ], [ -110.020045460014273, 22.994990204063175 ], [ -110.020143228401736, 22.995074263877456 ], [ -110.020267645702305, 22.995194581600494 ], [ -110.020378383733984, 22.995316675258799 ], [ -110.020459261018743, 22.995412873844803 ], [ -110.02061096178663, 22.995658830470052 ], [ -110.020679775512207, 22.995806021295401 ], [ -110.020747405789038, 22.995998122561065 ], [ -110.020782314903613, 22.996484401312621 ], [ -110.020769545467473, 22.99825469772707 ], [ -110.020787734560159, 22.998776438559737 ], [ -110.020885387697945, 22.999440932892036 ], [ -110.021006703644247, 22.999868469627483 ], [ -110.021475196379697, 23.00119914599432 ], [ -110.02163526154267, 23.001581194511722 ], [ -110.0219137353766, 23.002033411735066 ], [ -110.022151490022438, 23.002297387665276 ], [ -110.02298254256219, 23.003077055895808 ], [ -110.023248070822547, 23.003295474442112 ], [ -110.02365614525965, 23.003535094642785 ], [ -110.023973580261654, 23.00365899050178 ], [ -110.025046871685205, 23.003997547275162 ], [ -110.025288325854945, 23.004095106878481 ], [ -110.025298859889233, 23.004233944196351 ], [ -110.025175365915558, 23.00478642636071 ], [ -110.025197822093105, 23.004971166875116 ], [ -110.025288672372696, 23.00509439105435 ], [ -110.025426112848336, 23.00528080702847 ], [ -110.025729787260943, 23.005538409126345 ], [ -110.026918652711473, 23.006430907127378 ], [ -110.027249591801564, 23.006714077961135 ], [ -110.027605100552222, 23.007143048553942 ], [ -110.027782030638633, 23.007472693254471 ], [ -110.028252198755496, 23.00858206426842 ], [ -110.028363126308861, 23.008931626453911 ], [ -110.028410615798776, 23.009453546398266 ], [ -110.028367529663171, 23.009849584161767 ], [ -110.028118968111102, 23.011175839997954 ], [ -110.028108592804941, 23.01160256314083 ], [ -110.028301406455967, 23.012243309904154 ], [ -110.028308740636334, 23.012267682295917 ], [ -110.028605043411162, 23.012791128962405 ], [ -110.029787659214293, 23.014568756104037 ], [ -110.030105781621231, 23.015112657024705 ], [ -110.030407720545483, 23.015873238816773 ], [ -110.030520938041562, 23.016415883740379 ], [ -110.030747348505543, 23.018187644937086 ], [ -110.030828144674416, 23.01865895992519 ], [ -110.030978780505919, 23.019086668903082 ], [ -110.031113178193038, 23.019226366691779 ], [ -110.031589732002871, 23.019450579966502 ], [ -110.031724348343715, 23.019559793829313 ], [ -110.031876003518605, 23.019845246008977 ], [ -110.031958037528696, 23.020143821031457 ], [ -110.032189209440929, 23.021251718818217 ], [ -110.032314865847312, 23.021591206744784 ], [ -110.032670089909246, 23.022067585718666 ], [ -110.033051897573884, 23.022408638522347 ], [ -110.034478455457489, 23.023523832330955 ], [ -110.034816070640289, 23.023905257788329 ], [ -110.034965036749625, 23.024570056777407 ], [ -110.034840227725041, 23.025138344586374 ], [ -110.034108805048504, 23.027125552667489 ], [ -110.033994823122327, 23.027714228722541 ], [ -110.034194345046743, 23.02847417820853 ], [ -110.034593361678333, 23.02897114361431 ], [ -110.036255939321606, 23.030530356168509 ], [ -110.036666309126133, 23.030976577829467 ], [ -110.036918768498765, 23.031499742806066 ], [ -110.036869052447514, 23.031800900501999 ], [ -110.03638457975859, 23.032683137242202 ], [ -110.036324027800902, 23.032963905514155 ], [ -110.036525929367954, 23.033391921655149 ], [ -110.036874913814401, 23.033722604431475 ], [ -110.038301619929669, 23.034837767299734 ], [ -110.038737650606279, 23.035280752700864 ], [ -110.039345745052643, 23.036232861150175 ], [ -110.039778423123821, 23.037150030710208 ], [ -110.041189528364882, 23.040478041125645 ], [ -110.041622159659511, 23.041405367180865 ], [ -110.042229965340596, 23.042404884109207 ], [ -110.042665625728816, 23.042905439353103 ], [ -110.044090913602801, 23.04424184084623 ], [ -110.04442841481702, 23.044650343858951 ], [ -110.044578116250435, 23.045220297035002 ], [ -110.044454471846166, 23.045626013296342 ], [ -110.043727753629241, 23.0469494003082 ], [ -110.043549205494614, 23.047354783628322 ], [ -110.043442707337888, 23.047923187807651 ], [ -110.043469116285351, 23.048329810660576 ], [ -110.043698859230688, 23.049658979636771 ], [ -110.043813109929147, 23.050066133628441 ], [ -110.044116535984088, 23.050637016531706 ], [ -110.044435752149795, 23.051045409102233 ], [ -110.04562201412719, 23.052380353457963 ], [ -110.045919493003638, 23.052758127233233 ], [ -110.046121452429304, 23.053186132080956 ], [ -110.046112485583549, 23.053419794239012 ], [ -110.045868678611541, 23.054082212630036 ], [ -110.045848730753079, 23.05431580846027 ], [ -110.04599944978537, 23.054743504172002 ], [ -110.046234711710696, 23.055120901950179 ], [ -110.047181892267659, 23.056454392750357 ], [ -110.047357088478776, 23.056785699809968 ], [ -110.047227478833236, 23.056998311746693 ], [ -110.046867125428975, 23.056970735483318 ], [ -110.045315091201047, 23.056629425291071 ], [ -110.044746537423052, 23.056539617307678 ], [ -110.043645316542879, 23.056461828046992 ], [ -110.042640697409183, 23.056440504814294 ], [ -110.039053697356835, 23.056418740888368 ], [ -110.038076206992017, 23.056443280574999 ], [ -110.037101581644279, 23.05657960874818 ], [ -110.036686749324986, 23.056749827784799 ], [ -110.035725485955794, 23.057407855032103 ], [ -110.03536002635694, 23.057583452394493 ], [ -110.034615816211399, 23.057744881113337 ], [ -110.033918118865529, 23.057799894320706 ], [ -110.031406407873504, 23.057895171760943 ], [ -110.030791100659442, 23.057945595155875 ], [ -110.030431378737006, 23.058085650686241 ], [ -110.030532797987163, 23.058235308618869 ], [ -110.031365814403046, 23.058793654740771 ], [ -110.03174749967647, 23.058909463743429 ], [ -110.03269567696438, 23.058891558722394 ], [ -110.033668528559573, 23.058750166733368 ], [ -110.037260306597489, 23.058108195639583 ], [ -110.038315684818528, 23.057941873452894 ], [ -110.039649022611286, 23.057807717746794 ], [ -110.040498414523626, 23.057782391103096 ], [ -110.043128908415554, 23.05779833612193 ], [ -110.043851698947961, 23.05781795207664 ], [ -110.044594226706948, 23.057893572646417 ], [ -110.044932190225296, 23.057981988278254 ], [ -110.045766827574568, 23.058318973491836 ], [ -110.045923144431143, 23.058472340598495 ], [ -110.045817982756716, 23.058851071084117 ], [ -110.045511433126109, 23.059238747080833 ], [ -110.044186013131579, 23.060669163838135 ], [ -110.043819166827049, 23.061041229239184 ], [ -110.043432653453294, 23.061347124544593 ], [ -110.04324733937078, 23.061412053042798 ], [ -110.042769054794746, 23.061409157133856 ], [ -110.042611444495265, 23.061438687198091 ], [ -110.042354213975244, 23.061579390685296 ], [ -110.042144351706625, 23.06175086548323 ], [ -110.041422221019502, 23.062410375806291 ], [ -110.041179412950356, 23.062581649415328 ], [ -110.040768443093285, 23.062721417446898 ], [ -110.040424151785928, 23.062749812150379 ], [ -110.039228429662785, 23.062742547912215 ], [ -110.038774976482358, 23.062678821435238 ], [ -110.037854585979105, 23.062388697757878 ], [ -110.03699319910055, 23.06203795905693 ], [ -110.033893820253468, 23.060691269533066 ], [ -110.03305987108979, 23.060345758372868 ], [ -110.032267450551515, 23.060080095902315 ], [ -110.031969366782462, 23.060046092404122 ], [ -110.031370727237544, 23.060153072839473 ], [ -110.031302369365861, 23.06024241416068 ], [ -110.031582006804257, 23.060552361006874 ], [ -110.03204984890138, 23.060905799803255 ], [ -110.03395349692444, 23.062245221006776 ], [ -110.03444855015438, 23.062634384675086 ], [ -110.034855129147203, 23.063111073279522 ], [ -110.034940900909675, 23.063402894546165 ], [ -110.03493458822841, 23.064288039051643 ], [ -110.034910620735573, 23.064569028615665 ], [ -110.034805084872019, 23.064995168733237 ], [ -110.034678286404031, 23.065322950664502 ], [ -110.034192091522044, 23.06642645846614 ], [ -110.034021436943362, 23.066743810159505 ], [ -110.033711247725932, 23.067121277674424 ], [ -110.033438774794348, 23.067343165048111 ], [ -110.032477419111487, 23.068001168583137 ], [ -110.032227123551152, 23.068192704936568 ], [ -110.032020438459526, 23.068428541311309 ], [ -110.031975470114531, 23.068573914410109 ], [ -110.031972303323002, 23.069016485997718 ], [ -110.031927407417996, 23.069151697982004 ], [ -110.031721059684799, 23.069340115491524 ], [ -110.031471172782361, 23.069474071041217 ], [ -110.030511378330075, 23.069910775925969 ], [ -110.030261379968891, 23.070059971089616 ], [ -110.030054518571163, 23.070319513798502 ], [ -110.030009000972285, 23.070541094267167 ], [ -110.030003447250408, 23.071315593884467 ], [ -110.030095565996945, 23.071487211648304 ], [ -110.03053100748015, 23.071513594250526 ], [ -110.031060946965624, 23.071379664417172 ], [ -110.033098544923476, 23.070728260258186 ], [ -110.033656368967002, 23.07053352300623 ], [ -110.034221959968676, 23.070276168436408 ], [ -110.034472123841127, 23.070103257669082 ], [ -110.03507396254625, 23.069553695087986 ], [ -110.035241906597889, 23.069359957844444 ], [ -110.035423809172002, 23.069005414648093 ], [ -110.03551572596902, 23.068692661712639 ], [ -110.0357627663861, 23.067587690956639 ], [ -110.035865735199891, 23.067264843613906 ], [ -110.036099217709349, 23.06686319359687 ], [ -110.036329795047564, 23.066612254965921 ] ] ] ] } },
{ "type": "Feature", "properties": { "fid": 2.0, "cat": 4, "CLAVE_ACUI": "0316", "NOM_ACUIF": "MIGRIÑO", "VULNERABIL": 2 }, "geometry": null },
{ "type": "Feature", "properties": { "fid": 3.0, "cat": 5, "CLAVE_ACUI": "0316", "NOM_ACUIF": "MIGRIÑO", "VULNERABIL": 2 }, "geometry": null },
{ "type": "Feature", "properties": { "fid": 4.0, "cat": 3, "CLAVE_ACUI": "0316", "NOM_ACUIF": "MIGRIÑO", "VULNERABIL": 2 }, "geometry": { "type": "MultiPolygon", "coordinates": [ [ [ [ -110.089222679133073, 23.051727499759583 ], [ -110.089822803521528, 23.051751278951279 ], [ -110.091496702945776, 23.051760906188541 ], [ -110.091943375243645, 23.051743148835492 ], [ -110.092353945679335, 23.051650664048168 ], [ -110.092493802435058, 23.051536301239487 ], [ -110.092735896195165, 23.05109509330812 ], [ -110.092941497913372, 23.051001430656672 ], [ -110.093658879920312, 23.051005544509412 ], [ -110.094478111031719, 23.051105080752325 ], [ -110.097583821607586, 23.051565434690509 ], [ -110.098551295215344, 23.051665796012234 ], [ -110.099960447698905, 23.0516738239386 ], [ -110.101006046712712, 23.051584930162253 ], [ -110.103673070964206, 23.051259922773294 ], [ -110.104476344421698, 23.051162025556089 ], [ -110.105030733339291, 23.051055743566447 ], [ -110.106265000988941, 23.050918811495681 ], [ -110.106274583748785, 23.051291374936355 ], [ -110.106276666868652, 23.051796592038819 ], [ -110.106312308669601, 23.052731676585644 ], [ -110.106525937501374, 23.053074982301357 ], [ -110.106930303629881, 23.053158900819863 ], [ -110.107255442043879, 23.053156314266893 ], [ -110.107281265961291, 23.053891286769087 ], [ -110.107159196341641, 23.054686614963263 ], [ -110.107082905263027, 23.055787103793676 ], [ -110.107092528760631, 23.056994160263617 ], [ -110.106718408406095, 23.057333825422024 ], [ -110.105755272216655, 23.05832422555692 ], [ -110.105503885685536, 23.058698785706316 ], [ -110.105293891803228, 23.059456336583871 ], [ -110.105245287729588, 23.060163992286284 ], [ -110.105235232567381, 23.061684866337881 ], [ -110.105276929825052, 23.062218418288612 ], [ -110.105362432623281, 23.06260842031319 ], [ -110.105464771579634, 23.062911358160697 ], [ -110.105592080906021, 23.063182208257025 ], [ -110.103916042278328, 23.063724359890198 ], [ -110.1020619469775, 23.064324451404417 ], [ -110.098658541995917, 23.065425988336191 ], [ -110.093006308462165, 23.067255375088024 ], [ -110.087162532090488, 23.069146756081249 ], [ -110.072616747683412, 23.073854605665037 ], [ -110.06313816650696, 23.076922417836428 ], [ -110.056727671838544, 23.078997221354204 ], [ -110.054636584768318, 23.079674016989124 ], [ -110.050216578186678, 23.086706257015969 ], [ -110.047903833276564, 23.090385839167798 ], [ -110.047487369367076, 23.091055894605912 ], [ -110.047347336788562, 23.090953137554777 ], [ -110.047291512201141, 23.09087475182994 ], [ -110.047267840443297, 23.090739221577753 ], [ -110.04727858774109, 23.090624089555156 ], [ -110.047307692561702, 23.090528151442765 ], [ -110.047379642449016, 23.090373964612834 ], [ -110.047613055470862, 23.089897167601777 ], [ -110.047840757184659, 23.089538921527897 ], [ -110.048127964743813, 23.089068802720835 ], [ -110.048449226711526, 23.088391814426782 ], [ -110.048651008784631, 23.087815585123501 ], [ -110.048969313975917, 23.086755374457201 ], [ -110.049323180935644, 23.085228424925358 ], [ -110.049667085277818, 23.083744464471174 ], [ -110.050065708582096, 23.08158521377203 ], [ -110.050229188007719, 23.080386292228972 ], [ -110.050283477048254, 23.079275316607891 ], [ -110.050188448324548, 23.078130394270548 ], [ -110.050099733870681, 23.07706154733771 ], [ -110.050020675404667, 23.076329439954652 ], [ -110.049872254090985, 23.075569817858941 ], [ -110.049739282074384, 23.075216750797093 ], [ -110.049267170055998, 23.074328725907861 ], [ -110.049167075488455, 23.073986017787078 ], [ -110.049172075744437, 23.073274738864097 ], [ -110.049279312113867, 23.072601334149507 ], [ -110.049774736557694, 23.070170056025646 ], [ -110.049860324622742, 23.069450793286702 ], [ -110.049779017572064, 23.068667138083509 ], [ -110.049764323608585, 23.068525513639912 ], [ -110.049541593744578, 23.067922948182897 ], [ -110.049497497718733, 23.067834761346845 ], [ -110.049499086505449, 23.067831432243491 ], [ -110.049494997654847, 23.067829761511074 ], [ -110.048598203565476, 23.066036252614001 ], [ -110.048336261708357, 23.065545226681618 ], [ -110.048331716262396, 23.065538632917427 ], [ -110.048151253646026, 23.065268950918732 ], [ -110.048018471964653, 23.065031792133365 ], [ -110.048147582873156, 23.064980811768578 ], [ -110.04822717876624, 23.064934202584649 ], [ -110.048326810904385, 23.064876921048263 ], [ -110.048482655658404, 23.064768748342502 ], [ -110.049203988795568, 23.064219848739537 ], [ -110.049436677394823, 23.063924869334546 ], [ -110.049801225108027, 23.063097199868704 ], [ -110.05008931644123, 23.062209794014716 ], [ -110.051069166847043, 23.058896231323558 ], [ -110.051351607123721, 23.058029111476877 ], [ -110.051689839947784, 23.057296119819572 ], [ -110.051890592209716, 23.057116109103109 ], [ -110.052489205052154, 23.057009049907986 ], [ -110.052777588002712, 23.056860047997283 ], [ -110.053524758865905, 23.056271764037167 ], [ -110.054303756635733, 23.055580357219274 ], [ -110.057191844294778, 23.052942043497278 ], [ -110.058130125004979, 23.052236323856981 ], [ -110.059620740477015, 23.051581305229593 ], [ -110.060811915535098, 23.051351281286756 ], [ -110.064880112649462, 23.050932799624604 ], [ -110.065591178005405, 23.050883962060489 ], [ -110.06601532206659, 23.050854829350893 ], [ -110.067244782584098, 23.050909508026624 ], [ -110.067865947473337, 23.051065595622998 ], [ -110.069535266032958, 23.051739321109608 ], [ -110.070084925907707, 23.051915302569871 ], [ -110.070258591893534, 23.05194390546291 ], [ -110.070980677644357, 23.052062831260141 ], [ -110.071710662266071, 23.05209760380485 ], [ -110.072643992922039, 23.052103080933492 ], [ -110.074221505384486, 23.052112325832645 ], [ -110.076461501274977, 23.052125426126082 ], [ -110.076948297983932, 23.052128268888762 ], [ -110.078254963215727, 23.052135892053492 ], [ -110.078765620178316, 23.052128706678467 ], [ -110.079355223244988, 23.052084720006096 ], [ -110.079686856160606, 23.052029068082199 ], [ -110.08064487182078, 23.051813343530839 ], [ -110.080905269249314, 23.051736951487523 ], [ -110.081162442999101, 23.051596183159003 ], [ -110.08126943671023, 23.0514714778948 ], [ -110.08151156628162, 23.051030288318888 ], [ -110.081739135709796, 23.050936768051297 ], [ -110.082558997917928, 23.050941527402273 ], [ -110.083502661840882, 23.051041842279986 ], [ -110.087086581184622, 23.051505172739052 ], [ -110.088095998736407, 23.051626163348736 ], [ -110.089222679133073, 23.051727499759583 ] ] ] ] } },
{ "type": "Feature", "properties": { "fid": 5.0, "cat": 6, "CLAVE_ACUI": "0316", "NOM_ACUIF": "MIGRIÑO", "VULNERABIL": 3 }, "geometry": { "type": "MultiPolygon", "coordinates": [ [ [ [ -110.047278921855025, 23.064376369626274 ], [ -110.047159799944751, 23.064098582832898 ], [ -110.047139972047361, 23.063795309923449 ], [ -110.047147762877032, 23.06268887524266 ], [ -110.047183091067836, 23.062350369321187 ], [ -110.047340164717809, 23.061877109663211 ], [ -110.047529226811335, 23.061539530151752 ], [ -110.048254436327539, 23.060437416538051 ], [ -110.048432513096756, 23.060099769621836 ], [ -110.048538335322249, 23.059626199903601 ], [ -110.04851143402405, 23.059287318846536 ], [ -110.048280074987289, 23.058179443485077 ], [ -110.048252888697562, 23.057881206934219 ], [ -110.048357376010571, 23.057597311889779 ], [ -110.048533829575959, 23.057489983924821 ], [ -110.049252791182965, 23.057273013153818 ], [ -110.049440081633918, 23.057186072475684 ], [ -110.049595143196555, 23.056997322014126 ], [ -110.049629369376234, 23.056814619359571 ], [ -110.049634030145782, 23.056150757502639 ], [ -110.049668327348442, 23.055957893659823 ], [ -110.049823719960756, 23.055721724176756 ], [ -110.050011411957755, 23.055577202853758 ], [ -110.050731912878049, 23.055138937501138 ], [ -110.050936109525111, 23.054989433331993 ], [ -110.051168528535257, 23.054730014434313 ], [ -110.051296359062206, 23.054508920312671 ], [ -110.051660480448632, 23.053736566234889 ], [ -110.05184342472856, 23.053485317419291 ], [ -110.052333044172542, 23.053085176671349 ], [ -110.052849554779385, 23.052764794538341 ], [ -110.054770301392821, 23.051669804769496 ], [ -110.055336460244177, 23.051314145362579 ], [ -110.056057803162588, 23.050749403975118 ], [ -110.056522134052386, 23.050298290524125 ], [ -110.057967652178974, 23.048757829084796 ], [ -110.058409797861415, 23.048337062273433 ], [ -110.059027644005738, 23.047913952567662 ], [ -110.059468137026741, 23.047730277008931 ], [ -110.060905921976257, 23.047296227526857 ], [ -110.061488304602761, 23.047235328161552 ], [ -110.062768312525051, 23.047385182506133 ], [ -110.064014517625523, 23.04766015312947 ], [ -110.06855018045222, 23.048793423681072 ], [ -110.069752351854717, 23.049088413547754 ], [ -110.070826775846612, 23.049331835601937 ], [ -110.071159491375354, 23.04938459857242 ], [ -110.07163773739201, 23.049387407196964 ], [ -110.071773298414243, 23.049367879784178 ], [ -110.071927670327867, 23.049273944014843 ], [ -110.072012640516348, 23.049159277527146 ], [ -110.072254795294342, 23.048718102845864 ], [ -110.072356200159163, 23.048608613391313 ], [ -110.072587268928814, 23.048538837345713 ], [ -110.07281596248535, 23.048548646515954 ], [ -110.073008749936861, 23.048575288115874 ], [ -110.073652131416736, 23.048664196241685 ], [ -110.07386949776776, 23.048724745729007 ], [ -110.07404770444171, 23.04889176281986 ], [ -110.074084918955364, 23.049069809417539 ], [ -110.074080379642922, 23.049733676530245 ], [ -110.07411182637918, 23.049952335885081 ], [ -110.074263117694969, 23.050308879047499 ], [ -110.074447801995646, 23.050599566904701 ], [ -110.075158376560736, 23.051599565349942 ], [ -110.075227978974482, 23.051859094225414 ], [ -110.074842208680266, 23.052070231741588 ], [ -110.074221505384486, 23.052112325832645 ], [ -110.071710662266071, 23.05209760380485 ], [ -110.070980677644357, 23.052062831260141 ], [ -110.070084925907707, 23.051915302569871 ], [ -110.069535266032958, 23.051739321109608 ], [ -110.067865947473337, 23.051065595622998 ], [ -110.067244782584098, 23.050909508026624 ], [ -110.06601532206659, 23.050854829350893 ], [ -110.064880112649462, 23.050932799624604 ], [ -110.060811915535098, 23.051351281286756 ], [ -110.059620740477015, 23.051581305229593 ], [ -110.058130125004979, 23.052236323856981 ], [ -110.057191844294778, 23.052942043497278 ], [ -110.054303756635733, 23.055580357219274 ], [ -110.053524758865905, 23.056271764037167 ], [ -110.052777588002712, 23.056860047997283 ], [ -110.052489205052154, 23.057009049907986 ], [ -110.051890592209716, 23.057116109103109 ], [ -110.051689839947784, 23.057296119819572 ], [ -110.051351607123721, 23.058029111476877 ], [ -110.051069166847043, 23.058896231323558 ], [ -110.05008931644123, 23.062209794014716 ], [ -110.049801225108027, 23.063097199868704 ], [ -110.049436677394823, 23.063924869334546 ], [ -110.049203988795568, 23.064219848739537 ], [ -110.048482655658404, 23.064768748342502 ], [ -110.048326810904385, 23.064876921048263 ], [ -110.04822717876624, 23.064934202584649 ], [ -110.048147582873156, 23.064980811768578 ], [ -110.048018471964653, 23.065031792133365 ], [ -110.047928570929315, 23.065045748756578 ], [ -110.047805150564244, 23.065015215133037 ], [ -110.047705887911135, 23.064962058765442 ], [ -110.04765180406207, 23.064904203554789 ], [ -110.047571367706652, 23.064814829826535 ], [ -110.047483156429635, 23.064688222850542 ], [ -110.047449066815361, 23.064644549354817 ], [ -110.047383610310916, 23.064545347319331 ], [ -110.047278921855025, 23.064376369626274 ] ] ] ] } },
{ "type": "Feature", "properties": { "fid": 6.0, "cat": 2, "CLAVE_ACUI": "0316", "NOM_ACUIF": "MIGRIÑO", "VULNERABIL": 2 }, "geometry": { "type": "MultiPolygon", "coordinates": [ [ [ [ -110.030009000972285, 23.070541094267167 ], [ -110.030054518571163, 23.070319513798502 ], [ -110.030261379968891, 23.070059971089616 ], [ -110.030511378330075, 23.069910775925969 ], [ -110.031471172782361, 23.069474071041217 ], [ -110.031721059684799, 23.069340115491524 ], [ -110.031927407417996, 23.069151697982004 ], [ -110.031972303323002, 23.069016485997718 ], [ -110.031975470114531, 23.068573914410109 ], [ -110.032020438459526, 23.068428541311309 ], [ -110.032227123551152, 23.068192704936568 ], [ -110.032477419111487, 23.068001168583137 ], [ -110.033438774794348, 23.067343165048111 ], [ -110.033711247725932, 23.067121277674424 ], [ -110.034021436943362, 23.066743810159505 ], [ -110.034192091522044, 23.06642645846614 ], [ -110.034678286404031, 23.065322950664502 ], [ -110.034805084872019, 23.064995168733237 ], [ -110.034910620735573, 23.064569028615665 ], [ -110.03493458822841, 23.064288039051643 ], [ -110.034940900909675, 23.063402894546165 ], [ -110.034855129147203, 23.063111073279522 ], [ -110.03444855015438, 23.062634384675086 ], [ -110.03395349692444, 23.062245221006776 ], [ -110.03204984890138, 23.060905799803255 ], [ -110.031582006804257, 23.060552361006874 ], [ -110.031302369365861, 23.06024241416068 ], [ -110.031370727237544, 23.060153072839473 ], [ -110.031969366782462, 23.060046092404122 ], [ -110.032267450551515, 23.060080095902315 ], [ -110.03305987108979, 23.060345758372868 ], [ -110.033893820253468, 23.060691269533066 ], [ -110.03699319910055, 23.06203795905693 ], [ -110.037854585979105, 23.062388697757878 ], [ -110.038774976482358, 23.062678821435238 ], [ -110.039228429662785, 23.062742547912215 ], [ -110.040424151785928, 23.062749812150379 ], [ -110.040768443093285, 23.062721417446898 ], [ -110.041179412950356, 23.062581649415328 ], [ -110.041422221019502, 23.062410375806291 ], [ -110.042144351706625, 23.06175086548323 ], [ -110.042354213975244, 23.061579390685296 ], [ -110.042611444495265, 23.061438687198091 ], [ -110.042769054794746, 23.061409157133856 ], [ -110.04324733937078, 23.061412053042798 ], [ -110.043432653453294, 23.061347124544593 ], [ -110.043819166827049, 23.061041229239184 ], [ -110.044186013131579, 23.060669163838135 ], [ -110.045511433126109, 23.059238747080833 ], [ -110.045817982756716, 23.058851071084117 ], [ -110.045923144431143, 23.058472340598495 ], [ -110.045766827574568, 23.058318973491836 ], [ -110.044932190225296, 23.057981988278254 ], [ -110.044594226706948, 23.057893572646417 ], [ -110.043851698947961, 23.05781795207664 ], [ -110.043128908415554, 23.05779833612193 ], [ -110.040498414523626, 23.057782391103096 ], [ -110.039649022611286, 23.057807717746794 ], [ -110.038315684818528, 23.057941873452894 ], [ -110.037260306597489, 23.058108195639583 ], [ -110.033668528559573, 23.058750166733368 ], [ -110.03269567696438, 23.058891558722394 ], [ -110.03174749967647, 23.058909463743429 ], [ -110.031365814403046, 23.058793654740771 ], [ -110.030532797987163, 23.058235308618869 ], [ -110.030431378737006, 23.058085650686241 ], [ -110.030791100659442, 23.057945595155875 ], [ -110.031406407873504, 23.057895171760943 ], [ -110.033918118865529, 23.057799894320706 ], [ -110.034615816211399, 23.057744881113337 ], [ -110.03536002635694, 23.057583452394493 ], [ -110.035725485955794, 23.057407855032103 ], [ -110.036686749324986, 23.056749827784799 ], [ -110.037101581644279, 23.05657960874818 ], [ -110.038076206992017, 23.056443280574999 ], [ -110.039053697356835, 23.056418740888368 ], [ -110.042640697409183, 23.056440504814294 ], [ -110.043645316542879, 23.056461828046992 ], [ -110.044746537423052, 23.056539617307678 ], [ -110.045315091201047, 23.056629425291071 ], [ -110.046867125428975, 23.056970735483318 ], [ -110.047227478833236, 23.056998311746693 ], [ -110.047357088478776, 23.056785699809968 ], [ -110.047181892267659, 23.056454392750357 ], [ -110.046234711710696, 23.055120901950179 ], [ -110.04599944978537, 23.054743504172002 ], [ -110.045848730753079, 23.05431580846027 ], [ -110.045868678611541, 23.054082212630036 ], [ -110.046112485583549, 23.053419794239012 ], [ -110.046121452429304, 23.053186132080956 ], [ -110.045919493003638, 23.052758127233233 ], [ -110.04562201412719, 23.052380353457963 ], [ -110.044435752149795, 23.051045409102233 ], [ -110.044116535984088, 23.050637016531706 ], [ -110.043813109929147, 23.050066133628441 ], [ -110.043698859230688, 23.049658979636771 ], [ -110.043469116285351, 23.048329810660576 ], [ -110.043442707337888, 23.047923187807651 ], [ -110.043549205494614, 23.047354783628322 ], [ -110.043727753629241, 23.0469494003082 ], [ -110.044454471846166, 23.045626013296342 ], [ -110.044578116250435, 23.045220297035002 ], [ -110.04442841481702, 23.044650343858951 ], [ -110.044090913602801, 23.04424184084623 ], [ -110.042665625728816, 23.042905439353103 ], [ -110.042229965340596, 23.042404884109207 ], [ -110.041622159659511, 23.041405367180865 ], [ -110.041189528364882, 23.040478041125645 ], [ -110.039778423123821, 23.037150030710208 ], [ -110.039345745052643, 23.036232861150175 ], [ -110.038737650606279, 23.035280752700864 ], [ -110.038301619929669, 23.034837767299734 ], [ -110.036874913814401, 23.033722604431475 ], [ -110.036525929367954, 23.033391921655149 ], [ -110.036324027800902, 23.032963905514155 ], [ -110.03638457975859, 23.032683137242202 ], [ -110.036869052447514, 23.031800900501999 ], [ -110.036918768498765, 23.031499742806066 ], [ -110.036666309126133, 23.030976577829467 ], [ -110.036255939321606, 23.030530356168509 ], [ -110.034593361678333, 23.02897114361431 ], [ -110.034194345046743, 23.02847417820853 ], [ -110.033994823122327, 23.027714228722541 ], [ -110.034108805048504, 23.027125552667489 ], [ -110.034840227725041, 23.025138344586374 ], [ -110.034965036749625, 23.024570056777407 ], [ -110.034816070640289, 23.023905257788329 ], [ -110.034478455457489, 23.023523832330955 ], [ -110.033051897573884, 23.022408638522347 ], [ -110.032670089909246, 23.022067585718666 ], [ -110.032314865847312, 23.021591206744784 ], [ -110.032189209440929, 23.021251718818217 ], [ -110.031958037528696, 23.020143821031457 ], [ -110.031876003518605, 23.019845246008977 ], [ -110.031724348343715, 23.019559793829313 ], [ -110.031589732002871, 23.019450579966502 ], [ -110.031113178193038, 23.019226366691779 ], [ -110.030978780505919, 23.019086668903082 ], [ -110.030828144674416, 23.01865895992519 ], [ -110.030747348505543, 23.018187644937086 ], [ -110.030520938041562, 23.016415883740379 ], [ -110.030407720545483, 23.015873238816773 ], [ -110.030105781621231, 23.015112657024705 ], [ -110.029787659214293, 23.014568756104037 ], [ -110.028605043411162, 23.012791128962405 ], [ -110.028308740636334, 23.012267682295917 ], [ -110.028301406455967, 23.012243309904154 ], [ -110.028108592804941, 23.01160256314083 ], [ -110.028118968111102, 23.011175839997954 ], [ -110.028367529663171, 23.009849584161767 ], [ -110.028410615798776, 23.009453546398266 ], [ -110.028363126308861, 23.008931626453911 ], [ -110.028252198755496, 23.00858206426842 ], [ -110.027782030638633, 23.007472693254471 ], [ -110.027605100552222, 23.007143048553942 ], [ -110.027249591801564, 23.006714077961135 ], [ -110.026918652711473, 23.006430907127378 ], [ -110.025729787260943, 23.005538409126345 ], [ -110.025426112848336, 23.00528080702847 ], [ -110.025288672372696, 23.00509439105435 ], [ -110.025197822093105, 23.004971166875116 ], [ -110.025175365915558, 23.00478642636071 ], [ -110.025298859889233, 23.004233944196351 ], [ -110.025288325854945, 23.004095106878481 ], [ -110.025046871685205, 23.003997547275162 ], [ -110.023973580261654, 23.00365899050178 ], [ -110.02365614525965, 23.003535094642785 ], [ -110.023248070822547, 23.003295474442112 ], [ -110.02298254256219, 23.003077055895808 ], [ -110.022151490022438, 23.002297387665276 ], [ -110.0219137353766, 23.002033411735066 ], [ -110.02163526154267, 23.001581194511722 ], [ -110.021475196379697, 23.00119914599432 ], [ -110.021006703644247, 22.999868469627483 ], [ -110.020885387697945, 22.999440932892036 ], [ -110.020787734560159, 22.998776438559737 ], [ -110.020769545467473, 22.99825469772707 ], [ -110.020782314903613, 22.996484401312621 ], [ -110.020747405789038, 22.995998122561065 ], [ -110.020679775512207, 22.995806021295401 ], [ -110.02061096178663, 22.995658830470052 ], [ -110.020459261018743, 22.995412873844803 ], [ -110.020378383733984, 22.995316675258799 ], [ -110.020267645702305, 22.995194581600494 ], [ -110.020143228401736, 22.995074263877456 ], [ -110.020045460014273, 22.994990204063175 ], [ -110.019974088353052, 22.994938784505219 ], [ -110.019916957112699, 22.994899648113108 ], [ -110.019836802466827, 22.99485774578946 ], [ -110.019761687960198, 22.99482421735474 ], [ -110.019635791616025, 22.994785272043654 ], [ -110.019525833711427, 22.994762117491618 ], [ -110.01942683958319, 22.994755562850091 ], [ -110.019305767359612, 22.994752849858067 ], [ -110.019022937167819, 22.994787418081167 ], [ -110.018291388661993, 22.994845599032931 ], [ -110.018104522445014, 22.994860460732834 ], [ -110.017508151742632, 22.994862814405646 ], [ -110.017112931207066, 22.994823310952821 ], [ -110.016822638398651, 22.99478912605543 ], [ -110.016805870952055, 22.994786459870451 ], [ -110.016786299509391, 22.994783347823176 ], [ -110.016763655593763, 22.99477887163853 ], [ -110.016751307907626, 22.994775461325219 ], [ -110.016741900146755, 22.994771933414889 ], [ -110.016839352973861, 22.994735395410647 ], [ -110.016887677411347, 22.994717085122215 ], [ -110.071433745850797, 22.974051702561329 ], [ -110.07147140117452, 22.974035675068464 ], [ -110.071553606161132, 22.974119024102443 ], [ -110.071697911146927, 22.974238749667581 ], [ -110.071869174206952, 22.974388208402871 ], [ -110.072024819430624, 22.974486970670853 ], [ -110.072097676700253, 22.974566166570945 ], [ -110.072152233986813, 22.974631623955837 ], [ -110.072225619750142, 22.974741406372402 ], [ -110.07227644648664, 22.974837798915168 ], [ -110.072308747689803, 22.974928626583353 ], [ -110.072510823959163, 22.975599531461725 ], [ -110.072642447773973, 22.975878055444753 ], [ -110.073022986577087, 22.976401916651774 ], [ -110.073434991584179, 22.976871765053232 ], [ -110.074977163930825, 22.978540521666925 ], [ -110.075394911326313, 22.97897483266734 ], [ -110.075628224501031, 22.979179929072849 ], [ -110.075733905503185, 22.979272829071736 ], [ -110.075799466646686, 22.979326870279845 ], [ -110.075886175457256, 22.979372356818097 ], [ -110.075959721695284, 22.979393685834047 ], [ -110.076088417907116, 22.979410750267959 ], [ -110.07616905365866, 22.979412482669019 ], [ -110.076338267901761, 22.979418862571205 ], [ -110.076438474978147, 22.979423119621718 ], [ -110.076686481047034, 22.979801989226907 ], [ -110.07670695921162, 22.979869320098988 ], [ -110.076711512103316, 22.97992432646376 ], [ -110.076711468736136, 22.979947918206161 ], [ -110.076706722038878, 22.979972999905378 ], [ -110.076694694278942, 22.980000889376896 ], [ -110.076677047170108, 22.980027737827562 ], [ -110.076660433889884, 22.980053289445184 ], [ -110.076628572265577, 22.98009824286838 ], [ -110.076617856780828, 22.980140579610541 ], [ -110.076617016371927, 22.980170740111387 ], [ -110.076618434027324, 22.980196494518701 ], [ -110.076621848012081, 22.980219799842136 ], [ -110.07662993991957, 22.980268620587569 ], [ -110.076863679101024, 22.981044531824647 ], [ -110.077000769635035, 22.981328165088676 ], [ -110.077406786712913, 22.981875875362867 ], [ -110.077849722850459, 22.982374684452395 ], [ -110.07951076541562, 22.984154740567003 ], [ -110.079997237813728, 22.984709686324294 ], [ -110.080606377828673, 22.985519385701942 ], [ -110.080990104932297, 22.98612115379926 ], [ -110.082171707689952, 22.988119701902615 ], [ -110.0824788278901, 22.988690537601144 ], [ -110.08273043352149, 22.989355894165655 ], [ -110.082782748015916, 22.989735568292684 ], [ -110.082775274979966, 22.990842024453453 ], [ -110.082805982240217, 22.99117076478419 ], [ -110.082956756653488, 22.991598430179721 ], [ -110.083141441951852, 22.991880640256085 ], [ -110.083852537310548, 22.992769953484064 ], [ -110.084047927452119, 22.993092871374223 ], [ -110.08424864820887, 22.993710509968178 ], [ -110.084340001800186, 22.994269933059638 ], [ -110.08456560011264, 22.996262935340972 ], [ -110.08464611743878, 22.996801972084391 ], [ -110.084796263947013, 22.99732447488697 ], [ -110.084930241497716, 22.997531870677022 ], [ -110.085405324792205, 22.997977214159881 ], [ -110.085528601664578, 22.998143900780043 ], [ -110.085628808830137, 22.998476428973269 ], [ -110.085648684852003, 22.998784782695633 ], [ -110.085641231894556, 22.999891238482192 ], [ -110.085661108031076, 23.000199592156239 ], [ -110.085761316852853, 23.000532120239804 ], [ -110.085884596375465, 23.00069880661864 ], [ -110.086359693603868, 23.001144147520769 ], [ -110.08649381392172, 23.001331219430874 ], [ -110.086644610167255, 23.001758881512952 ], [ -110.086725913138409, 23.002182755483897 ], [ -110.08695453298418, 23.003733171735167 ], [ -110.087046746048244, 23.004167270118639 ], [ -110.087248451885117, 23.004642646458294 ], [ -110.087444390152754, 23.004887656987837 ], [ -110.088157066330723, 23.005555661420452 ], [ -110.08834223567176, 23.005770123714626 ], [ -110.088493679262498, 23.006102945084177 ], [ -110.08852485750073, 23.006363942053159 ], [ -110.088518911740849, 23.007249106559815 ], [ -110.088571873174672, 23.007535633180016 ], [ -110.088824973469585, 23.007987592733613 ], [ -110.089133585091886, 23.008346722155771 ], [ -110.090051952821341, 23.009293616198612 ], [ -110.090284154578725, 23.009507091095706 ], [ -110.090486316927553, 23.009678886390247 ], [ -110.090697758483017, 23.009829347622052 ], [ -110.090958429318505, 23.010014409715826 ], [ -110.091203179444236, 23.0102074684198 ], [ -110.091526077274679, 23.011149654998093 ], [ -110.09299859203108, 23.014067756883513 ], [ -110.093608957788746, 23.014695242692245 ], [ -110.09372340423657, 23.015372320107101 ], [ -110.094600806455745, 23.016423216599506 ], [ -110.095050952623311, 23.01718611924354 ], [ -110.095539245426181, 23.0175580327939 ], [ -110.096485309616369, 23.017727775828913 ], [ -110.09705752714693, 23.017903241371897 ], [ -110.097484782268893, 23.018183607528485 ], [ -110.0976373751285, 23.018637534774701 ], [ -110.098087519255415, 23.018893105904095 ], [ -110.098514773504093, 23.018732894100161 ], [ -110.098972547409758, 23.018933154986087 ], [ -110.099506623747089, 23.020851856078522 ], [ -110.099708148288926, 23.02138681396503 ], [ -110.099987290187386, 23.022127811357613 ], [ -110.100078020019538, 23.022877590920874 ], [ -110.10024670357231, 23.024271569919172 ], [ -110.100303034968732, 23.025107049358727 ], [ -110.100051815647504, 23.025307056141418 ], [ -110.099858337080903, 23.025450404501917 ], [ -110.099572163499474, 23.025749782073689 ], [ -110.099376496552551, 23.026000912052861 ], [ -110.099277007302959, 23.026282157425591 ], [ -110.099234266669768, 23.026537441854622 ], [ -110.099206251315394, 23.026838284655621 ], [ -110.099242510591992, 23.027439725906309 ], [ -110.099466895464232, 23.029653998625037 ], [ -110.09954690212318, 23.030281092913004 ], [ -110.099695878882528, 23.030993260534888 ], [ -110.099828696244515, 23.031383548529728 ], [ -110.100299537478705, 23.03249272418131 ], [ -110.100465800420181, 23.032806989015043 ], [ -110.100770849374328, 23.03316438304763 ], [ -110.10104037068416, 23.033360680882431 ], [ -110.101695494990096, 23.033744834700045 ], [ -110.102157441499841, 23.034028459476161 ], [ -110.102269935353121, 23.034083729548527 ], [ -110.10240918052726, 23.034137395994588 ], [ -110.102375389115934, 23.03469664339498 ], [ -110.101925247499182, 23.03506474634289 ], [ -110.101154664012725, 23.035259289350865 ], [ -110.101459849613718, 23.036136627693253 ], [ -110.101841327658235, 23.036474211603988 ], [ -110.102115993554634, 23.03697963391113 ], [ -110.102268586416827, 23.037433561167415 ], [ -110.102543250761414, 23.037553717521053 ], [ -110.102909469134531, 23.037527014834698 ], [ -110.103367241458955, 23.037557529423594 ], [ -110.103471955546041, 23.037977846191993 ], [ -110.103342448786506, 23.038219982486204 ], [ -110.10324956198366, 23.038378054099997 ], [ -110.103162571085775, 23.038577437307023 ], [ -110.103093627901089, 23.038786438689087 ], [ -110.10300659410693, 23.039118853630619 ], [ -110.102981240596009, 23.039190953244347 ], [ -110.102828904986723, 23.039422697102751 ], [ -110.102692841488235, 23.03952015511836 ], [ -110.102213159713642, 23.039738732558604 ], [ -110.102088142270844, 23.039826091022391 ], [ -110.101984410047336, 23.040015187280225 ], [ -110.101961238674377, 23.040197966408655 ], [ -110.101956837905291, 23.040861839432079 ], [ -110.101977517172514, 23.041055029215364 ], [ -110.102078421494724, 23.041292708511627 ], [ -110.102201891442462, 23.041439060507777 ], [ -110.102677181899239, 23.041884356407667 ], [ -110.102789673388727, 23.042030645678004 ], [ -110.102839341416356, 23.042268033851752 ], [ -110.102797803939154, 23.042460870591302 ], [ -110.102554292744102, 23.043123386906 ], [ -110.102534074454312, 23.043412880680783 ], [ -110.102683235986404, 23.044101335529319 ], [ -110.102916544203921, 23.044795348414784 ], [ -110.103856174046498, 23.04734561725142 ], [ -110.104133682714107, 23.047999232052909 ], [ -110.104428536026788, 23.048414007940234 ], [ -110.10459373763166, 23.048722378975523 ], [ -110.104171691743105, 23.048893112324645 ], [ -110.103737052302975, 23.048978037597703 ], [ -110.103471451160047, 23.049000361538432 ], [ -110.102919519020887, 23.049016501027886 ], [ -110.102291237878944, 23.049034873099639 ], [ -110.100873209166863, 23.048989556650216 ], [ -110.095613957288037, 23.04873826493975 ], [ -110.094234366663088, 23.048693108911273 ], [ -110.093009830373106, 23.048723349282575 ], [ -110.092626583494862, 23.048836316197107 ], [ -110.09214536947961, 23.049276151449945 ], [ -110.091957884931318, 23.049336905184507 ], [ -110.091586349754337, 23.049310200312998 ], [ -110.090767518755726, 23.049153068894853 ], [ -110.087663382229081, 23.04847129351424 ], [ -110.087220850064256, 23.048406100696749 ], [ -110.086586529262405, 23.048312651761375 ], [ -110.084665333198615, 23.04825412125005 ], [ -110.082997616976598, 23.048329139151146 ], [ -110.077845310667627, 23.048688221929833 ], [ -110.07713611926448, 23.048737634700938 ], [ -110.076033674873273, 23.048868784242753 ], [ -110.075650579563927, 23.048844122881878 ], [ -110.073499993268328, 23.048610238556133 ], [ -110.073008749936861, 23.048575288115874 ], [ -110.07281596248535, 23.048548646515954 ], [ -110.072587268928814, 23.048538837345713 ], [ -110.072356200159163, 23.048608613391313 ], [ -110.072254795294342, 23.048718102845864 ], [ -110.072012640516348, 23.049159277527146 ], [ -110.071927670327867, 23.049273944014843 ], [ -110.071773298414243, 23.049367879784178 ], [ -110.07163773739201, 23.049387407196964 ], [ -110.071159491375354, 23.04938459857242 ], [ -110.070826775846612, 23.049331835601937 ], [ -110.069752351854717, 23.049088413547754 ], [ -110.06855018045222, 23.048793423681072 ], [ -110.064014517625523, 23.04766015312947 ], [ -110.062768312525051, 23.047385182506133 ], [ -110.061488304602761, 23.047235328161552 ], [ -110.060905921976257, 23.047296227526857 ], [ -110.059468137026741, 23.047730277008931 ], [ -110.059027644005738, 23.047913952567662 ], [ -110.058409797861415, 23.048337062273433 ], [ -110.057967652178974, 23.048757829084796 ], [ -110.056522134052386, 23.050298290524125 ], [ -110.056057803162588, 23.050749403975118 ], [ -110.055336460244177, 23.051314145362579 ], [ -110.054770301392821, 23.051669804769496 ], [ -110.052849554779385, 23.052764794538341 ], [ -110.052333044172542, 23.053085176671349 ], [ -110.05184342472856, 23.053485317419291 ], [ -110.051660480448632, 23.053736566234889 ], [ -110.051296359062206, 23.054508920312671 ], [ -110.051168528535257, 23.054730014434313 ], [ -110.050936109525111, 23.054989433331993 ], [ -110.050731912878049, 23.055138937501138 ], [ -110.050011411957755, 23.055577202853758 ], [ -110.049823719960756, 23.055721724176756 ], [ -110.049668327348442, 23.055957893659823 ], [ -110.049634030145782, 23.056150757502639 ], [ -110.049629369376234, 23.056814619359571 ], [ -110.049595143196555, 23.056997322014126 ], [ -110.049440081633918, 23.057186072475684 ], [ -110.049252791182965, 23.057273013153818 ], [ -110.048533829575959, 23.057489983924821 ], [ -110.048357376010571, 23.057597311889779 ], [ -110.048252888697562, 23.057881206934219 ], [ -110.048280074987289, 23.058179443485077 ], [ -110.04851143402405, 23.059287318846536 ], [ -110.048538335322249, 23.059626199903601 ], [ -110.048432513096756, 23.060099769621836 ], [ -110.048254436327539, 23.060437416538051 ], [ -110.047529226811335, 23.061539530151752 ], [ -110.047340164717809, 23.061877109663211 ], [ -110.047183091067836, 23.062350369321187 ], [ -110.047147762877032, 23.06268887524266 ], [ -110.047139972047361, 23.063795309923449 ], [ -110.047159799944751, 23.064098582832898 ], [ -110.047278921855025, 23.064376369626274 ], [ -110.047383610310916, 23.064545347319331 ], [ -110.047449066815361, 23.064644549354817 ], [ -110.047483156429635, 23.064688222850542 ], [ -110.047571367706652, 23.064814829826535 ], [ -110.04765180406207, 23.064904203554789 ], [ -110.047566903962377, 23.064942165304444 ], [ -110.04739253246828, 23.065020132786579 ], [ -110.04726339973233, 23.06508263789668 ], [ -110.047111410525943, 23.065156206399735 ], [ -110.046745992476588, 23.065334104580472 ], [ -110.045068042232742, 23.065877214841191 ], [ -110.044630928393985, 23.066089659212611 ], [ -110.04426902039333, 23.066537966565935 ], [ -110.044189123466893, 23.066965962274285 ], [ -110.044178180042195, 23.06851496860666 ], [ -110.044208133695662, 23.068938547841416 ], [ -110.04435886196039, 23.0693662447101 ], [ -110.044544234719154, 23.069553660846559 ], [ -110.045258581686312, 23.07000057081634 ], [ -110.045444028268122, 23.070177824832321 ], [ -110.045595096268812, 23.070558102069235 ], [ -110.045625460810868, 23.070924101408888 ], [ -110.045616093091553, 23.072251821034129 ], [ -110.045530538039813, 23.072703493252089 ], [ -110.045140646457185, 23.073483576726495 ], [ -110.044669210079363, 23.074146308175255 ], [ -110.042859030008799, 23.076458957924242 ], [ -110.042333092035051, 23.077060382100882 ], [ -110.041688930097649, 23.077554391061383 ], [ -110.041294640253071, 23.07765869477646 ], [ -110.040098786047892, 23.077651432701316 ], [ -110.039737874795591, 23.077694966111647 ], [ -110.039249475301276, 23.077905388644822 ], [ -110.038912672079746, 23.078162458907013 ], [ -110.037829314481172, 23.079151693638611 ], [ -110.037546839208943, 23.079490383910684 ], [ -110.037311987190321, 23.080081708411935 ], [ -110.037258960393018, 23.080587767855882 ], [ -110.037246354569746, 23.082358054128886 ], [ -110.037198347306528, 23.082930193863273 ], [ -110.03698691814472, 23.083829892971281 ], [ -110.036732881783365, 23.08454303725749 ], [ -110.035758787619073, 23.086971340296859 ], [ -110.035493610146503, 23.087704736965428 ], [ -110.035230229074998, 23.088698956104629 ], [ -110.035119149364604, 23.089385872861413 ], [ -110.034864155046847, 23.091597264883251 ], [ -110.034748050544962, 23.092218100524004 ], [ -110.034461227940639, 23.092903941872404 ], [ -110.034167585524898, 23.093262879207852 ], [ -110.033084069066248, 23.094252074254701 ], [ -110.032796821060543, 23.094484029242576 ], [ -110.032539856247865, 23.094577295459558 ], [ -110.032460012596346, 23.0944785783709 ], [ -110.0323443744321, 23.093924632613625 ], [ -110.032347672503462, 23.093719729298378 ], [ -110.032478700644248, 23.093317459545336 ], [ -110.032662584767749, 23.092947691564039 ], [ -110.033389674157988, 23.091624375039927 ], [ -110.033602646804539, 23.091026149999948 ], [ -110.033869434750031, 23.089557751573164 ], [ -110.034037585696893, 23.088058264413267 ], [ -110.034555474944426, 23.082529052432289 ], [ -110.034723606482103, 23.08102956267361 ], [ -110.034990358299282, 23.079561159442004 ], [ -110.035203302828165, 23.078962930460037 ], [ -110.035930287165044, 23.077639596541854 ], [ -110.036196904451572, 23.077214439367648 ], [ -110.036714139882932, 23.07655370776402 ], [ -110.037186428710825, 23.076034961764279 ], [ -110.038873184137984, 23.074274867797239 ], [ -110.039334474620603, 23.073756047870731 ], [ -110.039800432078394, 23.073094993288944 ], [ -110.040004797007825, 23.072669450521339 ], [ -110.040492539288593, 23.071344638572491 ], [ -110.040641485831898, 23.070989889012992 ], [ -110.040848832866757, 23.070659204065706 ], [ -110.040996096847195, 23.070541546587233 ], [ -110.041475981434857, 23.070323162575569 ], [ -110.041590515286188, 23.070174821321775 ], [ -110.041645122647822, 23.069700947033073 ], [ -110.041608599703281, 23.069172325068724 ], [ -110.04149838730639, 23.068196271907269 ], [ -110.041430287252126, 23.067989116746393 ], [ -110.040844168604281, 23.06632584064949 ], [ -110.040625772107703, 23.065892649107877 ], [ -110.040192700188669, 23.065534365228864 ], [ -110.039792421790523, 23.065455722044817 ], [ -110.038357526876979, 23.065446997174284 ], [ -110.037945473943708, 23.065480054686262 ], [ -110.037457454062022, 23.065643054912211 ], [ -110.03717233516268, 23.065842855319413 ], [ -110.036329795047564, 23.066612254965921 ], [ -110.036099217709349, 23.06686319359687 ], [ -110.035865735199891, 23.067264843613906 ], [ -110.0357627663861, 23.067587690956639 ], [ -110.03551572596902, 23.068692661712639 ], [ -110.035423809172002, 23.069005414648093 ], [ -110.035241906597889, 23.069359957844444 ], [ -110.03507396254625, 23.069553695087986 ], [ -110.034472123841127, 23.070103257669082 ], [ -110.034221959968676, 23.070276168436408 ], [ -110.033656368967002, 23.07053352300623 ], [ -110.033098544923476, 23.070728260258186 ], [ -110.031060946965624, 23.071379664417172 ], [ -110.03053100748015, 23.071513594250526 ], [ -110.030095565996945, 23.071487211648304 ], [ -110.030003447250408, 23.071315593884467 ], [ -110.030009000972285, 23.070541094267167 ] ] ] ] } },
{ "type": "Feature", "properties": { "fid": 7.0, "cat": 7, "CLAVE_ACUI": "0316", "NOM_ACUIF": "MIGRIÑO", "VULNERABIL": 3 }, "geometry": { "type": "MultiPolygon", "coordinates": [ [ [ [ -110.106718408406095, 23.057333825422024 ], [ -110.107092528760631, 23.056994160263617 ], [ -110.107098172089948, 23.057701992016373 ], [ -110.107410984875514, 23.058102515883533 ], [ -110.107616990953417, 23.060019310825997 ], [ -110.107620085396718, 23.061061485144876 ], [ -110.107605051344294, 23.061123639304466 ], [ -110.107595692201471, 23.061154067452588 ], [ -110.10758587107749, 23.061186346632571 ], [ -110.107570049278465, 23.061237400067125 ], [ -110.107551832286305, 23.061295329161336 ], [ -110.107531854846457, 23.061364103861759 ], [ -110.107498629269543, 23.061475025924537 ], [ -110.107448106159097, 23.061638967657437 ], [ -110.107395923591454, 23.06180631818172 ], [ -110.107289987629443, 23.062117088792078 ], [ -110.107231197255885, 23.062304199129489 ], [ -110.107168909061841, 23.062518726862898 ], [ -110.107119935841496, 23.062687396289217 ], [ -110.107284544417553, 23.063272476464967 ], [ -110.107029431940092, 23.063344179401739 ], [ -110.106433883682001, 23.063536922398765 ], [ -110.105871088400406, 23.063719065235745 ], [ -110.105727676243689, 23.063402081128189 ], [ -110.105592080906021, 23.063182208257025 ], [ -110.105464771579634, 23.062911358160697 ], [ -110.105362432623281, 23.06260842031319 ], [ -110.105276929825052, 23.062218418288612 ], [ -110.105235232567381, 23.061684866337881 ], [ -110.105245287729588, 23.060163992286284 ], [ -110.105293891803228, 23.059456336583871 ], [ -110.105503885685536, 23.058698785706316 ], [ -110.105755272216655, 23.05832422555692 ], [ -110.106718408406095, 23.057333825422024 ] ] ] ] } },
{ "type": "Feature", "properties": { "fid": 8.0, "cat": 9, "CLAVE_ACUI": "0316", "NOM_ACUIF": "MIGRIÑO", "VULNERABIL": 3 }, "geometry": null },
{ "type": "Feature", "properties": { "fid": 9.0, "cat": 8, "CLAVE_ACUI": "0316", "NOM_ACUIF": "MIGRIÑO", "VULNERABIL": 4 }, "geometry": { "type": "MultiPolygon", "coordinates": [ [ [ [ -110.082997616976598, 23.048329139151146 ], [ -110.084665333198615, 23.04825412125005 ], [ -110.086586529262405, 23.048312651761375 ], [ -110.087220850064256, 23.048406100696749 ], [ -110.087663382229081, 23.04847129351424 ], [ -110.090767518755726, 23.049153068894853 ], [ -110.091586349754337, 23.049310200312998 ], [ -110.091957884931318, 23.049336905184507 ], [ -110.09214536947961, 23.049276151449945 ], [ -110.092626583494862, 23.048836316197107 ], [ -110.093009830373106, 23.048723349282575 ], [ -110.094234366663088, 23.048693108911273 ], [ -110.095613957288037, 23.04873826493975 ], [ -110.100873209166863, 23.048989556650216 ], [ -110.102291237878944, 23.049034873099639 ], [ -110.102919519020887, 23.049016501027886 ], [ -110.103471451160047, 23.049000361538432 ], [ -110.103737052302975, 23.048978037597703 ], [ -110.104171691743105, 23.048893112324645 ], [ -110.10459373763166, 23.048722378975523 ], [ -110.105134301138762, 23.048524631009801 ], [ -110.105694638439715, 23.048362741651562 ], [ -110.105988991564558, 23.048283027951967 ], [ -110.106127817166993, 23.04885369470902 ], [ -110.106220739953443, 23.049235669966215 ], [ -110.10625343496028, 23.050483934276318 ], [ -110.106265000988941, 23.050918811495681 ], [ -110.105030733339291, 23.051055743566447 ], [ -110.104476344421698, 23.051162025556089 ], [ -110.101006046712712, 23.051584930162253 ], [ -110.099960447698905, 23.0516738239386 ], [ -110.098551295215344, 23.051665796012234 ], [ -110.097583821607586, 23.051565434690509 ], [ -110.094478111031719, 23.051105080752325 ], [ -110.093658879920312, 23.051005544509412 ], [ -110.092941497913372, 23.051001430656672 ], [ -110.092735896195165, 23.05109509330812 ], [ -110.092493802435058, 23.051536301239487 ], [ -110.092353945679335, 23.051650664048168 ], [ -110.091943375243645, 23.051743148835492 ], [ -110.091496702945776, 23.051760906188541 ], [ -110.089822803521528, 23.051751278951279 ], [ -110.089222679133073, 23.051727499759583 ], [ -110.088095998736407, 23.051626163348736 ], [ -110.087086581184622, 23.051505172739052 ], [ -110.083502661840882, 23.051041842279986 ], [ -110.082558997917928, 23.050941527402273 ], [ -110.081739135709796, 23.050936768051297 ], [ -110.08151156628162, 23.051030288318888 ], [ -110.08126943671023, 23.0514714778948 ], [ -110.081162442999101, 23.051596183159003 ], [ -110.080905269249314, 23.051736951487523 ], [ -110.08064487182078, 23.051813343530839 ], [ -110.079686856160606, 23.052029068082199 ], [ -110.079355223244988, 23.052084720006096 ], [ -110.078765620178316, 23.052128706678467 ], [ -110.078254963215727, 23.052135892053492 ], [ -110.076461501274977, 23.052125426126082 ], [ -110.074221505384486, 23.052112325832645 ], [ -110.074842208680266, 23.052070231741588 ], [ -110.075227978974482, 23.051859094225414 ], [ -110.075158376560736, 23.051599565349942 ], [ -110.074447801995646, 23.050599566904701 ], [ -110.074263117694969, 23.050308879047499 ], [ -110.07411182637918, 23.049952335885081 ], [ -110.074080379642922, 23.049733676530245 ], [ -110.074084918955364, 23.049069809417539 ], [ -110.07404770444171, 23.04889176281986 ], [ -110.07386949776776, 23.048724745729007 ], [ -110.073652131416736, 23.048664196241685 ], [ -110.073008749936903, 23.048575288115877 ], [ -110.073499993268328, 23.048610238556133 ], [ -110.075650579563927, 23.048844122881878 ], [ -110.076033674873258, 23.048868784242753 ], [ -110.076033674873273, 23.048868784242753 ], [ -110.07713611926448, 23.048737634700938 ], [ -110.077845310667627, 23.048688221929833 ], [ -110.082997616976598, 23.048329139151146 ] ] ] ] } },
{ "type": "Feature", "properties": { "fid": 10.0, "cat": 10, "CLAVE_ACUI": "0316", "NOM_ACUIF": "MIGRIÑO", "VULNERABIL": 3 }, "geometry": { "type": "MultiPolygon", "coordinates": [ [ [ [ -110.103471955546041, 23.037977846191993 ], [ -110.103636033193865, 23.038636445131424 ], [ -110.10390131871344, 23.039701287077612 ], [ -110.104095397253133, 23.040499080514905 ], [ -110.104412915279596, 23.041804293333087 ], [ -110.104927701699964, 23.043920412036591 ], [ -110.105459587926717, 23.0461068224546 ], [ -110.105673519310912, 23.046986224446265 ], [ -110.105988991564558, 23.048283027951967 ], [ -110.105694638439715, 23.048362741651562 ], [ -110.105134301138762, 23.048524631009801 ], [ -110.10459373763166, 23.048722378975523 ], [ -110.104428536026788, 23.048414007940234 ], [ -110.104133682714107, 23.047999232052909 ], [ -110.103856174046498, 23.04734561725142 ], [ -110.102916544203921, 23.044795348414784 ], [ -110.102683235986404, 23.044101335529319 ], [ -110.102534074454312, 23.043412880680783 ], [ -110.102554292744102, 23.043123386906 ], [ -110.102797803939154, 23.042460870591302 ], [ -110.102839341416356, 23.042268033851752 ], [ -110.102789673388727, 23.042030645678004 ], [ -110.102677181899239, 23.041884356407667 ], [ -110.102201891442462, 23.041439060507777 ], [ -110.102078421494724, 23.041292708511627 ], [ -110.101977517172514, 23.041055029215364 ], [ -110.101956837905291, 23.040861839432079 ], [ -110.101961238674377, 23.040197966408655 ], [ -110.101984410047336, 23.040015187280225 ], [ -110.102088142270844, 23.039826091022391 ], [ -110.102213159713642, 23.039738732558604 ], [ -110.102692841488235, 23.03952015511836 ], [ -110.102828904986723, 23.039422697102751 ], [ -110.102981240596009, 23.039190953244347 ], [ -110.10300659410693, 23.039118853630619 ], [ -110.103093627901089, 23.038786438689087 ], [ -110.103162571085775, 23.038577437307023 ], [ -110.10324956198366, 23.038378054099997 ], [ -110.103342448786506, 23.038219982486204 ], [ -110.103471955546041, 23.037977846191993 ] ] ] ] } },
{ "type": "Feature", "properties": { "fid": 11.0, "cat": 11, "CLAVE_ACUI": "0316", "NOM_ACUIF": "MIGRIÑO", "VULNERABIL": 3 }, "geometry": { "type": "MultiPolygon", "coordinates": [ [ [ [ -110.100303034968732, 23.025107049358727 ], [ -110.100467971614322, 23.027126736451425 ], [ -110.10075026639629, 23.027578756781406 ], [ -110.1009944153286, 23.028393155616779 ], [ -110.101261452605499, 23.029018735245597 ], [ -110.10171922619655, 23.029363948382201 ], [ -110.101986261976137, 23.029617612772672 ], [ -110.102123599696952, 23.031055686056167 ], [ -110.102372479323449, 23.033000164726467 ], [ -110.1024516795474, 23.033434037786126 ], [ -110.10240918052726, 23.034137395994588 ], [ -110.102269935353121, 23.034083729548527 ], [ -110.102157441499841, 23.034028459476161 ], [ -110.101695494990096, 23.033744834700045 ], [ -110.10104037068416, 23.033360680882431 ], [ -110.100770849374328, 23.03316438304763 ], [ -110.100465800420181, 23.032806989015043 ], [ -110.100299537478705, 23.03249272418131 ], [ -110.099828696244515, 23.031383548529728 ], [ -110.099695878882528, 23.030993260534888 ], [ -110.09954690212318, 23.030281092913004 ], [ -110.099466895464232, 23.029653998625037 ], [ -110.099242510591992, 23.027439725906309 ], [ -110.099206251315394, 23.026838284655621 ], [ -110.099234266669768, 23.026537441854622 ], [ -110.099277007302959, 23.026282157425591 ], [ -110.099376496552551, 23.026000912052861 ], [ -110.099572163499474, 23.025749782073689 ], [ -110.099858337080903, 23.025450404501917 ], [ -110.100051815647504, 23.025307056141418 ], [ -110.100303034968732, 23.025107049358727 ] ] ] ] } },
{ "type": "Feature", "properties": { "fid": 12.0, "cat": 12, "CLAVE_ACUI": "0316", "NOM_ACUIF": "MIGRIÑO", "VULNERABIL": 3 }, "geometry": null },
{ "type": "Feature", "properties": { "fid": 13.0, "cat": 13, "CLAVE_ACUI": "0316", "NOM_ACUIF": "MIGRIÑO", "VULNERABIL": 3 }, "geometry": null },
{ "type": "Feature", "properties": { "fid": 14.0, "cat": 14, "CLAVE_ACUI": "0316", "NOM_ACUIF": "MIGRIÑO", "VULNERABIL": 3 }, "geometry": null },
{ "type": "Feature", "properties": { "fid": 15.0, "cat": 15, "CLAVE_ACUI": "0316", "NOM_ACUIF": "MIGRIÑO", "VULNERABIL": 3 }, "geometry": null },
{ "type": "Feature", "properties": { "fid": 16.0, "cat": 16, "CLAVE_ACUI": "0316", "NOM_ACUIF": "MIGRIÑO", "VULNERABIL": 3 }, "geometry": { "type": "MultiPolygon", "coordinates": [ [ [ [ -110.090486316927553, 23.009678886390247 ], [ -110.090284154578725, 23.009507091095706 ], [ -110.090051952821341, 23.009293616198612 ], [ -110.089133585091886, 23.008346722155771 ], [ -110.088824973469585, 23.007987592733613 ], [ -110.088571873174672, 23.007535633180016 ], [ -110.088518911740849, 23.007249106559815 ], [ -110.08852485750073, 23.006363942053159 ], [ -110.088493679262498, 23.006102945084177 ], [ -110.08834223567176, 23.005770123714626 ], [ -110.088157066330723, 23.005555661420452 ], [ -110.087444390152754, 23.004887656987837 ], [ -110.087248451885117, 23.004642646458294 ], [ -110.087046746048244, 23.004167270118639 ], [ -110.08695453298418, 23.003733171735167 ], [ -110.086725913138409, 23.002182755483897 ], [ -110.086644610167255, 23.001758881512952 ], [ -110.08649381392172, 23.001331219430874 ], [ -110.086359693603868, 23.001144147520769 ], [ -110.085884596375465, 23.00069880661864 ], [ -110.085761316852853, 23.000532120239804 ], [ -110.085661108031076, 23.000199592156239 ], [ -110.085641231894556, 22.999891238482192 ], [ -110.085648684852003, 22.998784782695633 ], [ -110.085628808830137, 22.998476428973269 ], [ -110.085528601664578, 22.998143900780043 ], [ -110.085405324792205, 22.997977214159881 ], [ -110.084930241497716, 22.997531870677022 ], [ -110.084796263947013, 22.99732447488697 ], [ -110.08464611743878, 22.996801972084391 ], [ -110.08456560011264, 22.996262935340972 ], [ -110.084340001800186, 22.994269933059638 ], [ -110.08424864820887, 22.993710509968178 ], [ -110.084047927452119, 22.993092871374223 ], [ -110.083852537310548, 22.992769953484064 ], [ -110.083141441951852, 22.991880640256085 ], [ -110.082956756653488, 22.991598430179721 ], [ -110.082805982240217, 22.99117076478419 ], [ -110.082775274979966, 22.990842024453453 ], [ -110.082782748015916, 22.989735568292684 ], [ -110.08273043352149, 22.989355894165655 ], [ -110.0824788278901, 22.988690537601144 ], [ -110.082171707689952, 22.988119701902615 ], [ -110.080990104932297, 22.98612115379926 ], [ -110.080606377828673, 22.985519385701942 ], [ -110.079997237813728, 22.984709686324294 ], [ -110.07951076541562, 22.984154740567003 ], [ -110.077849722850459, 22.982374684452395 ], [ -110.077406786712913, 22.981875875362867 ], [ -110.077000769635035, 22.981328165088676 ], [ -110.076863679101024, 22.981044531824647 ], [ -110.07662993991957, 22.980268620587569 ], [ -110.076621848012081, 22.980219799842136 ], [ -110.076618434027324, 22.980196494518701 ], [ -110.076617016371927, 22.980170740111387 ], [ -110.076617856780828, 22.980140579610541 ], [ -110.076628572265577, 22.98009824286838 ], [ -110.076660433889884, 22.980053289445184 ], [ -110.076677047170108, 22.980027737827562 ], [ -110.076694694278942, 22.980000889376896 ], [ -110.076706722038878, 22.979972999905378 ], [ -110.076711468736136, 22.979947918206161 ], [ -110.076711512103316, 22.97992432646376 ], [ -110.07670695921162, 22.979869320098988 ], [ -110.076686481047034, 22.979801989226907 ], [ -110.076770006472501, 22.979852053199991 ], [ -110.07707321507192, 22.980033792198334 ], [ -110.077357883206531, 22.980204418301103 ], [ -110.077785138117648, 22.980433288080221 ], [ -110.078029283334246, 22.980324573284971 ], [ -110.078273429905195, 22.980553443693903 ], [ -110.078797390475771, 22.981182453854274 ], [ -110.078929574507242, 22.981341139647633 ], [ -110.079051650968623, 22.982247087359593 ], [ -110.079723054471543, 22.983208344296852 ], [ -110.080264754006762, 22.983437213682777 ], [ -110.080867490655393, 22.984064699498109 ], [ -110.081714374985509, 22.985197608596202 ], [ -110.082141631925666, 22.985931902499033 ], [ -110.082500224028237, 22.986610885524346 ], [ -110.083041924256776, 22.987236465078038 ], [ -110.083591254280023, 22.987810548237221 ], [ -110.083949845008959, 22.988371281342495 ], [ -110.084255026393436, 22.988201534002265 ], [ -110.084560209156209, 22.988375093088472 ], [ -110.084979836780818, 22.989055983278252 ], [ -110.085155321019599, 22.990301423395039 ], [ -110.085765686729147, 22.990694316717601 ], [ -110.086185313228484, 22.991094839288721 ], [ -110.086246355301697, 22.992504303974741 ], [ -110.086414209321404, 22.993471283874548 ], [ -110.085628368585802, 22.99412738416947 ], [ -110.085430000962816, 22.994306667108539 ], [ -110.08514770987793, 22.994773946550204 ], [ -110.085277845807994, 22.994997180463177 ], [ -110.085368967950657, 22.99515349050343 ], [ -110.08616243909357, 22.994598475546479 ], [ -110.086719395025966, 22.994377230968876 ], [ -110.08707798554164, 22.994884561235452 ], [ -110.087177954171352, 22.995368061666632 ], [ -110.087253469088338, 22.995733291189399 ], [ -110.08735220977438, 22.997227682252202 ], [ -110.087421328530553, 22.9982737601723 ], [ -110.087779918605335, 22.998447319076135 ], [ -110.088268212861379, 22.999181612779307 ], [ -110.088123256041399, 23.000453755436141 ], [ -110.087787557937162, 23.00099351073785 ], [ -110.087963039898938, 23.001447437896523 ], [ -110.088268223237435, 23.001764041856081 ], [ -110.08857340543139, 23.002019613481124 ], [ -110.088893848317852, 23.002446838719525 ], [ -110.089246790842964, 23.003655480221504 ], [ -110.089521874099802, 23.004647830223753 ], [ -110.090375600906341, 23.00762616192825 ], [ -110.090663928272022, 23.008633982416221 ], [ -110.091203179444236, 23.0102074684198 ], [ -110.090958429318505, 23.010014409715826 ], [ -110.090697758483017, 23.009829347622052 ], [ -110.090486316927553, 23.009678886390247 ] ] ] ] } },
{ "type": "Feature", "properties": { "fid": 17.0, "cat": 18, "CLAVE_ACUI": "0316", "NOM_ACUIF": "MIGRIÑO", "VULNERABIL": 3 }, "geometry": null },
{ "type": "Feature", "properties": { "fid": 18.0, "cat": 17, "CLAVE_ACUI": "0316", "NOM_ACUIF": "MIGRIÑO", "VULNERABIL": 3 }, "geometry": { "type": "MultiPolygon", "coordinates": [ [ [ [ -110.076338267901761, 22.979418862571205 ], [ -110.07616905365866, 22.979412482669019 ], [ -110.076088417907116, 22.979410750267959 ], [ -110.075959721695284, 22.979393685834047 ], [ -110.075886175457256, 22.979372356818097 ], [ -110.075799466646686, 22.979326870279845 ], [ -110.075733905503185, 22.979272829071736 ], [ -110.075628224501031, 22.979179929072849 ], [ -110.075394911326313, 22.97897483266734 ], [ -110.074977163930825, 22.978540521666925 ], [ -110.073434991584179, 22.976871765053232 ], [ -110.073022986577087, 22.976401916651774 ], [ -110.072642447773973, 22.975878055444753 ], [ -110.072510823959163, 22.975599531461725 ], [ -110.072308747689803, 22.974928626583353 ], [ -110.07227644648664, 22.974837798915168 ], [ -110.072225619750142, 22.974741406372402 ], [ -110.072197216432997, 22.974698916049299 ], [ -110.072152233986813, 22.974631623955837 ], [ -110.072097676700253, 22.974566166570945 ], [ -110.072024819430624, 22.974486970670853 ], [ -110.071869174206952, 22.974388208402871 ], [ -110.071697911146927, 22.974238749667581 ], [ -110.071553606161132, 22.974119024102443 ], [ -110.071471011637357, 22.974035280110112 ], [ -110.071976898259507, 22.973843598003736 ], [ -110.072830200336512, 22.973520279037917 ], [ -110.073028986596981, 22.973686243941099 ], [ -110.073167324938538, 22.973801741407616 ], [ -110.073375234061615, 22.973975322908675 ], [ -110.073741455270962, 22.974656213272212 ], [ -110.074161082632259, 22.975272256374403 ], [ -110.074458638582442, 22.976241143182353 ], [ -110.074939303256556, 22.976857186974961 ], [ -110.075297892904729, 22.977148995795851 ], [ -110.075725148929138, 22.977431269315264 ], [ -110.076160034744063, 22.977885195569993 ], [ -110.076184434100384, 22.978515404514184 ], [ -110.076205816797227, 22.979067696411551 ], [ -110.076438474978147, 22.979423119621718 ], [ -110.076338267901761, 22.979418862571205 ] ] ] ] } },
{ "type": "Feature", "properties": { "fid": 19.0, "cat": 19, "CLAVE_ACUI": "0316", "NOM_ACUIF": "MIGRIÑO", "VULNERABIL": 2 }, "geometry": null }
]
}
