{
"type": "FeatureCollection",
"name": "0608",
"crs": { "type": "name", "properties": { "name": "urn:ogc:def:crs:OGC:1.3:CRS84" } },
"features": [
{ "type": "Feature", "properties": { "fid": 1.0, "cat": 3, "VULNERABIL": 2.0, "CLAVE_ACUI": "0608", "NOM_ACUIF": "JALIPA-TAPEIXTLES" }, "geometry": { "type": "MultiPolygon", "coordinates": [ [ [ [ -104.299466911598216, 19.105457582872134 ], [ -104.299537015368074, 19.105772027038892 ], [ -104.299124545150107, 19.106276790008771 ], [ -104.298582722495908, 19.106939848819238 ], [ -104.29846553000732, 19.10708326384901 ], [ -104.298290035864511, 19.106693581233504 ], [ -104.298159325613867, 19.106121345078627 ], [ -104.297937158266635, 19.103574310259187 ], [ -104.297900675234416, 19.102926892601062 ], [ -104.297952584924943, 19.102452645441435 ], [ -104.297951225501521, 19.10237150829613 ], [ -104.298063224459995, 19.102422567136337 ], [ -104.298527633950229, 19.102756448219292 ], [ -104.298669543433888, 19.10291965559518 ], [ -104.298867377657047, 19.103347409494017 ], [ -104.29900808886795, 19.103795279115097 ], [ -104.299466911598216, 19.105457582872134 ] ] ] ] } },
{ "type": "Feature", "properties": { "fid": 2.0, "cat": 1, "VULNERABIL": 1.0, "CLAVE_ACUI": "0608", "NOM_ACUIF": "JALIPA-TAPEIXTLES" }, "geometry": { "type": "MultiPolygon", "coordinates": [ [ [ [ -104.279096236799646, 19.112944067996665 ], [ -104.279547902643486, 19.112376504644509 ], [ -104.279596420742095, 19.111875140407989 ], [ -104.27937117708592, 19.110103004468019 ], [ -104.279339460141529, 19.109606409416589 ], [ -104.27941668854038, 19.10906110201104 ], [ -104.279558731232086, 19.108778686391158 ], [ -104.280129587319763, 19.108025550429826 ], [ -104.280362067986658, 19.10781430263237 ], [ -104.281738984733565, 19.106799625698876 ], [ -104.283310501802418, 19.105709445513995 ], [ -104.289267166463532, 19.101636497722101 ], [ -104.2909398374658, 19.1006279726857 ], [ -104.291207411035302, 19.100536329504035 ], [ -104.29278913762883, 19.099994582541726 ], [ -104.293858611434288, 19.099856423961342 ], [ -104.295077611682075, 19.099842082781958 ], [ -104.295591392523121, 19.09988829587348 ], [ -104.295857417014759, 19.099930562092521 ], [ -104.29614648886529, 19.100008440213511 ], [ -104.296369771878787, 19.10009681989132 ], [ -104.296557111424065, 19.100240779153115 ], [ -104.296699957600083, 19.100396010835738 ], [ -104.296778641364412, 19.10053452027211 ], [ -104.296862101782821, 19.100681438198745 ], [ -104.296963926991211, 19.100924312067928 ], [ -104.297030769238049, 19.101132352920661 ], [ -104.297140948866186, 19.101341632351474 ], [ -104.297273604775512, 19.101438435312328 ], [ -104.297408053332248, 19.101477873555645 ], [ -104.297560428363226, 19.101456361786564 ], [ -104.29770237783994, 19.101342393684234 ], [ -104.297825783888385, 19.100993443158593 ], [ -104.297828376433188, 19.100994351180915 ], [ -104.297835987991462, 19.101359847595745 ], [ -104.29788449478616, 19.101692144100458 ], [ -104.297901652460439, 19.101773145177084 ], [ -104.297912257638743, 19.101841280895705 ], [ -104.297940640261103, 19.102122477567939 ], [ -104.297951225501521, 19.10237150829613 ], [ -104.297952584924943, 19.102452645441435 ], [ -104.297900675234416, 19.102926892601062 ], [ -104.297937158266635, 19.103574310259187 ], [ -104.298159325613867, 19.106121345078627 ], [ -104.298290035864511, 19.106693581233504 ], [ -104.29846553000732, 19.10708326384901 ], [ -104.298331522246571, 19.107247256671648 ], [ -104.298200324687869, 19.10740781049223 ], [ -104.274632452120073, 19.136249139715279 ], [ -104.233515758267245, 19.141324510087998 ], [ -104.216213628463436, 19.115482863635062 ], [ -104.215752735056768, 19.114767319234776 ], [ -104.217473908551455, 19.113437050927509 ], [ -104.225657265692774, 19.107112261075869 ], [ -104.231995330089219, 19.102213669375491 ], [ -104.238302392389684, 19.097339038714406 ], [ -104.245812055629671, 19.09153493643349 ], [ -104.254177873544947, 19.085069125478711 ], [ -104.25447651700695, 19.08508712707382 ], [ -104.254813223237022, 19.085126581141576 ], [ -104.255255867085197, 19.085217305291184 ], [ -104.255484929479834, 19.085298299655943 ], [ -104.255754831489782, 19.085437468550786 ], [ -104.256174265373247, 19.085658445933923 ], [ -104.256570299531546, 19.085824910965396 ], [ -104.257048706660214, 19.085967085083194 ], [ -104.257543712291465, 19.086063729661628 ], [ -104.262661188161957, 19.087412715240699 ], [ -104.264105163081013, 19.087743819417856 ], [ -104.265726186171008, 19.087940062794758 ], [ -104.266118830386404, 19.087938175620302 ], [ -104.26637309506026, 19.087902402911944 ], [ -104.268337013351115, 19.087453411326447 ], [ -104.268577222248425, 19.08738895326557 ], [ -104.268707418858895, 19.087341702608825 ], [ -104.268803052399434, 19.087301385768001 ], [ -104.26889575100121, 19.087241759025847 ], [ -104.268968616936135, 19.087188475528571 ], [ -104.268996029503057, 19.087159569088843 ], [ -104.269018811064029, 19.087127525516127 ], [ -104.269030911434157, 19.087085248914367 ], [ -104.269035684604177, 19.087044434775986 ], [ -104.269017317191228, 19.086990089213575 ], [ -104.269162852464461, 19.086983136384823 ], [ -104.269300107858115, 19.086981570843783 ], [ -104.269505627386707, 19.086989906313381 ], [ -104.270137423057051, 19.087028332358628 ], [ -104.270404452829709, 19.087325090201059 ], [ -104.270715178383327, 19.087683619686 ], [ -104.270949417646818, 19.087956102094555 ], [ -104.27116278048257, 19.088213551910631 ], [ -104.272784747429824, 19.090101919740043 ], [ -104.27321704594145, 19.090694985478681 ], [ -104.27361245232467, 19.091574265442404 ], [ -104.273745018309739, 19.092237314653719 ], [ -104.273932566079509, 19.094098173884557 ], [ -104.27373041423624, 19.095585472802384 ], [ -104.273608830635482, 19.096081464571284 ], [ -104.273282060213333, 19.096625785630668 ], [ -104.272936828597068, 19.096907394896121 ], [ -104.27218271858699, 19.097359428668263 ], [ -104.271857819973363, 19.097465686992933 ], [ -104.269676744792534, 19.09807269869296 ], [ -104.269349251572038, 19.098173631087644 ], [ -104.268885512406101, 19.098380206986597 ], [ -104.268874201680788, 19.098385245408036 ], [ -104.268722081657003, 19.098525279959521 ], [ -104.268487238039299, 19.098967160764218 ], [ -104.268447295793095, 19.099133057116958 ], [ -104.268495743141344, 19.099465359500446 ], [ -104.268604896286007, 19.099774180798295 ], [ -104.269065833766277, 19.100883043825945 ], [ -104.26918550470559, 19.101232573056887 ], [ -104.26928302835519, 19.101754847060096 ], [ -104.269302676558624, 19.102151423597554 ], [ -104.269296843895319, 19.103479840022057 ], [ -104.269236170871793, 19.10390151434132 ], [ -104.268958861712676, 19.104540911200647 ], [ -104.268623377376898, 19.105032660410309 ], [ -104.267335078576906, 19.10668808734895 ], [ -104.26687160536045, 19.107097990685169 ], [ -104.265997043323736, 19.107355449571834 ], [ -104.265211144581684, 19.107313342876576 ], [ -104.262418190894451, 19.10685936323193 ], [ -104.261664605927621, 19.106766537873646 ], [ -104.261404377870335, 19.106774023166146 ], [ -104.260940819542171, 19.106787356209093 ], [ -104.260660422807149, 19.106909924269022 ], [ -104.260075688789868, 19.10746109071798 ], [ -104.259923357085853, 19.107645171848233 ], [ -104.259797211874925, 19.107953051832208 ], [ -104.259769336338593, 19.108208799358348 ], [ -104.259765395875576, 19.109094407845792 ], [ -104.259806969395143, 19.109365684468113 ], [ -104.260004920283095, 19.109746033483461 ], [ -104.260246134311444, 19.110018112355341 ], [ -104.261173854375755, 19.110907462174652 ], [ -104.261403970636465, 19.111270994516111 ], [ -104.261550121209311, 19.112078131560715 ], [ -104.261528790351676, 19.112867652303084 ], [ -104.261283088722578, 19.115744944560085 ], [ -104.261181562405383, 19.116529059701044 ], [ -104.2609534794545, 19.117310972093378 ], [ -104.260729173137833, 19.117643874518784 ], [ -104.259910490044376, 19.118415504628231 ], [ -104.259590418060824, 19.118636187824297 ], [ -104.258915435284052, 19.118894413484917 ], [ -104.258271245962874, 19.119042622639899 ], [ -104.255940006398347, 19.119476023059683 ], [ -104.255327853823815, 19.11963451787139 ], [ -104.254751418707059, 19.120043446888818 ], [ -104.254663873096575, 19.120219797234785 ], [ -104.254542942106198, 19.121215632537755 ], [ -104.254639203648097, 19.121782426477687 ], [ -104.25469653085888, 19.121948248638219 ], [ -104.254901948433414, 19.122254078038523 ], [ -104.255526590587991, 19.12302418343851 ], [ -104.255712743332452, 19.12325368466314 ], [ -104.256009147410154, 19.123544631055733 ], [ -104.256581567195582, 19.123902775258429 ], [ -104.257102906001919, 19.124123462604487 ], [ -104.258963408621298, 19.12479518257739 ], [ -104.26016166944197, 19.125609813922651 ], [ -104.260328267429344, 19.125749556531858 ], [ -104.260895767701854, 19.126416054472195 ], [ -104.26307448458482, 19.129258483477837 ], [ -104.263283931399684, 19.129515147759363 ], [ -104.263930105905246, 19.130134507807011 ], [ -104.264317733002017, 19.130363112445234 ], [ -104.265082892488778, 19.130657567443219 ], [ -104.265480485964659, 19.130810570999067 ], [ -104.265777983921851, 19.130860897331658 ], [ -104.266003550468596, 19.13064829916333 ], [ -104.266028290154281, 19.130294261548563 ], [ -104.265918176704773, 19.128854684227047 ], [ -104.265986015309352, 19.128429652366801 ], [ -104.26641270631967, 19.127885747133842 ], [ -104.266415641584942, 19.127883839978232 ], [ -104.266954424705574, 19.127533770133578 ], [ -104.269055738047925, 19.126435101493747 ], [ -104.269624253434316, 19.126067972832864 ], [ -104.270176025898792, 19.125453388490552 ], [ -104.270395757806725, 19.12494254081118 ], [ -104.270869396888543, 19.123173169280065 ], [ -104.271057035906608, 19.122662193358224 ], [ -104.271459050252943, 19.122047011117495 ], [ -104.271845717012852, 19.121679154734629 ], [ -104.27324813817512, 19.120577667530302 ], [ -104.27363497524243, 19.12016914131382 ], [ -104.274037802500573, 19.119364179127579 ], [ -104.274226433040084, 19.118622759861751 ], [ -104.274703873897579, 19.115967764611678 ], [ -104.274935234240914, 19.115236679153121 ], [ -104.275537481794885, 19.114479942437804 ], [ -104.276166474713477, 19.114129973886531 ], [ -104.278499516427814, 19.113253506875907 ], [ -104.279096236799646, 19.112944067996665 ] ] ] ] } },
{ "type": "Feature", "properties": { "fid": 3.0, "cat": 4, "VULNERABIL": 3.0, "CLAVE_ACUI": "0608", "NOM_ACUIF": "JALIPA-TAPEIXTLES" }, "geometry": { "type": "MultiPolygon", "coordinates": [ [ [ [ -104.298669543433888, 19.10291965559518 ], [ -104.298527633950229, 19.102756448219292 ], [ -104.298063224459995, 19.102422567136337 ], [ -104.297951225501521, 19.10237150829613 ], [ -104.297940640261103, 19.102122477567939 ], [ -104.297912257638743, 19.101841280895705 ], [ -104.297949432854097, 19.101815787594923 ], [ -104.298013071837616, 19.101770971409344 ], [ -104.298178267631954, 19.101630004478039 ], [ -104.298233965770891, 19.101525161011985 ], [ -104.298260520003552, 19.101145706073222 ], [ -104.298242756588721, 19.100708471056162 ], [ -104.298213334350152, 19.100261968114296 ], [ -104.298187717599021, 19.099388851803955 ], [ -104.298124925607311, 19.098941722856534 ], [ -104.298099460030258, 19.09862036603479 ], [ -104.29805095348263, 19.098288069491712 ], [ -104.298045211480982, 19.09827469410298 ], [ -104.298039802888596, 19.098266219033345 ], [ -104.29803040076267, 19.098256896951167 ], [ -104.298014061316024, 19.098251351715497 ], [ -104.297997951862683, 19.09825032741254 ], [ -104.297983624981384, 19.098253037373329 ], [ -104.297971318091285, 19.098257065011847 ], [ -104.2979563140062, 19.098266330273947 ], [ -104.297945134056022, 19.098277316778958 ], [ -104.297935933755895, 19.098288722109707 ], [ -104.2979189018276, 19.098309836070417 ], [ -104.297895896185594, 19.098345091469774 ], [ -104.297877340271654, 19.098361808680362 ], [ -104.297857062290419, 19.098372363670745 ], [ -104.297817617248072, 19.098392895401098 ], [ -104.297748955117228, 19.098405724034119 ], [ -104.297678985847227, 19.098410821875344 ], [ -104.297544839052676, 19.098407010638194 ], [ -104.297435839367338, 19.09839033714373 ], [ -104.297330783561151, 19.09835660782532 ], [ -104.296600280100407, 19.097956071995231 ], [ -104.296303108862318, 19.097839714555512 ], [ -104.295729582770718, 19.097742633609684 ], [ -104.295207430819275, 19.097720303126934 ], [ -104.293344247864525, 19.097713164785098 ], [ -104.292863622217553, 19.097657889616457 ], [ -104.292146110404744, 19.097378147502511 ], [ -104.291650362879594, 19.09701532483594 ], [ -104.290258645907016, 19.095681522556326 ], [ -104.28981105284555, 19.095313797313604 ], [ -104.289113990643216, 19.09493155297514 ], [ -104.288565779911593, 19.09475321440231 ], [ -104.286704529876957, 19.094303202382619 ], [ -104.286097790143444, 19.094058546620381 ], [ -104.285127586538948, 19.093366840007892 ], [ -104.284348325472337, 19.092623342461671 ], [ -104.281682026335048, 19.089845374663142 ], [ -104.280956507022665, 19.089046156234751 ], [ -104.280237000462805, 19.088094458597059 ], [ -104.279934649058632, 19.087534110870614 ], [ -104.279243185540054, 19.085870852572096 ], [ -104.278950742575546, 19.085214002840548 ], [ -104.279490512343514, 19.08514151413376 ], [ -104.280034176533889, 19.085124999819506 ], [ -104.282245578786799, 19.085355032696594 ], [ -104.282879262872669, 19.085542194001412 ], [ -104.283625052245199, 19.086185594795079 ], [ -104.284056783435418, 19.086917578493615 ], [ -104.284863185229156, 19.088679453198644 ], [ -104.285043436287481, 19.089073271068045 ], [ -104.285303793961191, 19.089642104776704 ], [ -104.285325760938619, 19.089690098400773 ], [ -104.285735968062269, 19.09045757823327 ], [ -104.286381269405879, 19.091266634558817 ], [ -104.286527224722093, 19.091377406836692 ], [ -104.286892920255028, 19.09165494904704 ], [ -104.288635332076822, 19.092658018634065 ], [ -104.289211677203326, 19.092924576573338 ], [ -104.290158864760627, 19.093165450787307 ], [ -104.29093564381904, 19.093242997591648 ], [ -104.293613426643901, 19.093363987814659 ], [ -104.294299718955358, 19.093344590048353 ], [ -104.294657693869937, 19.093200359440992 ], [ -104.294710451831051, 19.093018004874541 ], [ -104.294599164661719, 19.091799835867068 ], [ -104.294516953399224, 19.091431825963699 ], [ -104.294244588180504, 19.090932615299209 ], [ -104.293937707063151, 19.090587466733513 ], [ -104.292777968830038, 19.08947598010997 ], [ -104.2924603996819, 19.089130788171804 ], [ -104.292138140313568, 19.08863138297313 ], [ -104.291995338337045, 19.088263139264079 ], [ -104.291651190207645, 19.087044073752587 ], [ -104.291646888227135, 19.086798362305547 ], [ -104.291970957751033, 19.086870774445238 ], [ -104.292438217873439, 19.087219930846882 ], [ -104.294294716568743, 19.088776904753889 ], [ -104.294879187692175, 19.08922817092111 ], [ -104.295750203277407, 19.089777114223388 ], [ -104.296410039715298, 19.090110052335 ], [ -104.298618273922088, 19.091114807011614 ], [ -104.299203093238333, 19.091488116581573 ], [ -104.299724001985481, 19.092225488008761 ], [ -104.299883336789904, 19.092905567587273 ], [ -104.300105990898857, 19.095341901275166 ], [ -104.300249010765796, 19.096088001943158 ], [ -104.30069378277841, 19.097133471182286 ], [ -104.301186154205382, 19.097880897059181 ], [ -104.302332166762469, 19.099391516813398 ], [ -104.302748724219839, 19.099940594842806 ], [ -104.303015110940791, 19.100227872327547 ], [ -104.303353443370256, 19.100512696302058 ], [ -104.303675977053544, 19.100706947182033 ], [ -104.302879899302312, 19.101681152233599 ], [ -104.301945144902021, 19.102825063688648 ], [ -104.300932630111049, 19.104064134900753 ], [ -104.30018902763922, 19.104974123005938 ], [ -104.299537015368074, 19.105772027038892 ], [ -104.299466911598216, 19.105457582872134 ], [ -104.29900808886795, 19.103795279115097 ], [ -104.298867377657047, 19.103347409494017 ], [ -104.298669543433888, 19.10291965559518 ] ], [ [ -104.297199794936489, 19.09513428116859 ], [ -104.297013406011544, 19.094953958549095 ], [ -104.296317062995044, 19.094397780483295 ], [ -104.296135808000727, 19.094268310050275 ], [ -104.295986291590353, 19.094220294217653 ], [ -104.295953951450116, 19.094281170743695 ], [ -104.29595289156012, 19.094531824437126 ], [ -104.295952547133709, 19.09461327709603 ], [ -104.295989417625435, 19.094745584903972 ], [ -104.29616288460825, 19.095030914903084 ], [ -104.296373824631672, 19.09530622119264 ], [ -104.297184749930082, 19.096305651927747 ], [ -104.297390560646505, 19.09653010411148 ], [ -104.297540079553215, 19.096578118871776 ], [ -104.297547866788605, 19.09642225938482 ], [ -104.297434688823017, 19.095646900363224 ], [ -104.297373264415569, 19.095419610095409 ], [ -104.297199794936489, 19.09513428116859 ] ] ] ] } },
{ "type": "Feature", "properties": { "fid": 4.0, "cat": 5, "VULNERABIL": 4.0, "CLAVE_ACUI": "0608", "NOM_ACUIF": "JALIPA-TAPEIXTLES" }, "geometry": { "type": "MultiPolygon", "coordinates": [ [ [ [ -104.297901652460439, 19.101773145177084 ], [ -104.29788449478616, 19.101692144100458 ], [ -104.297835987991462, 19.101359847595745 ], [ -104.297828376433188, 19.100994351180915 ], [ -104.297827094886657, 19.100932813078423 ], [ -104.297833389974002, 19.099440594045383 ], [ -104.297834099981117, 19.099272281663769 ], [ -104.297841291243714, 19.098835141686461 ], [ -104.297847246358856, 19.098750045140701 ], [ -104.29785326489511, 19.098664042329258 ], [ -104.297861234165524, 19.098550163869668 ], [ -104.29786877588333, 19.098479427565366 ], [ -104.29788345593883, 19.098402403884041 ], [ -104.297895896185594, 19.098345091469774 ], [ -104.2979189018276, 19.098309836070417 ], [ -104.297935933755895, 19.098288722109707 ], [ -104.297945134056022, 19.098277316778958 ], [ -104.2979563140062, 19.098266330273947 ], [ -104.297971318091285, 19.098257065011847 ], [ -104.297983624981384, 19.098253037373329 ], [ -104.297997951862683, 19.09825032741254 ], [ -104.298014061316024, 19.098251351715497 ], [ -104.29803040076267, 19.098256896951167 ], [ -104.298039802888596, 19.098266219033345 ], [ -104.298045211480982, 19.09827469410298 ], [ -104.29805095348263, 19.098288069491712 ], [ -104.298099460030258, 19.09862036603479 ], [ -104.298124925607311, 19.098941722856534 ], [ -104.298187717599021, 19.099388851803955 ], [ -104.298213334350152, 19.100261968114296 ], [ -104.298242756588721, 19.100708471056162 ], [ -104.298260520003552, 19.101145706073222 ], [ -104.298233965770891, 19.101525161011985 ], [ -104.298178267631954, 19.101630004478039 ], [ -104.298013071837616, 19.101770971409344 ], [ -104.297912257638743, 19.101841280895705 ], [ -104.297901652460439, 19.101773145177084 ] ] ] ] } },
{ "type": "Feature", "properties": { "fid": 5.0, "cat": 2, "VULNERABIL": 2.0, "CLAVE_ACUI": "0608", "NOM_ACUIF": "JALIPA-TAPEIXTLES" }, "geometry": { "type": "MultiPolygon", "coordinates": [ [ [ [ -104.27324813817512, 19.120577667530302 ], [ -104.271845717012852, 19.121679154734629 ], [ -104.271459050252943, 19.122047011117495 ], [ -104.271057035906608, 19.122662193358224 ], [ -104.270869396888543, 19.123173169280065 ], [ -104.270395757806725, 19.12494254081118 ], [ -104.270176025898792, 19.125453388490552 ], [ -104.269624253434316, 19.126067972832864 ], [ -104.269055738047925, 19.126435101493747 ], [ -104.266954424705574, 19.127533770133578 ], [ -104.266415641584942, 19.127883839978232 ], [ -104.26641270631967, 19.127885747133842 ], [ -104.265986015309352, 19.128429652366801 ], [ -104.265918176704773, 19.128854684227047 ], [ -104.266028290154281, 19.130294261548563 ], [ -104.266003550468596, 19.13064829916333 ], [ -104.265777983921851, 19.130860897331658 ], [ -104.265480485964659, 19.130810570999067 ], [ -104.265082892488778, 19.130657567443219 ], [ -104.264317733002017, 19.130363112445234 ], [ -104.263930105905246, 19.130134507807011 ], [ -104.263283931399684, 19.129515147759363 ], [ -104.26307448458482, 19.129258483477837 ], [ -104.260895767701854, 19.126416054472195 ], [ -104.260328267429344, 19.125749556531858 ], [ -104.26016166944197, 19.125609813922651 ], [ -104.258963408621298, 19.12479518257739 ], [ -104.257102906001919, 19.124123462604487 ], [ -104.256581567195582, 19.123902775258429 ], [ -104.256009147410154, 19.123544631055733 ], [ -104.255712743332452, 19.12325368466314 ], [ -104.255526590587991, 19.12302418343851 ], [ -104.254901948433414, 19.122254078038523 ], [ -104.25469653085888, 19.121948248638219 ], [ -104.254639203648097, 19.121782426477687 ], [ -104.254542942106198, 19.121215632537755 ], [ -104.254663873096575, 19.120219797234785 ], [ -104.254751418707059, 19.120043446888818 ], [ -104.255327853823815, 19.11963451787139 ], [ -104.255940006398347, 19.119476023059683 ], [ -104.258271245962874, 19.119042622639899 ], [ -104.258915435284052, 19.118894413484917 ], [ -104.259590418060824, 19.118636187824297 ], [ -104.259910490044376, 19.118415504628231 ], [ -104.260729173137833, 19.117643874518784 ], [ -104.2609534794545, 19.117310972093378 ], [ -104.261181562405383, 19.116529059701044 ], [ -104.261283088722578, 19.115744944560085 ], [ -104.261528790351676, 19.112867652303084 ], [ -104.261550121209311, 19.112078131560715 ], [ -104.261403970636465, 19.111270994516111 ], [ -104.261173854375755, 19.110907462174652 ], [ -104.260246134311444, 19.110018112355341 ], [ -104.260004920283095, 19.109746033483461 ], [ -104.259806969395143, 19.109365684468113 ], [ -104.259765395875576, 19.109094407845792 ], [ -104.259769336338593, 19.108208799358348 ], [ -104.259797211874925, 19.107953051832208 ], [ -104.259923357085853, 19.107645171848233 ], [ -104.260075688789868, 19.10746109071798 ], [ -104.260660422807149, 19.106909924269022 ], [ -104.260940819542171, 19.106787356209093 ], [ -104.261404377870335, 19.106774023166146 ], [ -104.261664605927621, 19.106766537873646 ], [ -104.262418190894451, 19.10685936323193 ], [ -104.265211144581684, 19.107313342876576 ], [ -104.265997043323736, 19.107355449571834 ], [ -104.26687160536045, 19.107097990685169 ], [ -104.267335078576906, 19.10668808734895 ], [ -104.268623377376898, 19.105032660410309 ], [ -104.268958861712676, 19.104540911200647 ], [ -104.269236170871793, 19.10390151434132 ], [ -104.269296843895319, 19.103479840022057 ], [ -104.269302676558624, 19.102151423597554 ], [ -104.26928302835519, 19.101754847060096 ], [ -104.26918550470559, 19.101232573056887 ], [ -104.269065833766277, 19.100883043825945 ], [ -104.268604896286007, 19.099774180798295 ], [ -104.268495743141344, 19.099465359500446 ], [ -104.268447295793095, 19.099133057116958 ], [ -104.268487238039299, 19.098967160764218 ], [ -104.268722081657003, 19.098525279959521 ], [ -104.268874201680788, 19.098385245408036 ], [ -104.268885512406101, 19.098380206986597 ], [ -104.269349251572038, 19.098173631087644 ], [ -104.269676744792534, 19.09807269869296 ], [ -104.271857819973363, 19.097465686992933 ], [ -104.27218271858699, 19.097359428668263 ], [ -104.272936828597068, 19.096907394896121 ], [ -104.273282060213333, 19.096625785630668 ], [ -104.273608830635482, 19.096081464571284 ], [ -104.27373041423624, 19.095585472802384 ], [ -104.273932566079509, 19.094098173884557 ], [ -104.273745018309739, 19.092237314653719 ], [ -104.27361245232467, 19.091574265442404 ], [ -104.27321704594145, 19.090694985478681 ], [ -104.272784747429824, 19.090101919740043 ], [ -104.27116278048257, 19.088213551910631 ], [ -104.270949417646818, 19.087956102094555 ], [ -104.270715178383327, 19.087683619686 ], [ -104.270404452829709, 19.087325090201059 ], [ -104.270137423057051, 19.087028332358628 ], [ -104.270920735288016, 19.08700719405774 ], [ -104.27127588753082, 19.086970722184478 ], [ -104.271602847927056, 19.086915787063127 ], [ -104.271979428390338, 19.08681983733651 ], [ -104.272502713099755, 19.086663348873056 ], [ -104.276699385453568, 19.085572831257814 ], [ -104.277823118057682, 19.085365432523719 ], [ -104.278792349730054, 19.085235273989731 ], [ -104.278950742575546, 19.085214002840548 ], [ -104.279243185540054, 19.085870852572096 ], [ -104.279934649058632, 19.087534110870614 ], [ -104.280237000462805, 19.088094458597059 ], [ -104.280956507022665, 19.089046156234751 ], [ -104.281682026335048, 19.089845374663142 ], [ -104.284348325472337, 19.092623342461671 ], [ -104.285127586538948, 19.093366840007892 ], [ -104.286097790143444, 19.094058546620381 ], [ -104.286704529876957, 19.094303202382619 ], [ -104.288565779911593, 19.09475321440231 ], [ -104.289113990643216, 19.09493155297514 ], [ -104.28981105284555, 19.095313797313604 ], [ -104.290258645907016, 19.095681522556326 ], [ -104.291650362879594, 19.09701532483594 ], [ -104.292146110404744, 19.097378147502511 ], [ -104.292863622217553, 19.097657889616457 ], [ -104.293344247864525, 19.097713164785098 ], [ -104.295207430819275, 19.097720303126934 ], [ -104.295729582770718, 19.097742633609684 ], [ -104.296303108862318, 19.097839714555512 ], [ -104.296600280100407, 19.097956071995231 ], [ -104.297330783561151, 19.09835660782532 ], [ -104.297435839367338, 19.09839033714373 ], [ -104.297544839052676, 19.098407010638194 ], [ -104.297678985847227, 19.098410821875344 ], [ -104.297748955117228, 19.098405724034119 ], [ -104.297817617248072, 19.098392895401098 ], [ -104.297857062290419, 19.098372363670745 ], [ -104.297877340271654, 19.098361808680362 ], [ -104.297895896185594, 19.098345091469774 ], [ -104.29788345593883, 19.098402403884041 ], [ -104.29786877588333, 19.098479427565366 ], [ -104.297861234165524, 19.098550163869668 ], [ -104.29785326489511, 19.098664042329258 ], [ -104.297847246358856, 19.098750045140701 ], [ -104.297841291243714, 19.098835141686461 ], [ -104.297834099981117, 19.099272281663769 ], [ -104.297833389974002, 19.099440594045383 ], [ -104.297827094886657, 19.100932813078423 ], [ -104.29782685183973, 19.100990423346577 ], [ -104.297825783888385, 19.100993443158593 ], [ -104.29770237783994, 19.101342393684234 ], [ -104.297560428363226, 19.101456361786564 ], [ -104.297408053332248, 19.101477873555645 ], [ -104.297273604775512, 19.101438435312328 ], [ -104.297140948866186, 19.101341632351474 ], [ -104.297030769238049, 19.101132352920661 ], [ -104.296963926991211, 19.100924312067928 ], [ -104.296862101782821, 19.100681438198745 ], [ -104.296778641364412, 19.10053452027211 ], [ -104.296699957600083, 19.100396010835738 ], [ -104.296557111424065, 19.100240779153115 ], [ -104.296369771878787, 19.10009681989132 ], [ -104.29614648886529, 19.100008440213511 ], [ -104.295857417014759, 19.099930562092521 ], [ -104.295591392523121, 19.09988829587348 ], [ -104.295077611682075, 19.099842082781958 ], [ -104.293858611434288, 19.099856423961342 ], [ -104.29278913762883, 19.099994582541726 ], [ -104.291207411035302, 19.100536329504035 ], [ -104.2909398374658, 19.1006279726857 ], [ -104.289267166463532, 19.101636497722101 ], [ -104.283310501802418, 19.105709445513995 ], [ -104.281738984733565, 19.106799625698876 ], [ -104.280362067986658, 19.10781430263237 ], [ -104.280129587319763, 19.108025550429826 ], [ -104.279558731232086, 19.108778686391158 ], [ -104.27941668854038, 19.10906110201104 ], [ -104.279339460141529, 19.109606409416589 ], [ -104.27937117708592, 19.110103004468019 ], [ -104.279596420742095, 19.111875140407989 ], [ -104.279547902643486, 19.112376504644509 ], [ -104.279096236799646, 19.112944067996665 ], [ -104.278499516427814, 19.113253506875907 ], [ -104.276166474713477, 19.114129973886531 ], [ -104.275537481794885, 19.114479942437804 ], [ -104.274935234240914, 19.115236679153121 ], [ -104.274703873897579, 19.115967764611678 ], [ -104.274226433040084, 19.118622759861751 ], [ -104.274037802500573, 19.119364179127579 ], [ -104.27363497524243, 19.12016914131382 ], [ -104.27324813817512, 19.120577667530302 ] ] ] ] } },
{ "type": "Feature", "properties": { "fid": 6.0, "cat": 7, "VULNERABIL": 2.0, "CLAVE_ACUI": "0608", "NOM_ACUIF": "JALIPA-TAPEIXTLES" }, "geometry": { "type": "MultiPolygon", "coordinates": [ [ [ [ -104.295953951450116, 19.094281170743695 ], [ -104.295986291590353, 19.094220294217653 ], [ -104.296135808000727, 19.094268310050275 ], [ -104.296317062995044, 19.094397780483295 ], [ -104.297013406011544, 19.094953958549095 ], [ -104.297199794936489, 19.09513428116859 ], [ -104.297373264415569, 19.095419610095409 ], [ -104.297434688823017, 19.095646900363224 ], [ -104.297547866788605, 19.09642225938482 ], [ -104.297540079553215, 19.096578118871776 ], [ -104.297390560646505, 19.09653010411148 ], [ -104.297184749930082, 19.096305651927747 ], [ -104.296373824631672, 19.09530622119264 ], [ -104.29616288460825, 19.095030914903084 ], [ -104.295989417625435, 19.094745584903972 ], [ -104.295952547133709, 19.09461327709603 ], [ -104.295953951450116, 19.094281170743695 ] ] ] ] } },
{ "type": "Feature", "properties": { "fid": 7.0, "cat": 8, "VULNERABIL": 2.0, "CLAVE_ACUI": "0608", "NOM_ACUIF": "JALIPA-TAPEIXTLES" }, "geometry": { "type": "MultiPolygon", "coordinates": [ ] } },
{ "type": "Feature", "properties": { "fid": 8.0, "cat": 6, "VULNERABIL": 4.0, "CLAVE_ACUI": "0608", "NOM_ACUIF": "JALIPA-TAPEIXTLES" }, "geometry": { "type": "MultiPolygon", "coordinates": [ [ [ [ -104.275425135410714, 19.079595717361283 ], [ -104.275820712942433, 19.079982929205016 ], [ -104.275979063464945, 19.080132615264979 ], [ -104.276202315116521, 19.080333918625623 ], [ -104.276625240256976, 19.080620245364052 ], [ -104.277014658057013, 19.080825106415709 ], [ -104.278409022069667, 19.081494792274476 ], [ -104.278953583966853, 19.081679923260541 ], [ -104.280100503604814, 19.081874183930818 ], [ -104.281194398491138, 19.081966564039579 ], [ -104.285152328572593, 19.082203363443167 ], [ -104.286272766724196, 19.082341566551246 ], [ -104.287543543280478, 19.082749761161477 ], [ -104.288238501623297, 19.083194696807748 ], [ -104.290210884129166, 19.084862861534855 ], [ -104.29072441561317, 19.085225755868102 ], [ -104.291148489385179, 19.085251109660895 ], [ -104.291240775328333, 19.084924436139538 ], [ -104.291247368804093, 19.083374606344346 ], [ -104.291174836536584, 19.082828715097961 ], [ -104.290829761926787, 19.081831052193294 ], [ -104.290409333775884, 19.080951709993329 ], [ -104.288792443603043, 19.077845768285016 ], [ -104.28837255658145, 19.076844423452531 ], [ -104.288029941947556, 19.075277430243116 ], [ -104.287960375955791, 19.07404021397948 ], [ -104.28796622434443, 19.072670897965722 ], [ -104.288166745966606, 19.071395518634343 ], [ -104.288534892311304, 19.069761145537296 ], [ -104.289138373912337, 19.066428621058545 ], [ -104.289500959262597, 19.063863356249922 ], [ -104.288443823008151, 19.06437442134181 ], [ -104.288194945394693, 19.064789187990542 ], [ -104.28802032612424, 19.065442096174468 ], [ -104.287953487062424, 19.065692010003275 ], [ -104.287544349469684, 19.065798880589263 ], [ -104.287001652210876, 19.066022721999907 ], [ -104.286942425325634, 19.066537632639044 ], [ -104.286984606313382, 19.06677475845899 ], [ -104.286787705805608, 19.067099736555345 ], [ -104.285348448904571, 19.069578711107297 ], [ -104.285085341079053, 19.069630317337023 ], [ -104.285022793444, 19.070081549457381 ], [ -104.284928055806418, 19.070227832026365 ], [ -104.284225914483457, 19.071055388026895 ], [ -104.28367494057197, 19.071539555368414 ], [ -104.2818058552227, 19.072971436493674 ], [ -104.28137648142129, 19.073351209756453 ], [ -104.280899605974867, 19.073500282621744 ], [ -104.280562324052795, 19.073578960902765 ], [ -104.280250671526659, 19.073595438283004 ], [ -104.279980611831249, 19.073598041776137 ], [ -104.277885800628724, 19.073368442649393 ], [ -104.277271441233694, 19.073257591242736 ], [ -104.276499239581938, 19.072969896227367 ], [ -104.276058699807791, 19.072702156913572 ], [ -104.275161631212086, 19.072109272239352 ], [ -104.274613753679219, 19.071747167629379 ], [ -104.273841765338631, 19.071333950052498 ], [ -104.273465929435147, 19.071143959680729 ], [ -104.272968660276518, 19.070938270906822 ], [ -104.272622820869586, 19.070813311680247 ], [ -104.273832275020652, 19.069878543319465 ], [ -104.279579184522078, 19.065436846071595 ], [ -104.287251261453989, 19.059507216766406 ], [ -104.290348775249001, 19.057113196381167 ], [ -104.297920996088891, 19.051247979956589 ], [ -104.298313996023865, 19.051508272694303 ], [ -104.298593784396587, 19.051724312426042 ], [ -104.299029823144053, 19.052155649397619 ], [ -104.299429251547963, 19.052589071708269 ], [ -104.299776723227154, 19.053066402956606 ], [ -104.300279914368602, 19.053865077283664 ], [ -104.300625175744315, 19.054456865542225 ], [ -104.301149852630985, 19.055356168291741 ], [ -104.301526211966618, 19.055866506482086 ], [ -104.302105655056693, 19.056479926539261 ], [ -104.302565781191447, 19.056837749629096 ], [ -104.303162405266889, 19.057301718995117 ], [ -104.303992833936945, 19.057987153322586 ], [ -104.304721661610671, 19.058553917199628 ], [ -104.304874255190768, 19.059557131871966 ], [ -104.303554349756652, 19.061992696089202 ], [ -104.30353146937945, 19.065498225717448 ], [ -104.304279179244162, 19.07094152210604 ], [ -104.305110807405455, 19.073836729670212 ], [ -104.306156062340321, 19.076434404789314 ], [ -104.30802870109207, 19.080457587386061 ], [ -104.308683019975945, 19.081866920521431 ], [ -104.30899221494262, 19.082351887408077 ], [ -104.309986114511545, 19.083941341737592 ], [ -104.312366541855255, 19.086895669683823 ], [ -104.31381225612003, 19.088302613239186 ], [ -104.311969183683658, 19.090558084485739 ], [ -104.311204886993153, 19.091493397268508 ], [ -104.310384908214274, 19.090612457000578 ], [ -104.309884261178624, 19.089851428390968 ], [ -104.309080756896719, 19.08877294891218 ], [ -104.307786026644649, 19.086960580059976 ], [ -104.30688738431418, 19.085908846706328 ], [ -104.306452249951178, 19.085401106945898 ], [ -104.305978043333965, 19.085146270403012 ], [ -104.305179116567345, 19.085260748110965 ], [ -104.304401395722778, 19.085456197547302 ], [ -104.303513930148966, 19.08567922698953 ], [ -104.302353005959418, 19.085982112211624 ], [ -104.301609702859153, 19.086431173790288 ], [ -104.30193026877005, 19.087055978641974 ], [ -104.302641274740651, 19.087510547699367 ], [ -104.303434431476134, 19.088778803309008 ], [ -104.303945343942345, 19.089350099059352 ], [ -104.303969139339671, 19.090479881428788 ], [ -104.304345961985035, 19.091294683109066 ], [ -104.305622239958353, 19.092971442549025 ], [ -104.306861724223651, 19.094358853847439 ], [ -104.307363760969395, 19.094785506537459 ], [ -104.307909269229526, 19.09552642980637 ], [ -104.305259628942949, 19.098768943427729 ], [ -104.304494770692784, 19.099704943422569 ], [ -104.303873464135378, 19.100465271149186 ], [ -104.303675977053544, 19.100706947182033 ], [ -104.303326743799019, 19.100490219418383 ], [ -104.303015110940791, 19.100227872327547 ], [ -104.302748724219839, 19.099940594842806 ], [ -104.302332166762469, 19.099391516813398 ], [ -104.301186154205382, 19.097880897059181 ], [ -104.30069378277841, 19.097133471182286 ], [ -104.300249010765796, 19.096088001943158 ], [ -104.300105990898857, 19.095341901275166 ], [ -104.299883336789904, 19.092905567587273 ], [ -104.299724001985481, 19.092225488008761 ], [ -104.299203093238333, 19.091488116581573 ], [ -104.298618273922088, 19.091114807011614 ], [ -104.296410039715298, 19.090110052335 ], [ -104.295750203277407, 19.089777114223388 ], [ -104.294879187692175, 19.08922817092111 ], [ -104.294294716568743, 19.088776904753889 ], [ -104.292438217873439, 19.087219930846882 ], [ -104.291970957751033, 19.086870774445238 ], [ -104.291646888227135, 19.086798362305547 ], [ -104.291651190207645, 19.087044073752587 ], [ -104.291995338337045, 19.088263139264079 ], [ -104.292138140313568, 19.08863138297313 ], [ -104.2924603996819, 19.089130788171804 ], [ -104.292777968830038, 19.08947598010997 ], [ -104.293937707063151, 19.090587466733513 ], [ -104.294244588180504, 19.090932615299209 ], [ -104.294516953399224, 19.091431825963699 ], [ -104.294599164661719, 19.091799835867068 ], [ -104.294710451831051, 19.093018004874541 ], [ -104.294657693869937, 19.093200359440992 ], [ -104.294299718955358, 19.093344590048353 ], [ -104.293613426643901, 19.093363987814659 ], [ -104.29093564381904, 19.093242997591648 ], [ -104.290158864760627, 19.093165450787307 ], [ -104.289211677203326, 19.092924576573338 ], [ -104.288635332076822, 19.092658018634065 ], [ -104.286892920255028, 19.09165494904704 ], [ -104.286527224722093, 19.091377406836692 ], [ -104.286381269405879, 19.091266634558817 ], [ -104.285735968062269, 19.09045757823327 ], [ -104.285325760938619, 19.089690098400773 ], [ -104.285303793961191, 19.089642104776704 ], [ -104.285043436287481, 19.089073271068045 ], [ -104.284863185229156, 19.088679453198644 ], [ -104.284056783435418, 19.086917578493615 ], [ -104.283625052245199, 19.086185594795079 ], [ -104.282879262872669, 19.085542194001412 ], [ -104.282245578786799, 19.085355032696594 ], [ -104.280034176533889, 19.085124999819506 ], [ -104.279490512343514, 19.08514151413376 ], [ -104.278950742575546, 19.085214002840548 ], [ -104.278792349730054, 19.085235273989731 ], [ -104.277823118057682, 19.085365432523719 ], [ -104.276699385453568, 19.085572831257814 ], [ -104.272502713099755, 19.086663348873056 ], [ -104.271979428390338, 19.08681983733651 ], [ -104.271602847927056, 19.086915787063127 ], [ -104.27127588753082, 19.086970722184478 ], [ -104.270920735288016, 19.08700719405774 ], [ -104.270137423057051, 19.087028332358628 ], [ -104.269505627386707, 19.086989906313381 ], [ -104.269300107858115, 19.086981570843783 ], [ -104.269162852464461, 19.086983136384823 ], [ -104.269017317191228, 19.086990089213575 ], [ -104.268994909098367, 19.086941090183963 ], [ -104.268938273260332, 19.086873223734955 ], [ -104.268890444643404, 19.08682722135519 ], [ -104.26881868378797, 19.086766092530429 ], [ -104.267957047264417, 19.086043257302432 ], [ -104.267715860994244, 19.085769494158189 ], [ -104.267518440187487, 19.085270544027669 ], [ -104.267477596211037, 19.084831521504665 ], [ -104.267484410704526, 19.083281699822333 ], [ -104.267502335409503, 19.08285307741993 ], [ -104.267579169660877, 19.082402661342758 ], [ -104.267671008076533, 19.082187832177386 ], [ -104.268022751935618, 19.081635711715908 ], [ -104.268237516274809, 19.081431536961546 ], [ -104.268888005570204, 19.081030840909737 ], [ -104.269602509477053, 19.080662590508229 ], [ -104.270600791863004, 19.08017241713943 ], [ -104.270864883547077, 19.080050222750842 ], [ -104.271148101223105, 19.07990367518606 ], [ -104.271543238304673, 19.079709652408997 ], [ -104.271765899892387, 19.079591130272608 ], [ -104.272045589324492, 19.079448691333472 ], [ -104.272343711910054, 19.079311256380635 ], [ -104.272603469772264, 19.079209214956713 ], [ -104.27292063365303, 19.079107291373294 ], [ -104.273353868250595, 19.07899639402315 ], [ -104.273755287346845, 19.078928094665557 ], [ -104.274367174655609, 19.078823982644959 ], [ -104.274659077411243, 19.078923474577021 ], [ -104.274942016929813, 19.078996076797729 ], [ -104.275095288284575, 19.079198944731289 ], [ -104.275425135410714, 19.079595717361283 ] ], [ [ -104.296357443619655, 19.06516393263021 ], [ -104.296863824793945, 19.064533234887239 ], [ -104.297800201647306, 19.063352882033673 ], [ -104.29876420296749, 19.062380492762269 ], [ -104.299668134789897, 19.062130874872466 ], [ -104.300210500235877, 19.061979294484136 ], [ -104.302094459464229, 19.061462252503372 ], [ -104.302789070975706, 19.061266052445305 ], [ -104.30313769878309, 19.061330137535009 ], [ -104.304462151191572, 19.058895486897825 ], [ -104.303672438851635, 19.059109409888883 ], [ -104.301237142643416, 19.059660531999533 ], [ -104.300295135607271, 19.059928088820318 ], [ -104.299890342518623, 19.059004721748394 ], [ -104.299118024489999, 19.057338877891954 ], [ -104.298588785955147, 19.05663193689022 ], [ -104.298209251695468, 19.056485892809501 ], [ -104.297714154221694, 19.056700910699014 ], [ -104.295790582876265, 19.057606373209651 ], [ -104.295409904221557, 19.057731445773264 ], [ -104.294933692343321, 19.057973640752486 ], [ -104.294297140353223, 19.057926019478352 ], [ -104.293508377806063, 19.057913963499921 ], [ -104.293220819087637, 19.058491265714622 ], [ -104.293168400131407, 19.059647871749679 ], [ -104.292929313367182, 19.059999420179984 ], [ -104.292721727043215, 19.061887472645214 ], [ -104.292294202253061, 19.064090994852677 ], [ -104.29203809367398, 19.063972523991971 ], [ -104.291630421092123, 19.063735982720488 ], [ -104.291211095192551, 19.064005498365898 ], [ -104.291218333348112, 19.064538741352528 ], [ -104.291096526066113, 19.066363857160368 ], [ -104.291151399574986, 19.066870170459946 ], [ -104.290956629225775, 19.067972001918655 ], [ -104.290690396576281, 19.067998090826613 ], [ -104.290693596349897, 19.069480259720859 ], [ -104.290474036620196, 19.069705353605396 ], [ -104.290470498600115, 19.070536793533364 ], [ -104.290545072033979, 19.070880506887423 ], [ -104.290848442658614, 19.071062424528563 ], [ -104.290864337893879, 19.071794526217285 ], [ -104.290842868863109, 19.072372846031406 ], [ -104.290754752950264, 19.072978022071911 ], [ -104.290534227017432, 19.073429050484282 ], [ -104.290229890617638, 19.073473066915646 ], [ -104.289782216474919, 19.073697281469922 ], [ -104.289748235220841, 19.074980480298905 ], [ -104.290013170416501, 19.075261664216324 ], [ -104.290487977514871, 19.075362904873398 ], [ -104.290892331368696, 19.076385701780861 ], [ -104.291904647154851, 19.077492171776129 ], [ -104.292082204623043, 19.078206818820984 ], [ -104.291899962792797, 19.078594732805367 ], [ -104.291743801975329, 19.078815516391924 ], [ -104.291593965355275, 19.079027358689583 ], [ -104.291810656073864, 19.079480067864289 ], [ -104.291970779447269, 19.07982410915336 ], [ -104.292493700715369, 19.079789966816641 ], [ -104.292884090545158, 19.079628789184135 ], [ -104.293208213989274, 19.079404093897605 ], [ -104.293608681698572, 19.079107390300798 ], [ -104.293998456354046, 19.079090808426493 ], [ -104.294321620612507, 19.079092045817426 ], [ -104.294834690346192, 19.079139196871974 ], [ -104.296044018670671, 19.078619641753743 ], [ -104.296387145632366, 19.078395013242307 ], [ -104.296303205112821, 19.078015116177895 ], [ -104.295991112723399, 19.07764338548418 ], [ -104.296026861201128, 19.077146159466373 ], [ -104.296102191443183, 19.076098390200386 ], [ -104.29663460522795, 19.076064271987359 ], [ -104.298705139478002, 19.076424623808041 ], [ -104.300296236558609, 19.077786301292505 ], [ -104.300743923867017, 19.078253461006007 ], [ -104.301469714544339, 19.079010820346976 ], [ -104.302211621995681, 19.078887104504027 ], [ -104.302052348475058, 19.078335211116126 ], [ -104.301430523923756, 19.077022411364769 ], [ -104.300028113061089, 19.07599584922222 ], [ -104.299226371420062, 19.074528720962412 ], [ -104.298276522083782, 19.074380507655732 ], [ -104.295929427295377, 19.0719946859648 ], [ -104.294313120691953, 19.069873722320505 ], [ -104.294024226576852, 19.068516984885346 ], [ -104.294388064086903, 19.067885749021528 ], [ -104.295248330093571, 19.066732232040508 ], [ -104.295756666549636, 19.06564063007978 ], [ -104.296357443619655, 19.06516393263021 ] ] ] ] } },
{ "type": "Feature", "properties": { "fid": 9.0, "cat": 9, "VULNERABIL": 2.0, "CLAVE_ACUI": "0608", "NOM_ACUIF": "JALIPA-TAPEIXTLES" }, "geometry": { "type": "MultiPolygon", "coordinates": [ [ [ [ -104.264105163081013, 19.087743819417856 ], [ -104.262661188161957, 19.087412715240699 ], [ -104.257543712291465, 19.086063729661628 ], [ -104.257048706660214, 19.085967085083194 ], [ -104.256570299531546, 19.085824910965396 ], [ -104.256174265373247, 19.085658445933923 ], [ -104.255754831489782, 19.085437468550786 ], [ -104.255484929479834, 19.085298299655943 ], [ -104.255255867085197, 19.085217305291184 ], [ -104.254813223237022, 19.085126581141576 ], [ -104.25447651700695, 19.08508712707382 ], [ -104.254177873544947, 19.085069125478711 ], [ -104.261842622660524, 19.079145159729155 ], [ -104.268099553141354, 19.074309275174166 ], [ -104.270369484836792, 19.072554880162034 ], [ -104.270329443289086, 19.072856318536314 ], [ -104.270324491981754, 19.073033120509347 ], [ -104.270321856944108, 19.07312721254651 ], [ -104.270374776791257, 19.073532905893874 ], [ -104.270441487654807, 19.073860659465879 ], [ -104.27050230280777, 19.07412487602252 ], [ -104.27057043663585, 19.074361524160643 ], [ -104.270697155435528, 19.074756909331295 ], [ -104.270878589456245, 19.075185021455486 ], [ -104.270967499186199, 19.075324449228145 ], [ -104.271028154249166, 19.075419568025719 ], [ -104.271278107535593, 19.07574874267949 ], [ -104.271704338751761, 19.076278752171941 ], [ -104.272033897967859, 19.076680402610702 ], [ -104.272347185965231, 19.07708249121853 ], [ -104.272540630949479, 19.077336028966929 ], [ -104.272730745323699, 19.07758520146713 ], [ -104.272939946002722, 19.077877472775494 ], [ -104.273097872617754, 19.07806583763152 ], [ -104.273247494479335, 19.078209148601374 ], [ -104.273353818491941, 19.078300622281883 ], [ -104.273460122896807, 19.078373021313009 ], [ -104.273719431386169, 19.078529988467313 ], [ -104.274035534882003, 19.078683558596687 ], [ -104.274367174655609, 19.078823982644959 ], [ -104.273755287346845, 19.078928094665557 ], [ -104.273353868250595, 19.07899639402315 ], [ -104.27292063365303, 19.079107291373294 ], [ -104.272603469772264, 19.079209214956713 ], [ -104.272343711910054, 19.079311256380635 ], [ -104.272045589324492, 19.079448691333472 ], [ -104.271765899892387, 19.079591130272608 ], [ -104.271543238304673, 19.079709652408997 ], [ -104.271148101223105, 19.07990367518606 ], [ -104.270864883547077, 19.080050222750842 ], [ -104.270600791863004, 19.08017241713943 ], [ -104.269602509477053, 19.080662590508229 ], [ -104.268888005570204, 19.081030840909737 ], [ -104.268237516274809, 19.081431536961546 ], [ -104.268022751935618, 19.081635711715908 ], [ -104.267671008076533, 19.082187832177386 ], [ -104.267579169660877, 19.082402661342758 ], [ -104.267502335409503, 19.08285307741993 ], [ -104.267484410704526, 19.083281699822333 ], [ -104.267477596211037, 19.084831521504665 ], [ -104.267518440187487, 19.085270544027669 ], [ -104.267715860994244, 19.085769494158189 ], [ -104.267957047264417, 19.086043257302432 ], [ -104.26881868378797, 19.086766092530429 ], [ -104.268890444643404, 19.08682722135519 ], [ -104.268938273260332, 19.086873223734955 ], [ -104.268994909098367, 19.086941090183963 ], [ -104.269017317191228, 19.086990089213575 ], [ -104.269035684604177, 19.087044434775986 ], [ -104.269030911434157, 19.087085248914367 ], [ -104.269018811064029, 19.087127525516127 ], [ -104.268996029503057, 19.087159569088843 ], [ -104.268968616936135, 19.087188475528571 ], [ -104.26889575100121, 19.087241759025847 ], [ -104.268803052399434, 19.087301385768001 ], [ -104.268707418858895, 19.087341702608825 ], [ -104.268577222248425, 19.08738895326557 ], [ -104.268337013351115, 19.087453411326447 ], [ -104.26637309506026, 19.087902402911944 ], [ -104.266118830386404, 19.087938175620302 ], [ -104.265726186171008, 19.087940062794758 ], [ -104.264105163081013, 19.087743819417856 ] ] ] ] } },
{ "type": "Feature", "properties": { "fid": 10.0, "cat": 11, "VULNERABIL": 5.0, "CLAVE_ACUI": "0608", "NOM_ACUIF": "JALIPA-TAPEIXTLES" }, "geometry": { "type": "MultiPolygon", "coordinates": [ ] } },
{ "type": "Feature", "properties": { "fid": 11.0, "cat": 12, "VULNERABIL": 3.0, "CLAVE_ACUI": "0608", "NOM_ACUIF": "JALIPA-TAPEIXTLES" }, "geometry": { "type": "MultiPolygon", "coordinates": [ [ [ [ -104.272622820869586, 19.070813311680247 ], [ -104.272968660276518, 19.070938270906822 ], [ -104.273465929435147, 19.071143959680729 ], [ -104.273841765338631, 19.071333950052498 ], [ -104.274613753679219, 19.071747167629379 ], [ -104.275161631212086, 19.072109272239352 ], [ -104.276058699807791, 19.072702156913572 ], [ -104.276499239581938, 19.072969896227367 ], [ -104.277271441233694, 19.073257591242736 ], [ -104.277885800628724, 19.073368442649393 ], [ -104.279980611831249, 19.073598041776137 ], [ -104.280250671526659, 19.073595438283004 ], [ -104.280562324052795, 19.073578960902765 ], [ -104.280899605974867, 19.073500282621744 ], [ -104.28137648142129, 19.073351209756453 ], [ -104.281287055697945, 19.073430304817773 ], [ -104.280735093065033, 19.07413982035072 ], [ -104.280465375393874, 19.07469454657118 ], [ -104.279758648361067, 19.076573752337172 ], [ -104.279547910185698, 19.077088040556298 ], [ -104.279271201407596, 19.077608848368378 ], [ -104.279086642039175, 19.077838571398527 ], [ -104.278502072494007, 19.078389803475659 ], [ -104.278280415813043, 19.07854313039913 ], [ -104.277830589343282, 19.078707424501495 ], [ -104.277409636803625, 19.078788802849456 ], [ -104.275895016497415, 19.079004267419567 ], [ -104.275663093206546, 19.079032848909698 ], [ -104.27546370228751, 19.079044797101965 ], [ -104.275243480471701, 19.079032826069923 ], [ -104.274942016929813, 19.078996076797729 ], [ -104.274659077411243, 19.078923474577021 ], [ -104.274367174655609, 19.078823982644959 ], [ -104.274035534882003, 19.078683558596687 ], [ -104.273719431386169, 19.078529988467313 ], [ -104.273460122896807, 19.078373021313009 ], [ -104.273353818491941, 19.078300622281883 ], [ -104.273247494479335, 19.078209148601374 ], [ -104.273097872617754, 19.07806583763152 ], [ -104.272939946002722, 19.077877472775494 ], [ -104.272730745323699, 19.07758520146713 ], [ -104.272540630949479, 19.077336028966929 ], [ -104.272347185965231, 19.07708249121853 ], [ -104.272033897967859, 19.076680402610702 ], [ -104.271704338751761, 19.076278752171941 ], [ -104.271278107535593, 19.07574874267949 ], [ -104.271028154249166, 19.075419568025719 ], [ -104.270967499186199, 19.075324449228145 ], [ -104.270878589456245, 19.075185021455486 ], [ -104.270697155435528, 19.074756909331295 ], [ -104.27057043663585, 19.074361524160643 ], [ -104.27050230280777, 19.07412487602252 ], [ -104.270441487654807, 19.073860659465879 ], [ -104.270374776791257, 19.073532905893874 ], [ -104.270321856944108, 19.07312721254651 ], [ -104.270329443289086, 19.072856318536314 ], [ -104.270369484836792, 19.072554880162034 ], [ -104.270552831254065, 19.072413174558918 ], [ -104.271512427046517, 19.071671517849456 ], [ -104.272622820869586, 19.070813311680247 ] ] ] ] } },
{ "type": "Feature", "properties": { "fid": 12.0, "cat": 13, "VULNERABIL": 2.0, "CLAVE_ACUI": "0608", "NOM_ACUIF": "JALIPA-TAPEIXTLES" }, "geometry": { "type": "MultiPolygon", "coordinates": [ ] } },
{ "type": "Feature", "properties": { "fid": 13.0, "cat": 10, "VULNERABIL": 5.0, "CLAVE_ACUI": "0608", "NOM_ACUIF": "JALIPA-TAPEIXTLES" }, "geometry": { "type": "MultiPolygon", "coordinates": [ [ [ [ -104.285348448904571, 19.069578711107297 ], [ -104.285579924140137, 19.069180024386871 ], [ -104.286787705805608, 19.067099736555345 ], [ -104.286984606313382, 19.06677475845899 ], [ -104.287063081058477, 19.067215914280009 ], [ -104.286993654113317, 19.067893461069733 ], [ -104.286752686753488, 19.068678794847919 ], [ -104.286218284005457, 19.069182829183237 ], [ -104.285627549290751, 19.06952396808088 ], [ -104.285348448904571, 19.069578711107297 ] ] ], [ [ [ -104.286324160876205, 19.073313390578715 ], [ -104.286682972493097, 19.073866068294123 ], [ -104.287032436508554, 19.074382559084949 ], [ -104.287678243787894, 19.074502543080438 ], [ -104.28796622434443, 19.072670897965722 ], [ -104.287960375955791, 19.07404021397948 ], [ -104.288029941947556, 19.075277430243116 ], [ -104.28837255658145, 19.076844423452531 ], [ -104.288792443603043, 19.077845768285016 ], [ -104.290409333775884, 19.080951709993329 ], [ -104.290829761926787, 19.081831052193294 ], [ -104.291174836536584, 19.082828715097961 ], [ -104.291247368804093, 19.083374606344346 ], [ -104.291240775328333, 19.084924436139538 ], [ -104.291148489385179, 19.085251109660895 ], [ -104.29072441561317, 19.085225755868102 ], [ -104.290210884129166, 19.084862861534855 ], [ -104.288238501623297, 19.083194696807748 ], [ -104.287543543280478, 19.082749761161477 ], [ -104.286272766724196, 19.082341566551246 ], [ -104.285152328572593, 19.082203363443167 ], [ -104.281194398491138, 19.081966564039579 ], [ -104.280100503604814, 19.081874183930818 ], [ -104.278953583966853, 19.081679923260541 ], [ -104.278409022069667, 19.081494792274476 ], [ -104.277014658057013, 19.080825106415709 ], [ -104.276625240256976, 19.080620245364052 ], [ -104.276202315116521, 19.080333918625623 ], [ -104.275979063464945, 19.080132615264979 ], [ -104.275820712942433, 19.079982929205016 ], [ -104.275425135410714, 19.079595717361283 ], [ -104.275095288284575, 19.079198944731289 ], [ -104.274942016929813, 19.078996076797729 ], [ -104.275243480471701, 19.079032826069923 ], [ -104.27546370228751, 19.079044797101965 ], [ -104.275663093206546, 19.079032848909698 ], [ -104.275895016497415, 19.079004267419567 ], [ -104.277409636803625, 19.078788802849456 ], [ -104.277830589343282, 19.078707424501495 ], [ -104.278280415813043, 19.07854313039913 ], [ -104.278502072494007, 19.078389803475659 ], [ -104.279086642039175, 19.077838571398527 ], [ -104.279271201407596, 19.077608848368378 ], [ -104.279547910185698, 19.077088040556298 ], [ -104.279758648361067, 19.076573752337172 ], [ -104.280465375393874, 19.07469454657118 ], [ -104.280735093065033, 19.07413982035072 ], [ -104.281287055697945, 19.073430304817773 ], [ -104.28137648142129, 19.073351209756453 ], [ -104.2818058552227, 19.072971436493674 ], [ -104.28367494057197, 19.071539555368414 ], [ -104.284225914483457, 19.071055388026895 ], [ -104.284928055806418, 19.070227832026365 ], [ -104.285022793444, 19.070081549457381 ], [ -104.284967646850745, 19.070479388867103 ], [ -104.285078288648862, 19.071275120418083 ], [ -104.286324160876205, 19.073313390578715 ] ] ] ] } },
{ "type": "Feature", "properties": { "fid": 14.0, "cat": 14, "VULNERABIL": 5.0, "CLAVE_ACUI": "0608", "NOM_ACUIF": "JALIPA-TAPEIXTLES" }, "geometry": { "type": "MultiPolygon", "coordinates": [ ] } },
{ "type": "Feature", "properties": { "fid": 15.0, "cat": 15, "VULNERABIL": 5.0, "CLAVE_ACUI": "0608", "NOM_ACUIF": "JALIPA-TAPEIXTLES" }, "geometry": { "type": "MultiPolygon", "coordinates": [ ] } },
{ "type": "Feature", "properties": { "fid": 18.0, "cat": 18, "VULNERABIL": 2.0, "CLAVE_ACUI": "0608", "NOM_ACUIF": "JALIPA-TAPEIXTLES" }, "geometry": { "type": "MultiPolygon", "coordinates": [ [ [ [ -104.321591585397471, 19.048756880363332 ], [ -104.323934240030866, 19.045222915219895 ], [ -104.324544079702349, 19.044232191004834 ], [ -104.325047400582719, 19.043142796170365 ], [ -104.325156596321833, 19.042577243938801 ], [ -104.325157587795175, 19.042331901971597 ], [ -104.325238244304842, 19.042280171470139 ], [ -104.325536261830706, 19.041431724122411 ], [ -104.325245546890542, 19.040472674356906 ], [ -104.325307126365033, 19.039343196796935 ], [ -104.325366222730622, 19.038828268278575 ], [ -104.326440927784603, 19.038606250620695 ], [ -104.327031217117934, 19.038328236274474 ], [ -104.327337555889116, 19.037769019563502 ], [ -104.327693951103868, 19.036577350593252 ], [ -104.327939692958751, 19.034544778532037 ], [ -104.327648974729897, 19.033585731776967 ], [ -104.327981139473025, 19.032189344928518 ], [ -104.328132266290865, 19.031554023133392 ], [ -104.329320947274297, 19.03133240166061 ], [ -104.330270948248653, 19.031390074029094 ], [ -104.330747179651851, 19.031111633191401 ], [ -104.330750111299793, 19.030379595179898 ], [ -104.330457355651234, 19.029926652524534 ], [ -104.328672339950529, 19.029576744614584 ], [ -104.327709541500539, 19.029573241364414 ], [ -104.327611218741524, 19.028742967148851 ], [ -104.327389880521437, 19.027959317167266 ], [ -104.327168518250858, 19.027624700964324 ], [ -104.326356835938242, 19.026846806764656 ], [ -104.326060238656311, 19.026613583101003 ], [ -104.325487797049462, 19.026303101223345 ], [ -104.324966621049313, 19.02609277851629 ], [ -104.323106916071779, 19.025421744357757 ], [ -104.322596476915763, 19.025201287624 ], [ -104.322074124471527, 19.024843533941372 ], [ -104.321838345363858, 19.024552914911329 ], [ -104.32126039803876, 19.023554446284258 ], [ -104.321126111194943, 19.023279449313222 ], [ -104.321077382567907, 19.022994599764317 ], [ -104.321142056633008, 19.022862668862999 ], [ -104.321492596630748, 19.022531840445367 ], [ -104.321701434398406, 19.022436022348867 ], [ -104.322325471006963, 19.022319698789879 ], [ -104.323008113891078, 19.022249338422341 ], [ -104.325569741347167, 19.022037293213117 ], [ -104.326380840545681, 19.021921638345951 ], [ -104.327604343139583, 19.021593977509699 ], [ -104.328541102401246, 19.021241544373783 ], [ -104.331689116563581, 19.01992448866358 ], [ -104.332481673731166, 19.019541013092056 ], [ -104.333188472902904, 19.019056361570758 ], [ -104.333919853822977, 19.019928177590984 ], [ -104.334423404703941, 19.020055962760892 ], [ -104.334865918702107, 19.020002559123942 ], [ -104.335285544471503, 19.020303903964471 ], [ -104.335262656957028, 19.020584269678711 ], [ -104.335392359779505, 19.020927574518428 ], [ -104.336079020634884, 19.021328096375562 ], [ -104.336262131530376, 19.021970839515337 ], [ -104.336628349516616, 19.022089089065577 ], [ -104.336674127851765, 19.022495333563754 ], [ -104.335888283984673, 19.02239234388351 ], [ -104.33536184570309, 19.022590698505841 ], [ -104.334675187885736, 19.023410818717903 ], [ -104.334461563542789, 19.024322486020861 ], [ -104.334316603722925, 19.025188379092373 ], [ -104.334659935391613, 19.026067621725264 ], [ -104.33491934036492, 19.026122931147803 ], [ -104.335094821634286, 19.026555876676234 ], [ -104.335125343293058, 19.027938634870836 ], [ -104.336254519324171, 19.029119221523867 ], [ -104.336208743078387, 19.029552167551781 ], [ -104.335041421938286, 19.029620831747629 ], [ -104.334667575092467, 19.029962230358922 ], [ -104.334331875343693, 19.030213988094118 ], [ -104.33359181010556, 19.030635493291015 ], [ -104.333713884413328, 19.031215297104634 ], [ -104.334263212552671, 19.031316380851585 ], [ -104.334286101643727, 19.031669221864529 ], [ -104.333973290712066, 19.031802730071902 ], [ -104.333423963071397, 19.031901908927999 ], [ -104.333416337524795, 19.033330440395027 ], [ -104.333988553871919, 19.033429616724877 ], [ -104.33399618372205, 19.033729055131452 ], [ -104.333744409583375, 19.034007514898686 ], [ -104.333294267444515, 19.034448091302458 ], [ -104.333294269292495, 19.035190012482254 ], [ -104.332958570375013, 19.035775539426826 ], [ -104.332508426350046, 19.035458936624789 ], [ -104.3317607302955, 19.035554300297679 ], [ -104.331554733775249, 19.035951009439632 ], [ -104.331623400822252, 19.0365575155969 ], [ -104.331264814480917, 19.037459646410603 ], [ -104.331211408459765, 19.037984141515494 ], [ -104.331463186400853, 19.038871012929363 ], [ -104.331272449571884, 19.039862785057533 ], [ -104.331013047526142, 19.040621871318546 ], [ -104.331066455014223, 19.041047188564754 ], [ -104.331325860615507, 19.041354255869102 ], [ -104.331585265998228, 19.041573589747859 ], [ -104.331663219553775, 19.041989860719479 ], [ -104.33171846763797, 19.042341981329969 ], [ -104.331869221621801, 19.04329251918163 ], [ -104.332264302684891, 19.044314309034959 ], [ -104.33224141447154, 19.044674780517706 ], [ -104.331943864743806, 19.04564938660128 ], [ -104.331653943402685, 19.046335998435044 ], [ -104.331447946184028, 19.046452341012227 ], [ -104.33070787979949, 19.04641419806428 ], [ -104.330257735953026, 19.046530541191686 ], [ -104.330135664976879, 19.046927250149174 ], [ -104.329960185683319, 19.047287721077602 ], [ -104.329891522827907, 19.04836341163417 ], [ -104.329975450286796, 19.049492504490253 ], [ -104.32985337798354, 19.049717560428387 ], [ -104.329853380032645, 19.050539586482692 ], [ -104.329670273123071, 19.051497027821636 ], [ -104.328686062021987, 19.051865129138456 ], [ -104.327678961914302, 19.051914720219063 ], [ -104.327022820758216, 19.052111168674671 ], [ -104.326847343718995, 19.053015206456315 ], [ -104.326572679702906, 19.052986598388479 ], [ -104.326099647619728, 19.053093405639203 ], [ -104.325420618450721, 19.053369959009757 ], [ -104.325031512771915, 19.053821978580491 ], [ -104.324428779865613, 19.054388433381089 ], [ -104.323955747444714, 19.054359825760297 ], [ -104.323658195981494, 19.054638285637115 ], [ -104.323475088443914, 19.055343969095517 ], [ -104.323269091024414, 19.055740678246 ], [ -104.322637524269723, 19.055764685027171 ], [ -104.321964438758172, 19.055790269997352 ], [ -104.321399853015052, 19.056293785241866 ], [ -104.321003117688761, 19.056888849166036 ], [ -104.320530086389525, 19.057310352874829 ], [ -104.319860510312395, 19.05736683303741 ], [ -104.320365605906559, 19.052266685873935 ], [ -104.320476583575982, 19.051269056244539 ], [ -104.32098140091334, 19.049823842969104 ], [ -104.321591585397471, 19.048756880363332 ] ] ] ] } },
{ "type": "Feature", "properties": { "fid": 16.0, "cat": 16, "VULNERABIL": 3.0, "CLAVE_ACUI": "0608", "NOM_ACUIF": "JALIPA-TAPEIXTLES" }, "geometry": { "type": "MultiPolygon", "coordinates": [ [ [ [ -104.315105486639155, 19.061330852824902 ], [ -104.314632454060416, 19.061239305732094 ], [ -104.314868969401729, 19.060724347929114 ], [ -104.315517479833218, 19.060237996985915 ], [ -104.316936573570047, 19.059269109556503 ], [ -104.316631391108999, 19.059148953398356 ], [ -104.316181247214416, 19.058885753231674 ], [ -104.317073903151453, 19.058309760946308 ], [ -104.317577452800336, 19.057941659811132 ], [ -104.318340407062095, 19.057844388735123 ], [ -104.318615069818819, 19.05736757456533 ], [ -104.318401440884514, 19.056797306871321 ], [ -104.317897890042573, 19.05668668708979 ], [ -104.317051012489941, 19.057687996645328 ], [ -104.316265167804389, 19.05725886720974 ], [ -104.316425387790801, 19.056818291448053 ], [ -104.316845012114356, 19.056537923929742 ], [ -104.31729515486316, 19.05634147593771 ], [ -104.317722409128564, 19.056036314446686 ], [ -104.317958923660825, 19.055557593897266 ], [ -104.317936034008241, 19.054979696311523 ], [ -104.317546926275398, 19.054607783357167 ], [ -104.316928932891187, 19.054624950141722 ], [ -104.316272791187274, 19.054602064130989 ], [ -104.3157463517053, 19.054319792278637 ], [ -104.315113099616795, 19.054499075290607 ], [ -104.314945254151979, 19.056394884774988 ], [ -104.314235706071457, 19.056392979008017 ], [ -104.314144149507783, 19.055624356695834 ], [ -104.314350146456334, 19.055399300567018 ], [ -104.314357773713297, 19.054296907917905 ], [ -104.313602447138521, 19.054186289602708 ], [ -104.313007343312421, 19.054382737920747 ], [ -104.312892898763437, 19.054066134355846 ], [ -104.311550097867197, 19.05395170173318 ], [ -104.309802932338997, 19.054352229086252 ], [ -104.307475924169793, 19.056505521619307 ], [ -104.306690080833192, 19.056618051671496 ], [ -104.305788097373224, 19.057480861265745 ], [ -104.305194692702614, 19.058048493895182 ], [ -104.304721661610671, 19.058553917199628 ], [ -104.303992833936945, 19.057987153322586 ], [ -104.303162405266889, 19.057301718995117 ], [ -104.302565781191447, 19.056837749629096 ], [ -104.302105655056693, 19.056479926539261 ], [ -104.301526211966618, 19.055866506482086 ], [ -104.301149852630985, 19.055356168291741 ], [ -104.300625175744315, 19.054456865542225 ], [ -104.300279914368602, 19.053865077283664 ], [ -104.299776723227154, 19.053066402956606 ], [ -104.299429251547963, 19.052589071708269 ], [ -104.299029823144053, 19.052155649397619 ], [ -104.298593784396587, 19.051724312426042 ], [ -104.298313996023865, 19.051508272694303 ], [ -104.297920996088891, 19.051247979956589 ], [ -104.308292450595957, 19.043244807922033 ], [ -104.31030260124551, 19.041691193652369 ], [ -104.31193234720098, 19.037416723518131 ], [ -104.318336945746836, 19.020616386027747 ], [ -104.319328307484128, 19.018018723947481 ], [ -104.319744146604947, 19.018682774369296 ], [ -104.321491314802955, 19.018997466884446 ], [ -104.324237952579793, 19.019052770711269 ], [ -104.326023267845926, 19.019266379055665 ], [ -104.326793852852276, 19.019468546388762 ], [ -104.328533390637489, 19.019619215366696 ], [ -104.329349752493115, 19.019630656823853 ], [ -104.329387899953531, 19.019325496221484 ], [ -104.329250566719608, 19.018818167846373 ], [ -104.329426045204983, 19.018493934178057 ], [ -104.330036408807501, 19.018205937679557 ], [ -104.329990629486034, 19.017402984511968 ], [ -104.33052469813218, 19.017349580669411 ], [ -104.33128765252691, 19.017307619606168 ], [ -104.332180310462803, 19.017536487984042 ], [ -104.332310014369398, 19.017954175586201 ], [ -104.333188472902904, 19.019056361570758 ], [ -104.332481673731166, 19.019541013092056 ], [ -104.331689116563581, 19.01992448866358 ], [ -104.328541102401246, 19.021241544373783 ], [ -104.327604343139583, 19.021593977509699 ], [ -104.326380840545681, 19.021921638345951 ], [ -104.325569741347167, 19.022037293213117 ], [ -104.323008113891078, 19.022249338422341 ], [ -104.322325471006963, 19.022319698789879 ], [ -104.321701434398406, 19.022436022348867 ], [ -104.321492596630748, 19.022531840445367 ], [ -104.321142056633008, 19.022862668862999 ], [ -104.321077382567907, 19.022994599764317 ], [ -104.321126111194943, 19.023279449313222 ], [ -104.32126039803876, 19.023554446284258 ], [ -104.321838345363858, 19.024552914911329 ], [ -104.322074124471527, 19.024843533941372 ], [ -104.322596476915763, 19.025201287624 ], [ -104.323106916071779, 19.025421744357757 ], [ -104.324966621049313, 19.02609277851629 ], [ -104.325487797049462, 19.026303101223345 ], [ -104.326060238656311, 19.026613583101003 ], [ -104.326356835938242, 19.026846806764656 ], [ -104.327168518250858, 19.027624700964324 ], [ -104.327389880521437, 19.027959317167266 ], [ -104.327611218741524, 19.028742967148851 ], [ -104.327709541500539, 19.029573241364414 ], [ -104.327304040521511, 19.029571767497718 ], [ -104.326715567088812, 19.029406946450891 ], [ -104.326718552518727, 19.02866587140884 ], [ -104.326245017861964, 19.028275526938845 ], [ -104.325589160961826, 19.028327359872929 ], [ -104.324998211788596, 19.028777083383464 ], [ -104.32481606680345, 19.029174073566352 ], [ -104.323314011255789, 19.029349330677153 ], [ -104.319913820616904, 19.028957265298285 ], [ -104.318370363993807, 19.029963790791751 ], [ -104.318392530116441, 19.031518343079977 ], [ -104.317621230510937, 19.031913150751095 ], [ -104.315597264105648, 19.031905663230823 ], [ -104.31539335577709, 19.037607640095548 ], [ -104.316216628128657, 19.040773852802001 ], [ -104.316446797610126, 19.042582226112597 ], [ -104.316384934380793, 19.043765923219638 ], [ -104.316183545485202, 19.044409558543062 ], [ -104.315961255193017, 19.045119994357826 ], [ -104.316071329559037, 19.046087425499955 ], [ -104.315906297942931, 19.0469363484513 ], [ -104.316635405977337, 19.04758071851095 ], [ -104.317700674556065, 19.047358718872651 ], [ -104.317942866246113, 19.046229913505197 ], [ -104.318073307392083, 19.044540363345181 ], [ -104.318077920657174, 19.043410679652528 ], [ -104.318167726561185, 19.042362648898916 ], [ -104.31995403014966, 19.04242346221799 ], [ -104.32045639117888, 19.042741628128091 ], [ -104.321547966524349, 19.04305292111717 ], [ -104.322439839553383, 19.043399625457958 ], [ -104.323096708840282, 19.043112831180064 ], [ -104.323752844000467, 19.043006784111547 ], [ -104.324285478180087, 19.042891245140531 ], [ -104.325157587795175, 19.042331901971597 ], [ -104.325156596321833, 19.042577243938801 ], [ -104.325047400582719, 19.043142796170365 ], [ -104.324544079702349, 19.044232191004834 ], [ -104.323934240030866, 19.045222915219895 ], [ -104.321591585397471, 19.048756880363332 ], [ -104.32098140091334, 19.049823842969104 ], [ -104.320476583575982, 19.051269056244539 ], [ -104.320365605906559, 19.052266685873935 ], [ -104.319860510312395, 19.05736683303741 ], [ -104.31928647069266, 19.057415254497123 ], [ -104.319019436840648, 19.057811963786179 ], [ -104.318706627191304, 19.058460430165194 ], [ -104.318355668832453, 19.058912449652478 ], [ -104.316028660255341, 19.060539341631976 ], [ -104.315105486639155, 19.061330852824902 ] ] ] ] } }
]
}
